{
  "type": "FeatureCollection",
  "features": [
    {
      "type": "Feature",
      "geometry": {
        "type": "Polygon",
        "coordinates": [
          [
            [
              10.067194,
              55.47330935
            ],
            [
              10.06776723,
              55.47327729
            ],
            [
              10.06766005,
              55.47367721
            ],
            [
              10.06750779,
              55.47368244
            ],
            [
              10.06734225,
              55.47364933
            ],
            [
              10.06710605,
              55.47357978
            ],
            [
              10.067194,
              55.47330935
            ]
          ]
        ]
      },
      "properties": {
        "source": "parcel_boundary"
      }
    }
  ]
}
