{
  "type": "FeatureCollection",
  "features": [
    {
      "type": "Feature",
      "geometry": {
        "type": "Polygon",
        "coordinates": [
          [
            [
              10.43517787,
              55.3382997
            ],
            [
              10.43545994,
              55.33831912
            ],
            [
              10.43528311,
              55.33862992
            ],
            [
              10.43502378,
              55.33859549
            ],
            [
              10.43517787,
              55.3382997
            ]
          ]
        ]
      },
      "properties": {
        "source": "parcel_boundary"
      }
    }
  ]
}
