{
  "type": "FeatureCollection",
  "features": [
    {
      "type": "Feature",
      "geometry": {
        "type": "Polygon",
        "coordinates": [
          [
            [
              10.34661347,
              55.42876601
            ],
            [
              10.34664556,
              55.42883726
            ],
            [
              10.34622225,
              55.42889804
            ],
            [
              10.34619038,
              55.42882623
            ],
            [
              10.34661347,
              55.42876601
            ]
          ]
        ]
      },
      "properties": {
        "source": "parcel_boundary"
      }
    }
  ]
}
