{
  "type": "FeatureCollection",
  "features": [
    {
      "type": "Feature",
      "geometry": {
        "type": "Polygon",
        "coordinates": [
          [
            [
              10.57769563,
              55.4669951
            ],
            [
              10.57770463,
              55.46672581
            ],
            [
              10.57773971,
              55.46670655
            ],
            [
              10.57819601,
              55.4667133
            ],
            [
              10.57817974,
              55.4670026
            ],
            [
              10.57769563,
              55.4669951
            ]
          ]
        ]
      },
      "properties": {
        "source": "parcel_boundary"
      }
    }
  ]
}
