{
  "type": "FeatureCollection",
  "features": [
    {
      "type": "Feature",
      "geometry": {
        "type": "Polygon",
        "coordinates": [
          [
            [
              10.21297462,
              55.12988672
            ],
            [
              10.21333293,
              55.12978366
            ],
            [
              10.21350222,
              55.12999779
            ],
            [
              10.2131018,
              55.13009701
            ],
            [
              10.21297462,
              55.12988672
            ]
          ]
        ]
      },
      "properties": {
        "source": "parcel_boundary"
      }
    }
  ]
}
