{
  "type": "FeatureCollection",
  "features": [
    {
      "type": "Feature",
      "geometry": {
        "type": "Polygon",
        "coordinates": [
          [
            [
              9.72921912,
              55.79448718
            ],
            [
              9.72915781,
              55.79451982
            ],
            [
              9.72908044,
              55.79453181
            ],
            [
              9.72897955,
              55.79453037
            ],
            [
              9.72778085,
              55.79433364
            ],
            [
              9.72804527,
              55.7934098
            ],
            [
              9.72829363,
              55.79283331
            ],
            [
              9.72899237,
              55.79293161
            ],
            [
              9.72889964,
              55.79313655
            ],
            [
              9.72964153,
              55.79328574
            ],
            [
              9.72973168,
              55.79325344
            ],
            [
              9.72964296,
              55.79338114
            ],
            [
              9.72952356,
              55.79362796
            ],
            [
              9.72941867,
              55.79394959
            ],
            [
              9.72928124,
              55.79440478
            ],
            [
              9.72925531,
              55.79444893
            ],
            [
              9.72921912,
              55.79448718
            ]
          ]
        ]
      },
      "properties": {
        "source": "parcel_boundary"
      }
    }
  ]
}
