{
  "type": "FeatureCollection",
  "features": [
    {
      "type": "Feature",
      "geometry": {
        "type": "Polygon",
        "coordinates": [
          [
            [
              9.66887595,
              55.71298919
            ],
            [
              9.66892046,
              55.71284514
            ],
            [
              9.66842119,
              55.71240307
            ],
            [
              9.6685385,
              55.71239316
            ],
            [
              9.66859969,
              55.71242833
            ],
            [
              9.66891143,
              55.71261215
            ],
            [
              9.66902258,
              55.71266439
            ],
            [
              9.66904958,
              55.71266685
            ],
            [
              9.66903905,
              55.71270319
            ],
            [
              9.66914176,
              55.71278548
            ],
            [
              9.66917379,
              55.71281574
            ],
            [
              9.66916692,
              55.71284952
            ],
            [
              9.66911393,
              55.71299345
            ],
            [
              9.66887595,
              55.71298919
            ]
          ]
        ]
      },
      "properties": {
        "source": "parcel_boundary"
      }
    }
  ]
}
