{
  "type": "FeatureCollection",
  "features": [
    {
      "type": "Feature",
      "geometry": {
        "type": "Polygon",
        "coordinates": [
          [
            [
              10.1518177,
              55.45371373
            ],
            [
              10.15177939,
              55.4535955
            ],
            [
              10.15167549,
              55.45342646
            ],
            [
              10.15154336,
              55.45323112
            ],
            [
              10.15144048,
              55.45310052
            ],
            [
              10.15136862,
              55.45298752
            ],
            [
              10.15129,
              55.45286684
            ],
            [
              10.15123205,
              55.45277689
            ],
            [
              10.15116857,
              55.45268419
            ],
            [
              10.15113408,
              55.45264222
            ],
            [
              10.15100763,
              55.45249505
            ],
            [
              10.15092018,
              55.45239558
            ],
            [
              10.15084283,
              55.45224778
            ],
            [
              10.15079459,
              55.45212141
            ],
            [
              10.15073839,
              55.45197574
            ],
            [
              10.1507024,
              55.45180527
            ],
            [
              10.15069268,
              55.45171556
            ],
            [
              10.15066961,
              55.45153205
            ],
            [
              10.15555625,
              55.44958903
            ],
            [
              10.15506147,
              55.44901746
            ],
            [
              10.15500317,
              55.44892471
            ],
            [
              10.1550129,
              55.44892433
            ],
            [
              10.15497589,
              55.44887956
            ],
            [
              10.15507224,
              55.44885303
            ],
            [
              10.15588141,
              55.44981041
            ],
            [
              10.15684703,
              55.45087898
            ],
            [
              10.1570183,
              55.45085045
            ],
            [
              10.15754193,
              55.45147178
            ],
            [
              10.15733024,
              55.45150363
            ],
            [
              10.15793546,
              55.45216538
            ],
            [
              10.15827141,
              55.45264975
            ],
            [
              10.1518177,
              55.45371373
            ]
          ]
        ]
      },
      "properties": {
        "source": "parcel_boundary"
      }
    }
  ]
}
