{
  "type": "FeatureCollection",
  "features": [
    {
      "type": "Feature",
      "geometry": {
        "type": "Polygon",
        "coordinates": [
          [
            [
              10.265378,
              55.41485691
            ],
            [
              10.26460971,
              55.41486482
            ],
            [
              10.26465107,
              55.41473344
            ],
            [
              10.26464898,
              55.41469367
            ],
            [
              10.26537258,
              55.41468622
            ],
            [
              10.265378,
              55.41485691
            ]
          ]
        ]
      },
      "properties": {
        "source": "parcel_boundary"
      }
    }
  ]
}
