{
  "type": "FeatureCollection",
  "features": [
    {
      "type": "Feature",
      "geometry": {
        "type": "Polygon",
        "coordinates": [
          [
            [
              10.22976217,
              55.45315529
            ],
            [
              10.22954661,
              55.45269893
            ],
            [
              10.2302892,
              55.45256111
            ],
            [
              10.23049765,
              55.4527937
            ],
            [
              10.22976217,
              55.45315529
            ]
          ]
        ]
      },
      "properties": {
        "source": "parcel_boundary"
      }
    }
  ]
}
