{
  "type": "FeatureCollection",
  "features": [
    {
      "type": "Feature",
      "geometry": {
        "type": "Polygon",
        "coordinates": [
          [
            [
              10.91379044,
              55.1328128
            ],
            [
              10.91385527,
              55.13277987
            ],
            [
              10.91356297,
              55.13246665
            ],
            [
              10.91374922,
              55.13245259
            ],
            [
              10.91388989,
              55.1324552
            ],
            [
              10.91436355,
              55.1329156
            ],
            [
              10.91421207,
              55.13297991
            ],
            [
              10.91396002,
              55.13290192
            ],
            [
              10.91379044,
              55.1328128
            ]
          ]
        ]
      },
      "properties": {
        "source": "parcel_boundary"
      }
    }
  ]
}
