{
  "type": "FeatureCollection",
  "features": [
    {
      "type": "Feature",
      "geometry": {
        "type": "Polygon",
        "coordinates": [
          [
            [
              9.56187734,
              55.67702354
            ],
            [
              9.56193376,
              55.67700881
            ],
            [
              9.56245602,
              55.67689612
            ],
            [
              9.56262064,
              55.67708593
            ],
            [
              9.56267776,
              55.67715177
            ],
            [
              9.56211381,
              55.67729589
            ],
            [
              9.56187734,
              55.67702354
            ]
          ]
        ]
      },
      "properties": {
        "source": "parcel_boundary"
      }
    }
  ]
}
