{
  "type": "FeatureCollection",
  "features": [
    {
      "type": "Feature",
      "geometry": {
        "type": "Polygon",
        "coordinates": [
          [
            [
              10.58412827,
              55.30663232
            ],
            [
              10.58386021,
              55.30680242
            ],
            [
              10.58385275,
              55.30680678
            ],
            [
              10.58384465,
              55.30681075
            ],
            [
              10.583836,
              55.30681432
            ],
            [
              10.58382684,
              55.30681747
            ],
            [
              10.58381726,
              55.30682016
            ],
            [
              10.58380731,
              55.30682237
            ],
            [
              10.58379706,
              55.30682409
            ],
            [
              10.5837866,
              55.30682532
            ],
            [
              10.583776,
              55.30682604
            ],
            [
              10.58376532,
              55.30682624
            ],
            [
              10.58375466,
              55.30682592
            ],
            [
              10.58374407,
              55.30682509
            ],
            [
              10.58373365,
              55.30682375
            ],
            [
              10.58372348,
              55.30682191
            ],
            [
              10.5837136,
              55.3068196
            ],
            [
              10.5837041,
              55.30681681
            ],
            [
              10.58369505,
              55.30681356
            ],
            [
              10.58368653,
              55.3068099
            ],
            [
              10.58298169,
              55.30647944
            ],
            [
              10.58302525,
              55.30642031
            ],
            [
              10.58325203,
              55.30636942
            ],
            [
              10.58329906,
              55.30636827
            ],
            [
              10.58346571,
              55.3063223
            ],
            [
              10.58357242,
              55.30631546
            ],
            [
              10.58366062,
              55.30631131
            ],
            [
              10.58373359,
              55.30632529
            ],
            [
              10.58386065,
              55.30641933
            ],
            [
              10.58403248,
              55.30655894
            ],
            [
              10.58412827,
              55.30663232
            ]
          ]
        ]
      },
      "properties": {
        "source": "parcel_boundary"
      }
    }
  ]
}
