{
  "type": "FeatureCollection",
  "features": [
    {
      "type": "Feature",
      "geometry": {
        "type": "Polygon",
        "coordinates": [
          [
            [
              9.76312892,
              55.80733745
            ],
            [
              9.7630732,
              55.80740888
            ],
            [
              9.76302566,
              55.80747694
            ],
            [
              9.76297659,
              55.80755445
            ],
            [
              9.76295439,
              55.8075975
            ],
            [
              9.76249763,
              55.80752215
            ],
            [
              9.7625481,
              55.80744124
            ],
            [
              9.76266496,
              55.8072542
            ],
            [
              9.76267013,
              55.80724561
            ],
            [
              9.76312892,
              55.80733745
            ]
          ]
        ]
      },
      "properties": {
        "source": "parcel_boundary"
      }
    }
  ]
}
