{
  "type": "FeatureCollection",
  "features": [
    {
      "type": "Feature",
      "geometry": {
        "type": "Polygon",
        "coordinates": [
          [
            [
              10.22001562,
              55.53135495
            ],
            [
              10.22113397,
              55.53136211
            ],
            [
              10.221382,
              55.53223651
            ],
            [
              10.22014019,
              55.53228541
            ],
            [
              10.22001562,
              55.53135495
            ]
          ]
        ]
      },
      "properties": {
        "source": "parcel_boundary"
      }
    }
  ]
}
