{
  "type": "FeatureCollection",
  "features": [
    {
      "type": "Feature",
      "geometry": {
        "type": "Polygon",
        "coordinates": [
          [
            [
              9.67607049,
              55.66164191
            ],
            [
              9.67582824,
              55.66177941
            ],
            [
              9.67575552,
              55.66176763
            ],
            [
              9.67544164,
              55.66153394
            ],
            [
              9.67566455,
              55.66140978
            ],
            [
              9.67607049,
              55.66164191
            ]
          ]
        ]
      },
      "properties": {
        "source": "parcel_boundary"
      }
    }
  ]
}
