{
  "type": "FeatureCollection",
  "features": [
    {
      "type": "Feature",
      "geometry": {
        "type": "Polygon",
        "coordinates": [
          [
            [
              10.6119428,
              55.27318225
            ],
            [
              10.61192719,
              55.27318336
            ],
            [
              10.61186652,
              55.27290708
            ],
            [
              10.61224896,
              55.27287977
            ],
            [
              10.61230966,
              55.27315604
            ],
            [
              10.6119428,
              55.27318225
            ]
          ]
        ]
      },
      "properties": {
        "source": "parcel_boundary"
      }
    }
  ]
}
