{
  "type": "FeatureCollection",
  "features": [
    {
      "type": "Feature",
      "geometry": {
        "type": "Polygon",
        "coordinates": [
          [
            [
              10.39230011,
              55.39079042
            ],
            [
              10.39230014,
              55.39076963
            ],
            [
              10.39247182,
              55.39077492
            ],
            [
              10.39247075,
              55.39079317
            ],
            [
              10.39234097,
              55.39079299
            ],
            [
              10.39233638,
              55.39086292
            ],
            [
              10.39219465,
              55.39086016
            ],
            [
              10.39219559,
              55.39084463
            ],
            [
              10.39203208,
              55.39084439
            ],
            [
              10.39203572,
              55.39078482
            ],
            [
              10.39230011,
              55.39079042
            ]
          ]
        ]
      },
      "properties": {
        "source": "parcel_boundary"
      }
    }
  ]
}
