{
  "type": "FeatureCollection",
  "features": [
    {
      "type": "Feature",
      "geometry": {
        "type": "Polygon",
        "coordinates": [
          [
            [
              10.79452944,
              55.34158424
            ],
            [
              10.79458325,
              55.34155137
            ],
            [
              10.79502979,
              55.34154255
            ],
            [
              10.79503797,
              55.34167628
            ],
            [
              10.79453569,
              55.34168621
            ],
            [
              10.79452944,
              55.34158424
            ]
          ]
        ]
      },
      "properties": {
        "source": "parcel_boundary"
      }
    }
  ]
}
