{
  "type": "FeatureCollection",
  "features": [
    {
      "type": "Feature",
      "geometry": {
        "type": "Polygon",
        "coordinates": [
          [
            [
              10.32754407,
              55.36787821
            ],
            [
              10.32772783,
              55.36784006
            ],
            [
              10.32782648,
              55.36814076
            ],
            [
              10.32810833,
              55.36814089
            ],
            [
              10.32809549,
              55.36818733
            ],
            [
              10.32747322,
              55.36819295
            ],
            [
              10.32746479,
              55.36787914
            ],
            [
              10.32754407,
              55.36787821
            ]
          ]
        ]
      },
      "properties": {
        "source": "parcel_boundary"
      }
    }
  ]
}
