{
  "type": "FeatureCollection",
  "features": [
    {
      "type": "Feature",
      "geometry": {
        "type": "Polygon",
        "coordinates": [
          [
            [
              10.58875938,
              55.34559663
            ],
            [
              10.58817077,
              55.34476313
            ],
            [
              10.58777757,
              55.34420869
            ],
            [
              10.58979786,
              55.34406395
            ],
            [
              10.59016704,
              55.34403751
            ],
            [
              10.59082629,
              55.34515417
            ],
            [
              10.59007226,
              55.34531373
            ],
            [
              10.58948773,
              55.34443856
            ],
            [
              10.5888628,
              55.34460543
            ],
            [
              10.58944185,
              55.34544932
            ],
            [
              10.58875938,
              55.34559663
            ]
          ]
        ]
      },
      "properties": {
        "source": "parcel_boundary"
      }
    }
  ]
}
