{
  "type": "FeatureCollection",
  "features": [
    {
      "type": "Feature",
      "geometry": {
        "type": "Polygon",
        "coordinates": [
          [
            [
              10.4631529,
              55.49383296
            ],
            [
              10.46331766,
              55.49395075
            ],
            [
              10.46385706,
              55.4943495
            ],
            [
              10.46413267,
              55.49452128
            ],
            [
              10.46425973,
              55.49456587
            ],
            [
              10.4644385,
              55.49465864
            ],
            [
              10.46355952,
              55.49477055
            ],
            [
              10.46307245,
              55.49482096
            ],
            [
              10.46295989,
              55.4948339
            ],
            [
              10.46298089,
              55.49475772
            ],
            [
              10.46298673,
              55.49469142
            ],
            [
              10.46291943,
              55.49446854
            ],
            [
              10.46287792,
              55.49435845
            ],
            [
              10.46278602,
              55.4941845
            ],
            [
              10.46260219,
              55.49386801
            ],
            [
              10.46256488,
              55.49379126
            ],
            [
              10.46264126,
              55.49377206
            ],
            [
              10.46271928,
              55.49392688
            ],
            [
              10.4631529,
              55.49383296
            ]
          ]
        ]
      },
      "properties": {
        "source": "parcel_boundary"
      }
    }
  ]
}
