{
  "type": "FeatureCollection",
  "features": [
    {
      "type": "Feature",
      "geometry": {
        "type": "Polygon",
        "coordinates": [
          [
            [
              10.43348254,
              55.33592103
            ],
            [
              10.433812,
              55.33593134
            ],
            [
              10.43386483,
              55.3359649
            ],
            [
              10.43384209,
              55.3362021
            ],
            [
              10.43345667,
              55.33619012
            ],
            [
              10.43348254,
              55.33592103
            ]
          ]
        ]
      },
      "properties": {
        "source": "parcel_boundary"
      }
    }
  ]
}
