{
  "type": "FeatureCollection",
  "features": [
    {
      "type": "Feature",
      "geometry": {
        "type": "Polygon",
        "coordinates": [
          [
            [
              10.12175794,
              55.20959193
            ],
            [
              10.12133793,
              55.20966024
            ],
            [
              10.1214011,
              55.20923283
            ],
            [
              10.12180792,
              55.20925255
            ],
            [
              10.12175794,
              55.20959193
            ]
          ]
        ]
      },
      "properties": {
        "source": "parcel_boundary"
      }
    }
  ]
}
