{
  "type": "FeatureCollection",
  "features": [
    {
      "type": "Feature",
      "geometry": {
        "type": "Polygon",
        "coordinates": [
          [
            [
              10.52035282,
              55.20526245
            ],
            [
              10.52034528,
              55.20522626
            ],
            [
              10.52098276,
              55.20533843
            ],
            [
              10.52118337,
              55.20534493
            ],
            [
              10.52224887,
              55.20556996
            ],
            [
              10.52230465,
              55.20497298
            ],
            [
              10.52244103,
              55.20463555
            ],
            [
              10.5228559,
              55.20477607
            ],
            [
              10.52266809,
              55.20530341
            ],
            [
              10.52244012,
              55.20594344
            ],
            [
              10.52267574,
              55.20641503
            ],
            [
              10.52154395,
              55.20634109
            ],
            [
              10.5213778,
              55.20601502
            ],
            [
              10.51980397,
              55.20592357
            ],
            [
              10.51982938,
              55.20589134
            ],
            [
              10.51987025,
              55.20584225
            ],
            [
              10.52035282,
              55.20526245
            ]
          ]
        ]
      },
      "properties": {
        "source": "parcel_boundary"
      }
    }
  ]
}
