{
  "type": "FeatureCollection",
  "features": [
    {
      "type": "Feature",
      "geometry": {
        "type": "Polygon",
        "coordinates": [
          [
            [
              10.26175285,
              55.42288205
            ],
            [
              10.26220761,
              55.4227197
            ],
            [
              10.26222706,
              55.42271271
            ],
            [
              10.26230426,
              55.42272268
            ],
            [
              10.26245479,
              55.42285902
            ],
            [
              10.26243711,
              55.42290283
            ],
            [
              10.26196289,
              55.42307226
            ],
            [
              10.26177804,
              55.4229049
            ],
            [
              10.26175285,
              55.42288205
            ]
          ]
        ]
      },
      "properties": {
        "source": "parcel_boundary"
      }
    }
  ]
}
