{
  "type": "FeatureCollection",
  "features": [
    {
      "type": "Feature",
      "geometry": {
        "type": "Polygon",
        "coordinates": [
          [
            [
              10.48125456,
              55.22990174
            ],
            [
              10.48191672,
              55.23005628
            ],
            [
              10.48183655,
              55.23019163
            ],
            [
              10.48113737,
              55.23002834
            ],
            [
              10.4812335,
              55.22989589
            ],
            [
              10.48125456,
              55.22990174
            ]
          ]
        ]
      },
      "properties": {
        "source": "parcel_boundary"
      }
    }
  ]
}
