{
  "type": "FeatureCollection",
  "features": [
    {
      "type": "Feature",
      "geometry": {
        "type": "Polygon",
        "coordinates": [
          [
            [
              10.0549898,
              55.21623078
            ],
            [
              10.05514248,
              55.21623432
            ],
            [
              10.05514687,
              55.21625578
            ],
            [
              10.05523317,
              55.21660373
            ],
            [
              10.05494586,
              55.21662165
            ],
            [
              10.05491556,
              55.21638995
            ],
            [
              10.0548819,
              55.21624535
            ],
            [
              10.0549898,
              55.21623078
            ]
          ]
        ]
      },
      "properties": {
        "source": "parcel_boundary"
      }
    }
  ]
}
