{
  "type": "FeatureCollection",
  "features": [
    {
      "type": "Feature",
      "geometry": {
        "type": "Polygon",
        "coordinates": [
          [
            [
              10.39745634,
              55.29585125
            ],
            [
              10.39736461,
              55.29559893
            ],
            [
              10.39695255,
              55.2956236
            ],
            [
              10.39650901,
              55.29565015
            ],
            [
              10.39636518,
              55.29528756
            ],
            [
              10.39729772,
              55.29515928
            ],
            [
              10.39766688,
              55.29510851
            ],
            [
              10.3977587,
              55.29509587
            ],
            [
              10.39789455,
              55.29540055
            ],
            [
              10.39832722,
              55.29533775
            ],
            [
              10.39845044,
              55.29561393
            ],
            [
              10.39824554,
              55.29564471
            ],
            [
              10.39830992,
              55.29584416
            ],
            [
              10.39803186,
              55.29584647
            ],
            [
              10.39788648,
              55.29584767
            ],
            [
              10.39745634,
              55.29585125
            ]
          ]
        ]
      },
      "properties": {
        "source": "parcel_boundary"
      }
    }
  ]
}
