{
  "type": "FeatureCollection",
  "features": [
    {
      "type": "Feature",
      "geometry": {
        "type": "Polygon",
        "coordinates": [
          [
            [
              9.8944672,
              55.27143689
            ],
            [
              9.89451649,
              55.27121343
            ],
            [
              9.89461208,
              55.27089348
            ],
            [
              9.89482769,
              55.27092819
            ],
            [
              9.89483796,
              55.27093
            ],
            [
              9.89479853,
              55.271004
            ],
            [
              9.89479354,
              55.2710026
            ],
            [
              9.89475189,
              55.27108715
            ],
            [
              9.89475669,
              55.27108789
            ],
            [
              9.89474164,
              55.27113137
            ],
            [
              9.89474469,
              55.27113151
            ],
            [
              9.89473195,
              55.27116782
            ],
            [
              9.89471294,
              55.27124145
            ],
            [
              9.89470811,
              55.27127473
            ],
            [
              9.89470775,
              55.27129441
            ],
            [
              9.8946868,
              55.27137239
            ],
            [
              9.8946342,
              55.2715584
            ],
            [
              9.89444612,
              55.27154111
            ],
            [
              9.8944672,
              55.27143689
            ]
          ]
        ]
      },
      "properties": {
        "source": "parcel_boundary"
      }
    }
  ]
}
