{
  "type": "FeatureCollection",
  "features": [
    {
      "type": "Feature",
      "geometry": {
        "type": "Polygon",
        "coordinates": [
          [
            [
              10.25788246,
              55.42608391
            ],
            [
              10.25798586,
              55.42585452
            ],
            [
              10.25805395,
              55.42583157
            ],
            [
              10.25832836,
              55.42587133
            ],
            [
              10.25836862,
              55.42590997
            ],
            [
              10.25836288,
              55.42592262
            ],
            [
              10.25823787,
              55.42620098
            ],
            [
              10.25796326,
              55.42616109
            ],
            [
              10.25788246,
              55.42608391
            ]
          ]
        ]
      },
      "properties": {
        "source": "parcel_boundary"
      }
    }
  ]
}
