{
  "type": "FeatureCollection",
  "features": [
    {
      "type": "Feature",
      "geometry": {
        "type": "Polygon",
        "coordinates": [
          [
            [
              10.38699413,
              55.35601577
            ],
            [
              10.38660722,
              55.35600821
            ],
            [
              10.38663698,
              55.35575977
            ],
            [
              10.38700318,
              55.35577716
            ],
            [
              10.38699413,
              55.35601577
            ]
          ]
        ]
      },
      "properties": {
        "source": "parcel_boundary"
      }
    }
  ]
}
