{
  "type": "FeatureCollection",
  "features": [
    {
      "type": "Feature",
      "geometry": {
        "type": "Polygon",
        "coordinates": [
          [
            [
              10.79854479,
              55.31925732
            ],
            [
              10.79849722,
              55.31908083
            ],
            [
              10.79902172,
              55.31904405
            ],
            [
              10.79906752,
              55.31919458
            ],
            [
              10.79907166,
              55.31920921
            ],
            [
              10.79854479,
              55.31925732
            ]
          ]
        ]
      },
      "properties": {
        "source": "parcel_boundary"
      }
    }
  ]
}
