{
  "type": "FeatureCollection",
  "features": [
    {
      "type": "Feature",
      "geometry": {
        "type": "Polygon",
        "coordinates": [
          [
            [
              10.60236667,
              55.35430655
            ],
            [
              10.60241158,
              55.35412338
            ],
            [
              10.60294244,
              55.35416562
            ],
            [
              10.60289755,
              55.35434878
            ],
            [
              10.60236667,
              55.35430655
            ]
          ]
        ]
      },
      "properties": {
        "source": "parcel_boundary"
      }
    }
  ]
}
