{
  "type": "FeatureCollection",
  "features": [
    {
      "type": "Feature",
      "geometry": {
        "type": "Polygon",
        "coordinates": [
          [
            [
              10.61980122,
              55.04190739
            ],
            [
              10.61975092,
              55.04200296
            ],
            [
              10.61917434,
              55.0419691
            ],
            [
              10.61920835,
              55.04177287
            ],
            [
              10.61984665,
              55.04180993
            ],
            [
              10.61980122,
              55.04190739
            ]
          ]
        ]
      },
      "properties": {
        "source": "parcel_boundary"
      }
    }
  ]
}
