{
  "type": "FeatureCollection",
  "features": [
    {
      "type": "Feature",
      "geometry": {
        "type": "Polygon",
        "coordinates": [
          [
            [
              10.47126492,
              55.23986499
            ],
            [
              10.47181866,
              55.23988016
            ],
            [
              10.47181513,
              55.2400158
            ],
            [
              10.47125332,
              55.24000029
            ],
            [
              10.47126492,
              55.23986499
            ]
          ]
        ]
      },
      "properties": {
        "source": "parcel_boundary"
      }
    }
  ]
}
