{
  "type": "FeatureCollection",
  "features": [
    {
      "type": "Feature",
      "geometry": {
        "type": "Polygon",
        "coordinates": [
          [
            [
              10.17136685,
              55.51798198
            ],
            [
              10.17146537,
              55.51824497
            ],
            [
              10.170524,
              55.51837356
            ],
            [
              10.17043764,
              55.51809311
            ],
            [
              10.1708639,
              55.51804211
            ],
            [
              10.17136685,
              55.51798198
            ]
          ]
        ]
      },
      "properties": {
        "source": "parcel_boundary"
      }
    }
  ]
}
