{
  "type": "FeatureCollection",
  "features": [
    {
      "type": "Feature",
      "geometry": {
        "type": "Polygon",
        "coordinates": [
          [
            [
              9.36617319,
              55.86365095
            ],
            [
              9.36624536,
              55.86382598
            ],
            [
              9.36571219,
              55.86392668
            ],
            [
              9.36563329,
              55.86374854
            ],
            [
              9.36617319,
              55.86365095
            ]
          ]
        ]
      },
      "properties": {
        "source": "parcel_boundary"
      }
    }
  ]
}
