{
  "type": "FeatureCollection",
  "features": [
    {
      "type": "Feature",
      "geometry": {
        "type": "Polygon",
        "coordinates": [
          [
            [
              10.35733946,
              55.34285038
            ],
            [
              10.35692605,
              55.34311579
            ],
            [
              10.35671385,
              55.34300844
            ],
            [
              10.35712729,
              55.34274303
            ],
            [
              10.35733946,
              55.34285038
            ]
          ]
        ]
      },
      "properties": {
        "source": "parcel_boundary"
      }
    }
  ]
}
