{
  "type": "FeatureCollection",
  "features": [
    {
      "type": "Feature",
      "geometry": {
        "type": "Polygon",
        "coordinates": [
          [
            [
              9.40776223,
              55.63675008
            ],
            [
              9.40763787,
              55.63719266
            ],
            [
              9.40755382,
              55.6374916
            ],
            [
              9.4050734,
              55.63733488
            ],
            [
              9.40533892,
              55.63636094
            ],
            [
              9.40784281,
              55.63646335
            ],
            [
              9.40776223,
              55.63675008
            ]
          ]
        ]
      },
      "properties": {
        "source": "parcel_boundary"
      }
    }
  ]
}
