{
  "type": "FeatureCollection",
  "features": [
    {
      "type": "Feature",
      "geometry": {
        "type": "Polygon",
        "coordinates": [
          [
            [
              10.25108258,
              55.09111347
            ],
            [
              10.25116654,
              55.09107876
            ],
            [
              10.25133907,
              55.09122849
            ],
            [
              10.25125725,
              55.09126234
            ],
            [
              10.25109675,
              55.09112504
            ],
            [
              10.25108258,
              55.09111347
            ]
          ]
        ]
      },
      "properties": {
        "source": "parcel_boundary"
      }
    }
  ]
}
