{
  "type": "FeatureCollection",
  "features": [
    {
      "type": "Feature",
      "geometry": {
        "type": "Polygon",
        "coordinates": [
          [
            [
              10.35667971,
              55.37684311
            ],
            [
              10.35709335,
              55.37687433
            ],
            [
              10.35705041,
              55.37706138
            ],
            [
              10.35703054,
              55.37708031
            ],
            [
              10.35698541,
              55.37709988
            ],
            [
              10.35694603,
              55.37710071
            ],
            [
              10.35691072,
              55.37709791
            ],
            [
              10.356764,
              55.37708387
            ],
            [
              10.3566183,
              55.37706672
            ],
            [
              10.35662921,
              55.37702793
            ],
            [
              10.35667419,
              55.37687024
            ],
            [
              10.35667971,
              55.37684311
            ]
          ]
        ]
      },
      "properties": {
        "source": "parcel_boundary"
      }
    }
  ]
}
