{
  "type": "FeatureCollection",
  "features": [
    {
      "type": "Feature",
      "geometry": {
        "type": "Polygon",
        "coordinates": [
          [
            [
              9.4764379,
              55.47495109
            ],
            [
              9.47575505,
              55.47494997
            ],
            [
              9.47575354,
              55.47479283
            ],
            [
              9.47644017,
              55.47479402
            ],
            [
              9.4764379,
              55.47495109
            ]
          ]
        ]
      },
      "properties": {
        "source": "parcel_boundary"
      }
    }
  ]
}
