{
  "type": "FeatureCollection",
  "features": [
    {
      "type": "Feature",
      "geometry": {
        "type": "Polygon",
        "coordinates": [
          [
            [
              10.80146849,
              55.31809871
            ],
            [
              10.8014657,
              55.31772939
            ],
            [
              10.80186619,
              55.31779127
            ],
            [
              10.80187382,
              55.31812801
            ],
            [
              10.80146849,
              55.31809871
            ]
          ]
        ]
      },
      "properties": {
        "source": "parcel_boundary"
      }
    }
  ]
}
