{
  "type": "FeatureCollection",
  "features": [
    {
      "type": "Feature",
      "geometry": {
        "type": "Polygon",
        "coordinates": [
          [
            [
              9.84219432,
              55.84078036
            ],
            [
              9.84210455,
              55.84080143
            ],
            [
              9.84200185,
              55.84083142
            ],
            [
              9.84192135,
              55.84086871
            ],
            [
              9.84184799,
              55.84086472
            ],
            [
              9.84159565,
              55.84062195
            ],
            [
              9.84190912,
              55.84055774
            ],
            [
              9.84213146,
              55.84051219
            ],
            [
              9.84229366,
              55.84076113
            ],
            [
              9.84219432,
              55.84078036
            ]
          ]
        ]
      },
      "properties": {
        "source": "parcel_boundary"
      }
    }
  ]
}
