{
  "type": "FeatureCollection",
  "features": [
    {
      "type": "Feature",
      "geometry": {
        "type": "Polygon",
        "coordinates": [
          [
            [
              9.77195495,
              55.89404383
            ],
            [
              9.77159344,
              55.89383507
            ],
            [
              9.77186172,
              55.89368838
            ],
            [
              9.77222322,
              55.89389714
            ],
            [
              9.77195495,
              55.89404383
            ]
          ]
        ]
      },
      "properties": {
        "source": "parcel_boundary"
      }
    }
  ]
}
