{
  "type": "FeatureCollection",
  "features": [
    {
      "type": "Feature",
      "geometry": {
        "type": "Polygon",
        "coordinates": [
          [
            [
              10.40479342,
              55.43964634
            ],
            [
              10.4053169,
              55.43948338
            ],
            [
              10.40546444,
              55.43963754
            ],
            [
              10.40495028,
              55.43979719
            ],
            [
              10.40479342,
              55.43964634
            ]
          ]
        ]
      },
      "properties": {
        "source": "parcel_boundary"
      }
    }
  ]
}
