{
  "type": "FeatureCollection",
  "features": [
    {
      "type": "Feature",
      "geometry": {
        "type": "Polygon",
        "coordinates": [
          [
            [
              9.98398888,
              54.85518101
            ],
            [
              9.98404021,
              54.85525749
            ],
            [
              9.98402121,
              54.85526144
            ],
            [
              9.98362442,
              54.85534391
            ],
            [
              9.98388416,
              54.85573685
            ],
            [
              9.98309267,
              54.85589739
            ],
            [
              9.98300005,
              54.85590088
            ],
            [
              9.98296946,
              54.85590622
            ],
            [
              9.98275114,
              54.85550759
            ],
            [
              9.98288329,
              54.85547195
            ],
            [
              9.98264684,
              54.85511082
            ],
            [
              9.98378323,
              54.85490853
            ],
            [
              9.98379629,
              54.85490622
            ],
            [
              9.98389627,
              54.8550544
            ],
            [
              9.98398888,
              54.85518101
            ]
          ]
        ]
      },
      "properties": {
        "source": "parcel_boundary"
      }
    }
  ]
}
