{
  "type": "FeatureCollection",
  "features": [
    {
      "type": "Feature",
      "geometry": {
        "type": "Polygon",
        "coordinates": [
          [
            [
              9.57671031,
              55.55309297
            ],
            [
              9.57690264,
              55.55303083
            ],
            [
              9.57723473,
              55.55292368
            ],
            [
              9.57731068,
              55.55288824
            ],
            [
              9.57769516,
              55.55270911
            ],
            [
              9.57772481,
              55.55269532
            ],
            [
              9.57825239,
              55.55331104
            ],
            [
              9.577656,
              55.55344326
            ],
            [
              9.57681808,
              55.5534298
            ],
            [
              9.57660144,
              55.55311772
            ],
            [
              9.57671031,
              55.55309297
            ]
          ]
        ]
      },
      "properties": {
        "source": "parcel_boundary"
      }
    }
  ]
}
