{
  "type": "FeatureCollection",
  "features": [
    {
      "type": "Feature",
      "geometry": {
        "type": "Polygon",
        "coordinates": [
          [
            [
              10.78119154,
              55.14124776
            ],
            [
              10.78139298,
              55.14122535
            ],
            [
              10.78149184,
              55.1415163
            ],
            [
              10.78110702,
              55.1415592
            ],
            [
              10.78100819,
              55.14126824
            ],
            [
              10.78119154,
              55.14124776
            ]
          ]
        ]
      },
      "properties": {
        "source": "parcel_boundary"
      }
    }
  ]
}
