{
  "type": "FeatureCollection",
  "features": [
    {
      "type": "Feature",
      "geometry": {
        "type": "Polygon",
        "coordinates": [
          [
            [
              10.39653,
              55.40750763
            ],
            [
              10.39647124,
              55.40752358
            ],
            [
              10.39626196,
              55.40757502
            ],
            [
              10.39621302,
              55.40751166
            ],
            [
              10.39622679,
              55.40745392
            ],
            [
              10.39645212,
              55.40740251
            ],
            [
              10.3965035,
              55.40747045
            ],
            [
              10.39653,
              55.40750763
            ]
          ]
        ]
      },
      "properties": {
        "source": "parcel_boundary"
      }
    }
  ]
}
