{
  "type": "FeatureCollection",
  "features": [
    {
      "type": "Feature",
      "geometry": {
        "type": "Polygon",
        "coordinates": [
          [
            [
              9.72536358,
              55.5053767
            ],
            [
              9.72527687,
              55.50540001
            ],
            [
              9.72524884,
              55.50540738
            ],
            [
              9.72522752,
              55.50541645
            ],
            [
              9.72495854,
              55.50548466
            ],
            [
              9.72485185,
              55.50544137
            ],
            [
              9.72518897,
              55.50536142
            ],
            [
              9.72523817,
              55.50535095
            ],
            [
              9.72532744,
              55.50532789
            ],
            [
              9.72536358,
              55.5053767
            ]
          ]
        ]
      },
      "properties": {
        "source": "parcel_boundary"
      }
    }
  ]
}
