{
  "type": "FeatureCollection",
  "features": [
    {
      "type": "Feature",
      "geometry": {
        "type": "Polygon",
        "coordinates": [
          [
            [
              10.37285859,
              55.37192763
            ],
            [
              10.37309789,
              55.37196527
            ],
            [
              10.37298434,
              55.3721992
            ],
            [
              10.37284954,
              55.37247531
            ],
            [
              10.37260889,
              55.37244811
            ],
            [
              10.37285859,
              55.37192763
            ]
          ]
        ]
      },
      "properties": {
        "source": "parcel_boundary"
      }
    }
  ]
}
