{
  "type": "FeatureCollection",
  "features": [
    {
      "type": "Feature",
      "geometry": {
        "type": "Polygon",
        "coordinates": [
          [
            [
              10.2513986,
              55.48851794
            ],
            [
              10.25141548,
              55.48845478
            ],
            [
              10.25232452,
              55.48853178
            ],
            [
              10.2523176,
              55.48855822
            ],
            [
              10.25184619,
              55.48851911
            ],
            [
              10.25177106,
              55.48881026
            ],
            [
              10.25133042,
              55.48878518
            ],
            [
              10.25121536,
              55.48876925
            ],
            [
              10.2513986,
              55.48851794
            ]
          ]
        ]
      },
      "properties": {
        "source": "parcel_boundary"
      }
    }
  ]
}
