{
  "type": "FeatureCollection",
  "features": [
    {
      "type": "Feature",
      "geometry": {
        "type": "Polygon",
        "coordinates": [
          [
            [
              9.92162561,
              55.91251401
            ],
            [
              9.92153022,
              55.91239324
            ],
            [
              9.92150273,
              55.91235842
            ],
            [
              9.92195135,
              55.91226241
            ],
            [
              9.92207456,
              55.91241788
            ],
            [
              9.92162561,
              55.91251401
            ]
          ]
        ]
      },
      "properties": {
        "source": "parcel_boundary"
      }
    }
  ]
}
