{
  "type": "FeatureCollection",
  "features": [
    {
      "type": "Feature",
      "geometry": {
        "type": "Polygon",
        "coordinates": [
          [
            [
              10.37239028,
              55.40384243
            ],
            [
              10.37254383,
              55.40388726
            ],
            [
              10.37259521,
              55.40393561
            ],
            [
              10.37248666,
              55.40413226
            ],
            [
              10.37216411,
              55.40407306
            ],
            [
              10.37239028,
              55.40384243
            ]
          ]
        ]
      },
      "properties": {
        "source": "parcel_boundary"
      }
    }
  ]
}
