{
  "type": "FeatureCollection",
  "features": [
    {
      "type": "Feature",
      "geometry": {
        "type": "Polygon",
        "coordinates": [
          [
            [
              10.16954189,
              55.10966808
            ],
            [
              10.16985916,
              55.10965331
            ],
            [
              10.16988731,
              55.10978651
            ],
            [
              10.16989365,
              55.10980819
            ],
            [
              10.16958214,
              55.10983683
            ],
            [
              10.16954189,
              55.10966808
            ]
          ]
        ]
      },
      "properties": {
        "source": "parcel_boundary"
      }
    }
  ]
}
