{
  "type": "FeatureCollection",
  "features": [
    {
      "type": "Feature",
      "geometry": {
        "type": "Polygon",
        "coordinates": [
          [
            [
              10.59248304,
              55.36399379
            ],
            [
              10.59190459,
              55.36415785
            ],
            [
              10.59177817,
              55.36401317
            ],
            [
              10.59235659,
              55.36384911
            ],
            [
              10.59248304,
              55.36399379
            ]
          ]
        ]
      },
      "properties": {
        "source": "parcel_boundary"
      }
    }
  ]
}
