{
  "type": "FeatureCollection",
  "features": [
    {
      "type": "Feature",
      "geometry": {
        "type": "Polygon",
        "coordinates": [
          [
            [
              9.56200148,
              55.69091643
            ],
            [
              9.56202695,
              55.69092111
            ],
            [
              9.56204993,
              55.69092887
            ],
            [
              9.5620693,
              55.69093931
            ],
            [
              9.56208408,
              55.69095193
            ],
            [
              9.56209353,
              55.69096608
            ],
            [
              9.56209718,
              55.69098107
            ],
            [
              9.56195815,
              55.69120735
            ],
            [
              9.56143335,
              55.69110679
            ],
            [
              9.56157744,
              55.69086971
            ],
            [
              9.56200148,
              55.69091643
            ]
          ]
        ]
      },
      "properties": {
        "source": "parcel_boundary"
      }
    }
  ]
}
