{
  "type": "FeatureCollection",
  "features": [
    {
      "type": "Feature",
      "geometry": {
        "type": "Polygon",
        "coordinates": [
          [
            [
              10.43457922,
              55.33988683
            ],
            [
              10.43449405,
              55.3401908
            ],
            [
              10.43443178,
              55.34018514
            ],
            [
              10.43446815,
              55.34005787
            ],
            [
              10.43386875,
              55.33999976
            ],
            [
              10.43390303,
              55.339898
            ],
            [
              10.43390997,
              55.33986471
            ],
            [
              10.43399382,
              55.33983248
            ],
            [
              10.43447848,
              55.33987786
            ],
            [
              10.43457922,
              55.33988683
            ]
          ]
        ]
      },
      "properties": {
        "source": "parcel_boundary"
      }
    }
  ]
}
