{
  "type": "FeatureCollection",
  "features": [
    {
      "type": "Feature",
      "geometry": {
        "type": "Polygon",
        "coordinates": [
          [
            [
              10.34350644,
              55.36250367
            ],
            [
              10.34345859,
              55.36250185
            ],
            [
              10.34346884,
              55.36241243
            ],
            [
              10.34408393,
              55.36243578
            ],
            [
              10.34407369,
              55.36252522
            ],
            [
              10.34350644,
              55.36250367
            ]
          ]
        ]
      },
      "properties": {
        "source": "parcel_boundary"
      }
    }
  ]
}
