{
  "type": "FeatureCollection",
  "features": [
    {
      "type": "Feature",
      "geometry": {
        "type": "Polygon",
        "coordinates": [
          [
            [
              10.91559764,
              55.13399506
            ],
            [
              10.91552265,
              55.13401571
            ],
            [
              10.91536018,
              55.13407753
            ],
            [
              10.91524057,
              55.13391806
            ],
            [
              10.91547589,
              55.13386745
            ],
            [
              10.91572141,
              55.13380848
            ],
            [
              10.91574685,
              55.13386954
            ],
            [
              10.9157601,
              55.1338887
            ],
            [
              10.91573293,
              55.13391561
            ],
            [
              10.91570732,
              55.13394327
            ],
            [
              10.91565185,
              55.13397155
            ],
            [
              10.91559764,
              55.13399506
            ]
          ]
        ]
      },
      "properties": {
        "source": "parcel_boundary"
      }
    }
  ]
}
