{
  "type": "FeatureCollection",
  "features": [
    {
      "type": "Feature",
      "geometry": {
        "type": "Polygon",
        "coordinates": [
          [
            [
              9.45278658,
              55.47448582
            ],
            [
              9.45271481,
              55.47446423
            ],
            [
              9.45261596,
              55.47432167
            ],
            [
              9.45280242,
              55.47428076
            ],
            [
              9.45292104,
              55.4744563
            ],
            [
              9.45278658,
              55.47448582
            ]
          ]
        ]
      },
      "properties": {
        "source": "parcel_boundary"
      }
    }
  ]
}
