{
  "type": "FeatureCollection",
  "features": [
    {
      "type": "Feature",
      "geometry": {
        "type": "Polygon",
        "coordinates": [
          [
            [
              9.688075,
              55.76737299
            ],
            [
              9.68774954,
              55.76716637
            ],
            [
              9.68804079,
              55.7669192
            ],
            [
              9.68817186,
              55.76696573
            ],
            [
              9.68828373,
              55.76695405
            ],
            [
              9.68848359,
              55.76702956
            ],
            [
              9.688075,
              55.76737299
            ]
          ]
        ]
      },
      "properties": {
        "source": "parcel_boundary"
      }
    }
  ]
}
