{
  "type": "FeatureCollection",
  "features": [
    {
      "type": "Feature",
      "geometry": {
        "type": "Polygon",
        "coordinates": [
          [
            [
              10.36927913,
              55.24841383
            ],
            [
              10.36913005,
              55.24882137
            ],
            [
              10.36906496,
              55.24899993
            ],
            [
              10.36897454,
              55.24924593
            ],
            [
              10.36753592,
              55.24935929
            ],
            [
              10.36739425,
              55.24898556
            ],
            [
              10.36732419,
              55.24884989
            ],
            [
              10.36783682,
              55.24878502
            ],
            [
              10.36775929,
              55.24859243
            ],
            [
              10.36802239,
              55.24855104
            ],
            [
              10.36860409,
              55.24848149
            ],
            [
              10.36927913,
              55.24841383
            ]
          ]
        ]
      },
      "properties": {
        "source": "parcel_boundary"
      }
    }
  ]
}
