{
  "type": "FeatureCollection",
  "features": [
    {
      "type": "Feature",
      "geometry": {
        "type": "Polygon",
        "coordinates": [
          [
            [
              10.25053877,
              55.23299807
            ],
            [
              10.25068626,
              55.2329747
            ],
            [
              10.25081246,
              55.23325295
            ],
            [
              10.25044726,
              55.23330695
            ],
            [
              10.25032198,
              55.23302956
            ],
            [
              10.25053877,
              55.23299807
            ]
          ]
        ]
      },
      "properties": {
        "source": "parcel_boundary"
      }
    }
  ]
}
