{
  "type": "FeatureCollection",
  "features": [
    {
      "type": "Feature",
      "geometry": {
        "type": "Polygon",
        "coordinates": [
          [
            [
              9.24607484,
              55.8953025
            ],
            [
              9.24616237,
              55.89518384
            ],
            [
              9.24629798,
              55.89508155
            ],
            [
              9.24641822,
              55.8950218
            ],
            [
              9.24661892,
              55.89497467
            ],
            [
              9.2478925,
              55.89464878
            ],
            [
              9.24809363,
              55.89455613
            ],
            [
              9.24815589,
              55.89445276
            ],
            [
              9.24812589,
              55.89431224
            ],
            [
              9.24788471,
              55.89378056
            ],
            [
              9.24757005,
              55.89305917
            ],
            [
              9.24838901,
              55.89297709
            ],
            [
              9.25032546,
              55.89582168
            ],
            [
              9.24941628,
              55.89573557
            ],
            [
              9.24771951,
              55.89588045
            ],
            [
              9.2457427,
              55.89586939
            ],
            [
              9.24607484,
              55.8953025
            ]
          ]
        ]
      },
      "properties": {
        "source": "parcel_boundary"
      }
    }
  ]
}
