{
  "type": "FeatureCollection",
  "features": [
    {
      "type": "Feature",
      "geometry": {
        "type": "Polygon",
        "coordinates": [
          [
            [
              9.91160454,
              55.26886442
            ],
            [
              9.91149729,
              55.26851886
            ],
            [
              9.91181386,
              55.26848809
            ],
            [
              9.91185894,
              55.26863842
            ],
            [
              9.91191433,
              55.2688231
            ],
            [
              9.91160454,
              55.26886442
            ]
          ]
        ]
      },
      "properties": {
        "source": "parcel_boundary"
      }
    }
  ]
}
