{
  "type": "FeatureCollection",
  "features": [
    {
      "type": "Feature",
      "geometry": {
        "type": "Polygon",
        "coordinates": [
          [
            [
              10.62188509,
              55.08438964
            ],
            [
              10.62183988,
              55.08454114
            ],
            [
              10.62193194,
              55.08455073
            ],
            [
              10.6218842,
              55.0847121
            ],
            [
              10.62161295,
              55.08468569
            ],
            [
              10.62170907,
              55.08436067
            ],
            [
              10.62188846,
              55.08437813
            ],
            [
              10.62188509,
              55.08438964
            ]
          ]
        ]
      },
      "properties": {
        "source": "parcel_boundary"
      }
    }
  ]
}
