{
  "type": "FeatureCollection",
  "features": [
    {
      "type": "Feature",
      "geometry": {
        "type": "Polygon",
        "coordinates": [
          [
            [
              -1.6949999999997583,
              -2.4711000000001704
            ],
            [
              -1.6949824094316186,
              -2.471075095164476
            ],
            [
              -4.1456979494173405,
              -0.7401181621022397
            ],
            [
              -1.2729814729324997,
              3.3271201944450004
            ],
            [
              2.1061077582684398,
              0.9404472541055903
            ],
            [
              1.6017294226346084,
              0.22633996645817525
            ],
            [
              4.08214429770542,
              -1.52559407308986
            ],
            [
              1.6691882335757398,
              -4.94189544190507
            ],
            [
              -0.6100450689610318,
              -3.3320576641793713
            ],
            [
              -0.8727688265957021,
              -3.1480263853807546
            ],
            [
              -1.5152,
              -4.051
            ],
            [
              -2.3166,
              -3.4868
            ],
            [
              -1.6325712265193912,
              -2.5151847736900987
            ],
            [
              -1.6949999999997583,
              -2.4711000000001704
            ]
          ]
        ]
      },
      "properties": {
        "name": "footprint",
        "uuid": "016980bc-6762-4022-bfbf-17df4112e10c",
        "status": "ok",
        "n_exposed_rooms": 3,
        "n_vertices": 13,
        "area_m2": 34.47429811574791,
        "is_valid": true,
        "is_simple": true,
        "hull_area_m2": 39.35541090756061,
        "convexity": 0.8759735274197077,
        "obb_aspect_ratio": 1.1631027949305046,
        "unbuffered_union_area_m2": 28.543093617400825,
        "buffer_bridged_ratio": 0.3336784188983351,
        "fell_back_to_hull": false,
        "error": null
      }
    },
    {
      "type": "Feature",
      "geometry": {
        "type": "Polygon",
        "coordinates": [
          [
            [
              1.5997600991234098,
              0.22773091316182015
            ],
            [
              0.7393404730723598,
              -0.9904642476945298
            ],
            [
              0.9952922324021278,
              -1.1712449868528338
            ],
            [
              0.674222227119606,
              -1.6258207483425533
            ],
            [
              0.376823300267356,
              -1.4157658904353034
            ],
            [
              -0.85464333050451,
              -3.15929627052982
            ],
            [
              1.66918823357574,
              -4.94189544190507
            ],
            [
              4.08214429770542,
              -1.52559407308986
            ],
            [
              1.5997600991234098,
              0.22773091316182015
            ]
          ]
        ]
      },
      "properties": {
        "name": "room_0"
      }
    },
    {
      "type": "Feature",
      "geometry": {
        "type": "Polygon",
        "coordinates": [
          [
            [
              -1.2729814729324997,
              3.3271201944450004
            ],
            [
              -4.1456979494173405,
              -0.7401181621022398
            ],
            [
              -1.6950097464875602,
              -2.4710557868172853
            ],
            [
              0.6915213632730641,
              0.907832775891729
            ],
            [
              1.61992190705392,
              0.25209719032449485
            ],
            [
              2.1061077582684398,
              0.9404472541055902
            ],
            [
              -1.2729814729324997,
              3.3271201944450004
            ]
          ]
        ]
      },
      "properties": {
        "name": "room_1"
      }
    },
    {
      "type": "Feature",
      "geometry": {
        "type": "Polygon",
        "coordinates": [
          [
            [
              -1.5152,
              -4.051
            ],
            [
              -2.3166,
              -3.4868
            ],
            [
              0.4068,
              0.3816
            ],
            [
              -1.6326,
              -2.5152
            ],
            [
              -1.6739,
              -2.486
            ],
            [
              -1.695,
              -2.4711
            ],
            [
              0.3485,
              0.4221
            ],
            [
              1.2799,
              -0.2252
            ],
            [
              0.7393,
              -0.9905
            ],
            [
              0.9953,
              -1.1712
            ],
            [
              0.6742,
              -1.6258
            ],
            [
              0.3768,
              -1.4158
            ],
            [
              -0.8546,
              -3.1593
            ],
            [
              -0.872,
              -3.147
            ],
            [
              1.2309,
              -0.1912
            ],
            [
              -1.5152,
              -4.051
            ]
          ]
        ]
      },
      "properties": {
        "name": "room_2"
      }
    }
  ]
}