{
  "type": "FeatureCollection",
  "features": [
    {
      "type": "Feature",
      "geometry": {
        "type": "Polygon",
        "coordinates": [
          [
            [
              -5.034903690334479,
              -4.063948221070679
            ],
            [
              -4.952185738677461,
              -4.108373445977999
            ],
            [
              -3.2323799968452995,
              -0.9061627549122091
            ],
            [
              -3.3637999999999995,
              -0.8315000000000002
            ],
            [
              -2.455800000000001,
              0.9038999999999987
            ],
            [
              -2.409327099686605,
              0.8795818583089059
            ],
            [
              -1.915476571523377,
              1.7991109043405469
            ],
            [
              -1.7141406722530967,
              2.1740031109576514
            ],
            [
              -1.7141351800852644,
              2.174000161388336
            ],
            [
              -1.5722070598119928,
              2.4382643903349734
            ],
            [
              1.212504757085962,
              0.942682957564456
            ],
            [
              0.3914983372122318,
              -0.5859991295667508
            ],
            [
              0.5065000000000001,
              -0.6462
            ],
            [
              -0.48976506712812196,
              -2.5502515186855894
            ],
            [
              0.8553275578843493,
              -3.27265959754264
            ],
            [
              0.8125746076057939,
              -3.3527623107744535
            ],
            [
              4.181299980551475,
              -5.161999989554801
            ],
            [
              4.181300000746135,
              -5.162000000400722
            ],
            [
              4.181300000746133,
              -5.162000000400725
            ],
            [
              5.238479267923075,
              -5.729778121693357
            ],
            [
              4.181299999999999,
              -5.162
            ],
            [
              2.5497999999999985,
              -8.199800000000002
            ],
            [
              2.466800000000001,
              -8.155300000000004
            ],
            [
              2.4090999999999125,
              -8.262900000000165
            ],
            [
              2.4090999999999116,
              -8.262900000000165
            ],
            [
              0.8112,
              -11.2381
            ],
            [
              -0.8020000000000166,
              -10.371699999999992
            ],
            [
              -0.8001854855005904,
              -10.368272583723297
            ],
            [
              -6.71474621662848,
              -7.191748936994539
            ],
            [
              -5.034903690334479,
              -4.063948221070679
            ]
          ]
        ]
      },
      "properties": {
        "name": "footprint",
        "uuid": "0ce3ac3a-93ce-4ac0-9704-3cf7d31a636d",
        "status": "ok",
        "n_exposed_rooms": 7,
        "n_vertices": 29,
        "area_m2": 72.41343803821695,
        "is_valid": true,
        "is_simple": true,
        "hull_area_m2": 90.07321199077735,
        "convexity": 0.8039397778512818,
        "obb_aspect_ratio": 1.100857496311768,
        "unbuffered_union_area_m2": 50.12918723308291,
        "buffer_bridged_ratio": 0.4164509129220618,
        "fell_back_to_hull": false,
        "error": null
      }
    },
    {
      "type": "Feature",
      "geometry": {
        "type": "Polygon",
        "coordinates": [
          [
            [
              0.85484973987156,
              -3.272402976112826
            ],
            [
              -1.3113206177772478,
              -2.1090191782634724
            ],
            [
              -2.9562632321956883,
              -5.140603533132862
            ],
            [
              -0.7770734480290962,
              -6.310978177884799
            ],
            [
              0.85484973987156,
              -3.272402976112826
            ]
          ]
        ]
      },
      "properties": {
        "name": "room_0"
      }
    },
    {
      "type": "Feature",
      "geometry": {
        "type": "Polygon",
        "coordinates": [
          [
            [
              -0.2911,
              -2.1705
            ],
            [
              -0.4898,
              -2.5502
            ],
            [
              -1.3113,
              -2.109
            ],
            [
              -2.9563,
              -5.1406
            ],
            [
              -0.7771,
              -6.311
            ],
            [
              0.8548,
              -3.2724
            ],
            [
              0.7384,
              -3.2099
            ],
            [
              0.8548,
              -3.2724
            ],
            [
              0.8119,
              -3.3524
            ],
            [
              4.1813,
              -5.162
            ],
            [
              0.9117,
              -3.406
            ],
            [
              -0.6938,
              -6.3954
            ],
            [
              -4.9522,
              -4.1084
            ],
            [
              -3.2324,
              -0.9062
            ],
            [
              -3.3638,
              -0.8315
            ],
            [
              -3.3638,
              -0.8315
            ],
            [
              -0.4551,
              -2.484
            ],
            [
              0.0006,
              -1.613
            ],
            [
              -0.2911,
              -2.1705
            ]
          ]
        ]
      },
      "properties": {
        "name": "room_1"
      }
    },
    {
      "type": "Feature",
      "geometry": {
        "type": "Polygon",
        "coordinates": [
          [
            [
              0.8193918572700798,
              -7.208107271994
            ],
            [
              -5.03490369033448,
              -4.06394822107068
            ],
            [
              -6.71474621662848,
              -7.191748936994539
            ],
            [
              -0.8604503051638903,
              -10.33590625367298
            ],
            [
              0.8193918572700798,
              -7.208107271994
            ]
          ]
        ]
      },
      "properties": {
        "name": "room_2"
      }
    },
    {
      "type": "Feature",
      "geometry": {
        "type": "Polygon",
        "coordinates": [
          [
            [
              0.4227,
              -8.0913
            ],
            [
              1.2713,
              -8.5471
            ],
            [
              1.6445,
              -7.8523
            ],
            [
              2.4091,
              -8.2629
            ],
            [
              0.8112,
              -11.2381
            ],
            [
              -0.802,
              -10.3717
            ],
            [
              -0.8002,
              -10.3683
            ],
            [
              -0.8605,
              -10.3359
            ],
            [
              0.3624,
              -8.0589
            ],
            [
              0.4227,
              -8.0913
            ],
            [
              -0.6976,
              -10.1772
            ],
            [
              0.4227,
              -8.0913
            ]
          ]
        ]
      },
      "properties": {
        "name": "room_3"
      }
    },
    {
      "type": "Feature",
      "geometry": {
        "type": "Polygon",
        "coordinates": [
          [
            [
              2.4091,
              -8.2629
            ],
            [
              1.6445,
              -7.8523
            ],
            [
              1.7023,
              -7.7447
            ],
            [
              0.7934,
              -7.2565
            ],
            [
              0.8194,
              -7.2081
            ],
            [
              -0.6938,
              -6.3954
            ],
            [
              0.9117,
              -3.406
            ],
            [
              4.1813,
              -5.162
            ],
            [
              2.5498,
              -8.1998
            ],
            [
              2.4668,
              -8.1553
            ],
            [
              2.4091,
              -8.2629
            ]
          ]
        ]
      },
      "properties": {
        "name": "room_4"
      }
    },
    {
      "type": "Feature",
      "geometry": {
        "type": "Polygon",
        "coordinates": [
          [
            [
              0.5065,
              -0.6462
            ],
            [
              -0.4551,
              -2.484
            ],
            [
              -3.3638,
              -0.8315
            ],
            [
              -2.4558,
              0.9039
            ],
            [
              -0.1809,
              -0.2865
            ],
            [
              -2.4093,
              0.8796
            ],
            [
              -1.5722,
              2.4383
            ],
            [
              -1.5722,
              2.4383
            ],
            [
              -2.3538,
              0.983
            ],
            [
              0.4309,
              -0.5126
            ],
            [
              0.397,
              -0.5758
            ],
            [
              0.3915,
              -0.586
            ],
            [
              0.5065,
              -0.6462
            ]
          ]
        ]
      },
      "properties": {
        "name": "room_5"
      }
    },
    {
      "type": "Feature",
      "geometry": {
        "type": "Polygon",
        "coordinates": [
          [
            [
              1.212504757085962,
              0.9426829575644561
            ],
            [
              -1.5722070598119928,
              2.4382643903349734
            ],
            [
              -2.353771769084304,
              0.9830235623012153
            ],
            [
              0.43094125346881607,
              -0.5125579504406119
            ],
            [
              1.212504757085962,
              0.9426829575644561
            ]
          ]
        ]
      },
      "properties": {
        "name": "room_6"
      }
    }
  ]
}