{
  "type": "FeatureCollection",
  "features": [
    {
      "type": "Feature",
      "geometry": {
        "type": "Polygon",
        "coordinates": [
          [
            [
              -6.541745972595778,
              5.162107073204982
            ],
            [
              -5.074073469707712,
              6.783051727007163
            ],
            [
              -5.31272345488532,
              6.999135854499877
            ],
            [
              -0.9424869944905999,
              11.825758071895699
            ],
            [
              0.425135938797843,
              10.587452492036864
            ],
            [
              0.6903180738382124,
              10.351018633834933
            ],
            [
              1.252720101972885,
              10.960236576818485
            ],
            [
              1.6858227784858921,
              10.571827672754353
            ],
            [
              2.729312179061606,
              11.724288815147435
            ],
            [
              2.7243999999999673,
              11.728799999999962
            ],
            [
              5.3719,
              14.6529
            ],
            [
              5.371899999972566,
              14.652900000024841
            ],
            [
              5.371900454495204,
              14.652899588484386
            ],
            [
              7.977499999999997,
              12.293700000000001
            ],
            [
              8.058399999999999,
              12.383000000000001
            ],
            [
              10.243299999999994,
              10.404700000000005
            ],
            [
              10.233337607792587,
              10.393697216403128
            ],
            [
              12.465201754635327,
              8.372869731233756
            ],
            [
              9.812089280805061,
              5.442691103436354
            ],
            [
              9.75771868073964,
              5.491920624486182
            ],
            [
              9.631799999999798,
              5.352899999999778
            ],
            [
              9.631778129378434,
              5.3529198233597235
            ],
            [
              7.923268695952842,
              3.467963241750951
            ],
            [
              7.081544795315551,
              2.5393116284924027
            ],
            [
              6.788429832572562,
              2.2152684452716933
            ],
            [
              6.806705418243369,
              2.198720929113799
            ],
            [
              0.9890746977356529,
              -4.226446741849716
            ],
            [
              0.984876800276541,
              -4.22264578068763
            ],
            [
              -4.243746428102161,
              -9.99729534509925
            ],
            [
              -9.8061916945316,
              -4.9608126076413
            ],
            [
              -6.051825031370978,
              -0.8143773363648044
            ],
            [
              -9.553199999999999,
              2.355799999999999
            ],
            [
              -6.879,
              5.3093
            ],
            [
              -6.620422848609605,
              5.075174753921023
            ],
            [
              -6.541745972595778,
              5.162107073204982
            ]
          ]
        ]
      },
      "properties": {
        "name": "footprint",
        "uuid": "0f911051-6084-4f0d-8f9a-24fc5b20f6ff",
        "status": "ok",
        "n_exposed_rooms": 12,
        "n_vertices": 34,
        "area_m2": 258.46995013313665,
        "is_valid": true,
        "is_simple": true,
        "hull_area_m2": 281.734424133812,
        "convexity": 0.9174240986979081,
        "obb_aspect_ratio": 2.0288667392529165,
        "unbuffered_union_area_m2": 182.86337808803233,
        "buffer_bridged_ratio": 0.3514433310299684,
        "fell_back_to_hull": false,
        "error": null
      }
    },
    {
      "type": "Feature",
      "geometry": {
        "type": "Polygon",
        "coordinates": [
          [
            [
              -6.1713294997812405,
              -0.9463616595140802
            ],
            [
              -9.8061916945316,
              -4.9608126076413
            ],
            [
              -4.243746428102161,
              -9.99729534509925
            ],
            [
              0.8687067455254107,
              -4.350947501191271
            ],
            [
              -2.5164271683310395,
              -1.28589829964976
            ],
            [
              -3.99401796687867,
              -2.9177945493026702
            ],
            [
              -6.1713294997812405,
              -0.9463616595140802
            ]
          ]
        ]
      },
      "properties": {
        "name": "room_0"
      }
    },
    {
      "type": "Feature",
      "geometry": {
        "type": "Polygon",
        "coordinates": [
          [
            [
              -9.5532,
              2.3558
            ],
            [
              -6.879,
              5.3093
            ],
            [
              -4.2892,
              2.9644
            ],
            [
              -6.6204,
              5.0752
            ],
            [
              -6.5575,
              5.1447
            ],
            [
              -4.2974,
              3.0983
            ],
            [
              -2.8548,
              4.6915
            ],
            [
              -5.1149,
              6.7379
            ],
            [
              -5.0741,
              6.7831
            ],
            [
              -2.8305,
              4.7516
            ],
            [
              -0.1033,
              7.7635
            ],
            [
              -0.9964,
              8.5722
            ],
            [
              0.6467,
              10.3869
            ],
            [
              0.6631,
              10.372
            ],
            [
              0.6885,
              10.349
            ],
            [
              -0.7804,
              8.7579
            ],
            [
              0.8233,
              7.3306
            ],
            [
              1.5538,
              6.6755
            ],
            [
              3.5523,
              8.9039
            ],
            [
              2.5385,
              9.8131
            ],
            [
              1.7911,
              10.4774
            ],
            [
              1.6858,
              10.5718
            ],
            [
              1.7296,
              10.6201
            ],
            [
              3.4455,
              9.0665
            ],
            [
              6.4909,
              6.3091
            ],
            [
              8.2674,
              8.2712
            ],
            [
              7.517,
              8.9507
            ],
            [
              7.1869,
              8.5861
            ],
            [
              7.0634,
              8.698
            ],
            [
              7.0971,
              8.6674
            ],
            [
              7.1374,
              8.631
            ],
            [
              7.526,
              9.0602
            ],
            [
              8.3502,
              8.3139
            ],
            [
              10.2334,
              10.3937
            ],
            [
              10.2434,
              10.3846
            ],
            [
              10.2656,
              10.3644
            ],
            [
              7.6125,
              7.4343
            ],
            [
              9.7577,
              5.4919
            ],
            [
              9.6318,
              5.3529
            ],
            [
              7.4557,
              7.3253
            ],
            [
              6.3713,
              6.129
            ],
            [
              5.1821,
              7.2069
            ],
            [
              3.5079,
              5.3598
            ],
            [
              4.32,
              4.6237
            ],
            [
              6.1587,
              2.971
            ],
            [
              6.8802,
              2.3171
            ],
            [
              6.7881,
              2.2156
            ],
            [
              3.4279,
              5.258
            ],
            [
              -2.3897,
              -1.1671
            ],
            [
              0.9849,
              -4.2226
            ],
            [
              0.9431,
              -4.2688
            ],
            [
              0.8687,
              -4.3509
            ],
            [
              -2.5164,
              -1.2859
            ],
            [
              -3.994,
              -2.9178
            ],
            [
              -6.1713,
              -0.9464
            ],
            [
              -6.0518,
              -0.8144
            ],
            [
              -9.5532,
              2.3558
            ]
          ]
        ]
      },
      "properties": {
        "name": "room_1"
      }
    },
    {
      "type": "Feature",
      "geometry": {
        "type": "Polygon",
        "coordinates": [
          [
            [
              -5.114924861845557,
              6.737934137384195
            ],
            [
              -6.557469650319122,
              5.144741338483095
            ],
            [
              -4.297350021195307,
              3.098329852459318
            ],
            [
              -2.8548044046283123,
              4.6915199455031535
            ],
            [
              -5.114924861845557,
              6.737934137384195
            ]
          ]
        ]
      },
      "properties": {
        "name": "room_2"
      }
    },
    {
      "type": "Feature",
      "geometry": {
        "type": "Polygon",
        "coordinates": [
          [
            [
              -0.9424869944905999,
              11.825758071895699
            ],
            [
              -5.31272345488532,
              6.999135854499877
            ],
            [
              -2.83047146891072,
              4.751596412135365
            ],
            [
              -0.10333192273616254,
              7.763532624472523
            ],
            [
              -0.9964146639102299,
              8.572168773189567
            ],
            [
              0.6466830286583951,
              10.386854073497513
            ],
            [
              -0.9424869944905999,
              11.825758071895699
            ]
          ]
        ]
      },
      "properties": {
        "name": "room_3"
      }
    },
    {
      "type": "Feature",
      "geometry": {
        "type": "Polygon",
        "coordinates": [
          [
            [
              1.252720101972885,
              10.960236576818485
            ],
            [
              -0.7803506509300211,
              8.75792733883163
            ],
            [
              0.8232541139966998,
              7.330645620749875
            ],
            [
              1.5538177505606279,
              6.675474830912705
            ],
            [
              3.5522942963152193,
              8.903927994424091
            ],
            [
              2.538523759625481,
              9.813077716466559
            ],
            [
              1.79112262569032,
              10.47739418049316
            ],
            [
              1.252720101972885,
              10.960236576818485
            ]
          ]
        ]
      },
      "properties": {
        "name": "room_4"
      }
    },
    {
      "type": "Feature",
      "geometry": {
        "type": "Polygon",
        "coordinates": [
          [
            [
              3.627749625859881,
              8.706928263622626
            ],
            [
              1.638840830523377,
              6.510317565447506
            ],
            [
              3.0983300245483703,
              5.188831709196593
            ],
            [
              5.087238293573142,
              7.385442883917556
            ],
            [
              3.627749625859881,
              8.706928263622626
            ]
          ]
        ]
      },
      "properties": {
        "name": "room_5"
      }
    },
    {
      "type": "Feature",
      "geometry": {
        "type": "Polygon",
        "coordinates": [
          [
            [
              2.703893145965772,
              11.69621526892455
            ],
            [
              1.7295756217909801,
              10.62014963151168
            ],
            [
              3.4454500197942304,
              9.06652108421118
            ],
            [
              6.490853996453611,
              6.309077671274659
            ],
            [
              8.26741347243009,
              8.271164584663339
            ],
            [
              7.516965336952561,
              8.950656070692059
            ],
            [
              6.744129041708484,
              8.097112199957493
            ],
            [
              5.216383697799381,
              9.480397806949366
            ],
            [
              4.4197677881464745,
              10.142589077144834
            ],
            [
              2.703893145965772,
              11.69621526892455
            ]
          ]
        ]
      },
      "properties": {
        "name": "room_6"
      }
    },
    {
      "type": "Feature",
      "geometry": {
        "type": "Polygon",
        "coordinates": [
          [
            [
              3.50794720686482,
              5.359780977621508
            ],
            [
              4.320005269108471,
              4.623737940512267
            ],
            [
              6.1587243828919105,
              2.971039711577929
            ],
            [
              6.880163488421361,
              2.317132983706609
            ],
            [
              7.923268789523329,
              3.467963344984783
            ],
            [
              9.63180485139304,
              5.352949305103451
            ],
            [
              7.45571930177857,
              7.325336122521923
            ],
            [
              6.371346672991036,
              6.128974310926416
            ],
            [
              5.1821321003505565,
              7.206869041018064
            ],
            [
              3.50794720686482,
              5.359780977621508
            ]
          ]
        ]
      },
      "properties": {
        "name": "room_7"
      }
    },
    {
      "type": "Feature",
      "geometry": {
        "type": "Polygon",
        "coordinates": [
          [
            [
              7.928,
              12.3385
            ],
            [
              5.2804,
              9.4144
            ],
            [
              5.1089,
              9.5697
            ],
            [
              4.4198,
              10.1426
            ],
            [
              2.7039,
              11.6962
            ],
            [
              2.7293,
              11.7243
            ],
            [
              2.7244,
              11.7288
            ],
            [
              5.3719,
              14.6529
            ],
            [
              7.928,
              12.3385
            ]
          ]
        ]
      },
      "properties": {
        "name": "room_8"
      }
    },
    {
      "type": "Feature",
      "geometry": {
        "type": "Polygon",
        "coordinates": [
          [
            [
              8.0584,
              12.383
            ],
            [
              10.2433,
              10.4047
            ],
            [
              8.3502,
              8.3139
            ],
            [
              7.526,
              9.0602
            ],
            [
              7.1374,
              8.631
            ],
            [
              5.7767,
              9.863
            ],
            [
              5.7272,
              9.9078
            ],
            [
              5.7539,
              9.8836
            ],
            [
              5.7272,
              9.9078
            ],
            [
              7.928,
              12.3385
            ],
            [
              5.3719,
              14.6529
            ],
            [
              7.9775,
              12.2937
            ],
            [
              8.0584,
              12.383
            ]
          ]
        ]
      },
      "properties": {
        "name": "room_9"
      }
    },
    {
      "type": "Feature",
      "geometry": {
        "type": "Polygon",
        "coordinates": [
          [
            [
              10.265643261721928,
              10.364446263347077
            ],
            [
              7.612530120735885,
              7.434268239621721
            ],
            [
              9.812089280805065,
              5.442691103436356
            ],
            [
              12.465201754635327,
              8.372869731233756
            ],
            [
              10.265643261721928,
              10.364446263347077
            ]
          ]
        ]
      },
      "properties": {
        "name": "room_10"
      }
    },
    {
      "type": "Feature",
      "geometry": {
        "type": "Polygon",
        "coordinates": [
          [
            [
              3.42789422914917,
              5.258044649465001
            ],
            [
              -2.3897351920934247,
              -1.1671235234049795
            ],
            [
              0.9890746977356504,
              -4.226446741849719
            ],
            [
              6.80670541824337,
              2.1987209291138003
            ],
            [
              3.42789422914917,
              5.258044649465001
            ]
          ]
        ]
      },
      "properties": {
        "name": "room_11"
      }
    }
  ]
}