{
  "type": "FeatureCollection",
  "features": [
    {
      "type": "Feature",
      "geometry": {
        "type": "Polygon",
        "coordinates": [
          [
            [
              -0.7429000000000002,
              -1.8520999999999999
            ],
            [
              -0.7421333971977396,
              -1.8520287449451829
            ],
            [
              -1.1146,
              1.6996
            ],
            [
              -1.7158,
              3.4440999999999997
            ],
            [
              0.3502787944751129,
              3.6607076113582995
            ],
            [
              0.3461317348124328,
              3.7002560000359104
            ],
            [
              3.723919995661174,
              4.054452294635367
            ],
            [
              3.9150085474159373,
              2.232139404109955
            ],
            [
              3.9318,
              2.2339000000000007
            ],
            [
              4.813190855085714,
              -6.171487340387312
            ],
            [
              4.854723171755481,
              -6.167132256782795
            ],
            [
              5.001769014584799,
              -7.569426805859348
            ],
            [
              4.998299018526406,
              -7.569790670608136
            ],
            [
              5.007399999999899,
              -7.656299999999046
            ],
            [
              5.5201,
              -12.5463
            ],
            [
              2.399800000000003,
              -12.8735
            ],
            [
              2.3987559579019955,
              -12.863542633246734
            ],
            [
              0.39839999936423626,
              -13.073299993937832
            ],
            [
              0.04380000000000011,
              -9.6921
            ],
            [
              0.14190000000000003,
              -9.6818
            ],
            [
              0.1260000000001855,
              -9.530600000001764
            ],
            [
              0.12603451675568317,
              -9.530596379322693
            ],
            [
              -0.15686816358250766,
              -6.832696662254866
            ],
            [
              -0.15689999999988952,
              -6.832700000001056
            ],
            [
              -0.18230138361524126,
              -6.589886773945646
            ],
            [
              -0.23680000000000007,
              -6.5957
            ],
            [
              -0.7429000000000002,
              -1.8520999999999999
            ]
          ]
        ]
      },
      "properties": {
        "name": "footprint",
        "uuid": "10d27382-8fce-456b-897d-3d5194ff5de5",
        "status": "ok",
        "n_exposed_rooms": 8,
        "n_vertices": 26,
        "area_m2": 85.15100613557837,
        "is_valid": true,
        "is_simple": true,
        "hull_area_m2": 88.88048110039516,
        "convexity": 0.9580394376960657,
        "obb_aspect_ratio": 3.056105211622852,
        "unbuffered_union_area_m2": 67.31883660028123,
        "buffer_bridged_ratio": 0.31588788772812926,
        "fell_back_to_hull": false,
        "error": null
      }
    },
    {
      "type": "Feature",
      "geometry": {
        "type": "Polygon",
        "coordinates": [
          [
            [
              -0.7519,
              -1.7589
            ],
            [
              -1.1146,
              1.6996
            ],
            [
              -1.7158,
              3.4441
            ],
            [
              0.2243,
              3.6475
            ],
            [
              0.3503,
              3.6607
            ],
            [
              0.5344,
              1.9046
            ],
            [
              3.9122,
              2.2588
            ],
            [
              3.915,
              2.2321
            ],
            [
              1.1116,
              1.9382
            ],
            [
              1.4748,
              -1.5254
            ],
            [
              1.4031,
              -1.533
            ],
            [
              1.4031,
              -1.533
            ],
            [
              1.0931,
              -1.5655
            ],
            [
              0.8449,
              -1.5915
            ],
            [
              1.0576,
              -1.5692
            ],
            [
              -0.7519,
              -1.7589
            ]
          ]
        ]
      },
      "properties": {
        "name": "room_0"
      }
    },
    {
      "type": "Feature",
      "geometry": {
        "type": "Polygon",
        "coordinates": [
          [
            [
              3.7239199956611744,
              4.054452294635368
            ],
            [
              0.3461317348124331,
              3.700256000035911
            ],
            [
              0.5344254064790481,
              1.9045954794941788
            ],
            [
              3.9122138971436797,
              2.2587905413386378
            ],
            [
              3.7239199956611744,
              4.054452294635368
            ]
          ]
        ]
      },
      "properties": {
        "name": "room_1"
      }
    },
    {
      "type": "Feature",
      "geometry": {
        "type": "Polygon",
        "coordinates": [
          [
            [
              -0.1569,
              -6.8327
            ],
            [
              -0.1823,
              -6.5899
            ],
            [
              1.566,
              -6.4034
            ],
            [
              1.3388,
              -4.2738
            ],
            [
              1.2786,
              -3.7098
            ],
            [
              1.4379,
              -3.6931
            ],
            [
              2.0205,
              -3.632
            ],
            [
              1.8265,
              -1.7816
            ],
            [
              1.5052,
              -1.8153
            ],
            [
              1.1116,
              1.9382
            ],
            [
              3.9318,
              2.2339
            ],
            [
              4.8002,
              -6.0476
            ],
            [
              4.8132,
              -6.1715
            ],
            [
              1.7087,
              -6.497
            ],
            [
              1.8557,
              -7.8993
            ],
            [
              1.7688,
              -7.9084
            ],
            [
              1.6363,
              -6.6447
            ],
            [
              -0.1569,
              -6.8327
            ]
          ]
        ]
      },
      "properties": {
        "name": "room_2"
      }
    },
    {
      "type": "Feature",
      "geometry": {
        "type": "Polygon",
        "coordinates": [
          [
            [
              4.854723171755481,
              -6.167132256782797
            ],
            [
              1.708667984324645,
              -6.497027973283043
            ],
            [
              1.8557128847509814,
              -7.899323123921305
            ],
            [
              5.001769014584795,
              -7.569426805859321
            ],
            [
              4.854723171755481,
              -6.167132256782797
            ]
          ]
        ]
      },
      "properties": {
        "name": "room_3"
      }
    },
    {
      "type": "Feature",
      "geometry": {
        "type": "Polygon",
        "coordinates": [
          [
            [
              0.3984,
              -13.0733
            ],
            [
              0.0438,
              -9.6921
            ],
            [
              0.1419,
              -9.6818
            ],
            [
              0.126,
              -9.5306
            ],
            [
              1.9192,
              -9.3425
            ],
            [
              1.8244,
              -8.4386
            ],
            [
              1.9336,
              -8.4272
            ],
            [
              2.3988,
              -12.8635
            ],
            [
              2.3305,
              -12.8707
            ],
            [
              0.3984,
              -13.0733
            ]
          ]
        ]
      },
      "properties": {
        "name": "room_4"
      }
    },
    {
      "type": "Feature",
      "geometry": {
        "type": "Polygon",
        "coordinates": [
          [
            [
              5.0074,
              -7.6563
            ],
            [
              5.5201,
              -12.5463
            ],
            [
              2.3998,
              -12.8735
            ],
            [
              1.9336,
              -8.4272
            ],
            [
              2.3838,
              -8.38
            ],
            [
              2.3373,
              -7.9363
            ],
            [
              2.3373,
              -7.9363
            ],
            [
              2.3282,
              -7.8498
            ],
            [
              4.9983,
              -7.5698
            ],
            [
              5.0074,
              -7.6563
            ],
            [
              3.6723,
              -7.7963
            ],
            [
              5.0074,
              -7.6563
            ]
          ]
        ]
      },
      "properties": {
        "name": "room_5"
      }
    },
    {
      "type": "Feature",
      "geometry": {
        "type": "Polygon",
        "coordinates": [
          [
            [
              1.636293997470524,
              -6.644672870557883
            ],
            [
              -0.1568673538803882,
              -6.83270438397428
            ],
            [
              0.126031374791004,
              -9.530566415995343
            ],
            [
              1.9191922368802679,
              -9.34253455168992
            ],
            [
              1.636293997470524,
              -6.644672870557883
            ]
          ]
        ]
      },
      "properties": {
        "name": "room_6"
      }
    },
    {
      "type": "Feature",
      "geometry": {
        "type": "Polygon",
        "coordinates": [
          [
            [
              1.0472,
              -3.4878
            ],
            [
              1.2526,
              -3.4659
            ],
            [
              1.3388,
              -4.2738
            ],
            [
              1.566,
              -6.4034
            ],
            [
              -0.2368,
              -6.5957
            ],
            [
              -0.7429,
              -1.8521
            ],
            [
              0.8569,
              -1.7034
            ],
            [
              1.0472,
              -3.4878
            ]
          ]
        ]
      },
      "properties": {
        "name": "room_7"
      }
    }
  ]
}