{
  "type": "FeatureCollection",
  "features": [
    {
      "type": "Feature",
      "geometry": {
        "type": "Polygon",
        "coordinates": [
          [
            [
              -2.434750200353761,
              0.2981698288789119
            ],
            [
              -4.590900656743478,
              3.02899484683862
            ],
            [
              -1.7108067513472842,
              5.30300274825961
            ],
            [
              0.4761984803246949,
              2.5330988011004854
            ],
            [
              0.7035999999999999,
              2.7125
            ],
            [
              1.8593999999999997,
              1.2471000000000003
            ],
            [
              3.3241,
              2.4025
            ],
            [
              3.9760000000000004,
              1.5759999999999998
            ],
            [
              3.9089745250273955,
              1.5231316903423975
            ],
            [
              4.787275098491476,
              0.3359694874465422
            ],
            [
              4.96570000000043,
              0.09479999999942065
            ],
            [
              4.9990000000000006,
              0.04970000000000084
            ],
            [
              3.659596659011736,
              -0.9412446940202915
            ],
            [
              4.79660179463939,
              -2.38129288277381
            ],
            [
              1.6279546918355399,
              -4.883130089948089
            ],
            [
              -0.3435261596231836,
              -2.3861959607186423
            ],
            [
              -0.31119251320356806,
              -2.360666596366362
            ],
            [
              -2.4198005494644352,
              0.3099734795436828
            ],
            [
              -2.434750200353761,
              0.2981698288789119
            ]
          ]
        ]
      },
      "properties": {
        "name": "footprint",
        "uuid": "117d172e-00d6-436e-8df2-050f25977602",
        "status": "ok",
        "n_exposed_rooms": 5,
        "n_vertices": 18,
        "area_m2": 44.05181919756414,
        "is_valid": true,
        "is_simple": true,
        "hull_area_m2": 51.070765545266845,
        "convexity": 0.8625643012638724,
        "obb_aspect_ratio": 1.7214381290015381,
        "unbuffered_union_area_m2": 32.298432159586795,
        "buffer_bridged_ratio": 0.40047423501824614,
        "fell_back_to_hull": false,
        "error": null
      }
    },
    {
      "type": "Feature",
      "geometry": {
        "type": "Polygon",
        "coordinates": [
          [
            [
              4.999,
              0.0497
            ],
            [
              3.37,
              -1.1555
            ],
            [
              3.3366,
              -1.1104
            ],
            [
              2.7794,
              -0.3573
            ],
            [
              3.0065,
              -0.1892
            ],
            [
              2.6743,
              0.2599
            ],
            [
              4.0762,
              1.2971
            ],
            [
              4.9657,
              0.0948
            ],
            [
              4.3127,
              -0.3883
            ],
            [
              4.9657,
              0.0948
            ],
            [
              4.999,
              0.0497
            ]
          ]
        ]
      },
      "properties": {
        "name": "room_0"
      }
    },
    {
      "type": "Feature",
      "geometry": {
        "type": "Polygon",
        "coordinates": [
          [
            [
              3.2221057376447733,
              -0.38715044310661906
            ],
            [
              1.3823837125694611,
              -1.839721111862115
            ],
            [
              0.985399496436008,
              -1.336929347911816
            ],
            [
              0.7596160110082599,
              -1.515198670745908
            ],
            [
              -0.34352615962319977,
              -2.386195960718622
            ],
            [
              1.6279546918355399,
              -4.883130089948089
            ],
            [
              4.79660179463939,
              -2.38129288277381
            ],
            [
              3.2221057376447733,
              -0.38715044310661906
            ]
          ]
        ]
      },
      "properties": {
        "name": "room_1"
      }
    },
    {
      "type": "Feature",
      "geometry": {
        "type": "Polygon",
        "coordinates": [
          [
            [
              0.7036,
              2.7125
            ],
            [
              1.8594,
              1.2471
            ],
            [
              3.3241,
              2.4025
            ],
            [
              3.976,
              1.576
            ],
            [
              1.8157,
              -0.128
            ],
            [
              2.4585,
              -0.9292
            ],
            [
              1.6261,
              -1.5857
            ],
            [
              -0.3831,
              0.9616
            ],
            [
              0.2416,
              1.4543
            ],
            [
              -0.193,
              2.0053
            ],
            [
              -0.2236,
              2.044
            ],
            [
              0.4453,
              2.5722
            ],
            [
              0.4762,
              2.5331
            ],
            [
              0.7036,
              2.7125
            ]
          ]
        ]
      },
      "properties": {
        "name": "room_2"
      }
    },
    {
      "type": "Feature",
      "geometry": {
        "type": "Polygon",
        "coordinates": [
          [
            [
              -1.7108067513472842,
              5.30300274825961
            ],
            [
              -4.590900656743478,
              3.02899484683862
            ],
            [
              -2.434750200353761,
              0.2981698288789123
            ],
            [
              0.445343531556202,
              2.572177465909121
            ],
            [
              -1.7108067513472842,
              5.30300274825961
            ]
          ]
        ]
      },
      "properties": {
        "name": "room_3"
      }
    },
    {
      "type": "Feature",
      "geometry": {
        "type": "Polygon",
        "coordinates": [
          [
            [
              -0.3343,
              -2.3314
            ],
            [
              -2.4154,
              0.3044
            ],
            [
              -0.8878,
              1.5106
            ],
            [
              1.2156,
              -1.1076
            ],
            [
              -0.4221,
              0.9308
            ],
            [
              -0.3831,
              0.9616
            ],
            [
              1.6261,
              -1.5857
            ],
            [
              2.4585,
              -0.9292
            ],
            [
              2.4884,
              -0.9665
            ],
            [
              1.3824,
              -1.8397
            ],
            [
              0.9854,
              -1.3369
            ],
            [
              0.7596,
              -1.5152
            ],
            [
              -0.3112,
              -2.3607
            ],
            [
              -0.3343,
              -2.3314
            ]
          ]
        ]
      },
      "properties": {
        "name": "room_4"
      }
    }
  ]
}