{
  "type": "FeatureCollection",
  "features": [
    {
      "type": "Feature",
      "geometry": {
        "type": "Polygon",
        "coordinates": [
          [
            [
              -14.726004847434051,
              -3.0328315301133593
            ],
            [
              -14.386650540778826,
              0.3868901065603569
            ],
            [
              -11.034606027126415,
              0.05425154395045115
            ],
            [
              -11.031571487563433,
              0.08483103402389858
            ],
            [
              -8.79071265280093,
              -0.13753970096361626
            ],
            [
              -8.807930559054236,
              -0.3110470098750749
            ],
            [
              -4.605314033775218,
              -0.728092121792306
            ],
            [
              -4.589882295770852,
              -0.5725844114647072
            ],
            [
              -2.6190954873894263,
              -0.7681544797798
            ],
            [
              -2.5962000000000005,
              -0.5372
            ],
            [
              3.4449,
              -1.1367
            ],
            [
              3.4395059211919947,
              -1.190840568776645
            ],
            [
              2.7652,
              -7.9863
            ],
            [
              -0.7331676400595203,
              -7.639189476791347
            ],
            [
              -1.0254862950961499,
              -7.632586137492434
            ],
            [
              -1.0364456403349547,
              -7.743024497359825
            ],
            [
              -4.161023908030296,
              -7.432958439867094
            ],
            [
              -4.167646268749822,
              -7.499692787366262
            ],
            [
              -8.911971399277963,
              -7.028892041243008
            ],
            [
              -9.392843413313411,
              -6.981274170115174
            ],
            [
              -9.394346811605423,
              -6.996424123226232
            ],
            [
              -12.681973515212121,
              -6.670177961089076
            ],
            [
              -12.67718634267781,
              -6.62193689614492
            ],
            [
              -12.800100000000892,
              -6.609799999999911
            ],
            [
              -12.800096950744269,
              -6.6097692742552345
            ],
            [
              -15.039662022651136,
              -6.387527237236335
            ],
            [
              -14.746282888687015,
              -3.431099558485239
            ],
            [
              -14.707556119614507,
              -3.0346622798129923
            ],
            [
              -14.726004847434051,
              -3.0328315301133593
            ]
          ]
        ]
      },
      "properties": {
        "name": "footprint",
        "uuid": "1825a812-09d0-4407-9265-182a07053cfc",
        "status": "ok",
        "n_exposed_rooms": 11,
        "n_vertices": 28,
        "area_m2": 122.29148722531691,
        "is_valid": true,
        "is_simple": true,
        "hull_area_m2": 124.73634155741519,
        "convexity": 0.9803998233267653,
        "obb_aspect_ratio": 2.528651264109469,
        "unbuffered_union_area_m2": 87.32249258395561,
        "buffer_bridged_ratio": 0.3658708268393548,
        "fell_back_to_hull": false,
        "error": null
      }
    },
    {
      "type": "Feature",
      "geometry": {
        "type": "Polygon",
        "coordinates": [
          [
            [
              -12.352824550415516,
              -3.3532938351778623
            ],
            [
              -12.681973515212121,
              -6.670177961089076
            ],
            [
              -9.394346811605423,
              -6.996424123226232
            ],
            [
              -9.065197432142913,
              -3.6795401731222874
            ],
            [
              -12.352824550415516,
              -3.3532938351778623
            ]
          ]
        ]
      },
      "properties": {
        "name": "room_0"
      }
    },
    {
      "type": "Feature",
      "geometry": {
        "type": "Polygon",
        "coordinates": [
          [
            [
              -11.031571487563445,
              0.0848310340238998
            ],
            [
              -11.372434799573664,
              -3.3500974121791565
            ],
            [
              -9.131575945061261,
              -3.5724679481442
            ],
            [
              -8.79071265280093,
              -0.13753970096361612
            ],
            [
              -11.031571487563445,
              0.0848310340238998
            ]
          ]
        ]
      },
      "properties": {
        "name": "room_1"
      }
    },
    {
      "type": "Feature",
      "geometry": {
        "type": "Polygon",
        "coordinates": [
          [
            [
              -14.386650540778826,
              0.38689010656035694
            ],
            [
              -14.726004847434051,
              -3.0328315301133593
            ],
            [
              -11.470096149307475,
              -3.3559298992492796
            ],
            [
              -11.130741961913376,
              0.06379154827690026
            ],
            [
              -14.386650540778826,
              0.38689010656035694
            ]
          ]
        ]
      },
      "properties": {
        "name": "room_2"
      }
    },
    {
      "type": "Feature",
      "geometry": {
        "type": "Polygon",
        "coordinates": [
          [
            [
              -14.716683430240586,
              -3.132821160002522
            ],
            [
              -15.039662022651136,
              -6.387527237236335
            ],
            [
              -12.800126808944007,
              -6.60976631129282
            ],
            [
              -12.477148057010782,
              -3.3550606518538038
            ],
            [
              -14.716683430240586,
              -3.132821160002522
            ]
          ]
        ]
      },
      "properties": {
        "name": "room_3"
      }
    },
    {
      "type": "Feature",
      "geometry": {
        "type": "Polygon",
        "coordinates": [
          [
            [
              -3.8383253073059076,
              -4.181084754589614
            ],
            [
              -4.167646268749824,
              -7.499692787366262
            ],
            [
              -9.210453415455863,
              -6.999272326730464
            ],
            [
              -9.046299581926915,
              -5.345068830772556
            ],
            [
              -6.600454533264443,
              -5.587780901185234
            ],
            [
              -6.439744955080568,
              -3.968288118320813
            ],
            [
              -4.882979433453812,
              -4.122772889663746
            ],
            [
              -4.878522645184023,
              -4.077861284961971
            ],
            [
              -3.8383253073059076,
              -4.181084754589614
            ]
          ]
        ]
      },
      "properties": {
        "name": "room_4"
      }
    },
    {
      "type": "Feature",
      "geometry": {
        "type": "Polygon",
        "coordinates": [
          [
            [
              -8.387496221892313,
              -0.35276865736321916
            ],
            [
              -8.723788286833885,
              -3.741632333013757
            ],
            [
              -4.882979433453812,
              -4.122772889663746
            ],
            [
              -4.546686741057986,
              -0.7339099797161952
            ],
            [
              -8.387496221892313,
              -0.35276865736321916
            ]
          ]
        ]
      },
      "properties": {
        "name": "room_5"
      }
    },
    {
      "type": "Feature",
      "geometry": {
        "type": "Polygon",
        "coordinates": [
          [
            [
              -9.2105,
              -6.9993
            ],
            [
              -9.3928,
              -6.9812
            ],
            [
              -9.0652,
              -3.6795
            ],
            [
              -12.3528,
              -3.3533
            ],
            [
              -12.6772,
              -6.622
            ],
            [
              -12.7444,
              -6.6153
            ],
            [
              -12.8001,
              -6.6098
            ],
            [
              -12.4771,
              -3.3551
            ],
            [
              -14.7167,
              -3.1328
            ],
            [
              -14.7069,
              -3.0347
            ],
            [
              -11.4701,
              -3.3559
            ],
            [
              -11.1307,
              0.0638
            ],
            [
              -11.0346,
              0.0543
            ],
            [
              -11.3724,
              -3.3501
            ],
            [
              -9.1316,
              -3.5725
            ],
            [
              -8.8079,
              -0.311
            ],
            [
              -8.3875,
              -0.3528
            ],
            [
              -8.7238,
              -3.7416
            ],
            [
              -6.4397,
              -3.9683
            ],
            [
              -6.5217,
              -4.7941
            ],
            [
              -7.3427,
              -4.7126
            ],
            [
              -7.4215,
              -5.5063
            ],
            [
              -9.0463,
              -5.3451
            ],
            [
              -9.2105,
              -6.9993
            ]
          ]
        ]
      },
      "properties": {
        "name": "room_6"
      }
    },
    {
      "type": "Feature",
      "geometry": {
        "type": "Polygon",
        "coordinates": [
          [
            [
              -1.0203,
              -7.6107
            ],
            [
              -1.0233,
              -7.6104
            ],
            [
              -0.8808,
              -6.1748
            ],
            [
              -3.9265,
              -5.8726
            ],
            [
              -4.0821,
              -7.4408
            ],
            [
              -4.161,
              -7.433
            ],
            [
              -3.8383,
              -4.1811
            ],
            [
              -4.8785,
              -4.0779
            ],
            [
              -4.8635,
              -3.9264
            ],
            [
              -2.8784,
              -4.1234
            ],
            [
              -2.8881,
              -4.2219
            ],
            [
              -0.7055,
              -4.4385
            ],
            [
              -0.8677,
              -6.073
            ],
            [
              -1.0203,
              -7.6107
            ]
          ]
        ]
      },
      "properties": {
        "name": "room_7"
      }
    },
    {
      "type": "Feature",
      "geometry": {
        "type": "Polygon",
        "coordinates": [
          [
            [
              -4.5898822957708525,
              -0.5725844114647072
            ],
            [
              -2.5461261034320684,
              -0.7753955610295629
            ],
            [
              -2.8783639311543263,
              -4.123405122058531
            ],
            [
              -4.863493600264382,
              -3.9264117469501296
            ],
            [
              -4.546686741057986,
              -0.7339099797161952
            ],
            [
              -4.605314033775219,
              -0.7280921217923059
            ],
            [
              -4.5898822957708525,
              -0.5725844114647072
            ]
          ]
        ]
      },
      "properties": {
        "name": "room_8"
      }
    },
    {
      "type": "Feature",
      "geometry": {
        "type": "Polygon",
        "coordinates": [
          [
            [
              -0.8808230443984053,
              -6.174800859994766
            ],
            [
              -3.9265028386501566,
              -5.872564255475704
            ],
            [
              -4.0821239419181055,
              -7.440788040962912
            ],
            [
              -1.0364456403349545,
              -7.743024497359824
            ],
            [
              -0.8808230443984053,
              -6.174800859994766
            ]
          ]
        ]
      },
      "properties": {
        "name": "room_9"
      }
    },
    {
      "type": "Feature",
      "geometry": {
        "type": "Polygon",
        "coordinates": [
          [
            [
              -0.7055,
              -4.4385
            ],
            [
              -2.3672,
              -4.2736
            ],
            [
              -2.3534,
              -4.134
            ],
            [
              -2.3094,
              -3.691
            ],
            [
              -2.8124,
              -3.6411
            ],
            [
              -2.5106,
              -0.6004
            ],
            [
              -2.8124,
              -3.6411
            ],
            [
              -2.8303,
              -3.6393
            ],
            [
              -2.5461,
              -0.7754
            ],
            [
              -2.6191,
              -0.7682
            ],
            [
              -2.5962,
              -0.5372
            ],
            [
              3.4449,
              -1.1367
            ],
            [
              3.4395,
              -1.1909
            ],
            [
              2.7652,
              -7.9863
            ],
            [
              -1.0203,
              -7.6107
            ],
            [
              -0.6916,
              -4.2989
            ],
            [
              -0.7055,
              -4.4385
            ]
          ]
        ]
      },
      "properties": {
        "name": "room_10"
      }
    }
  ]
}