{
  "type": "FeatureCollection",
  "features": [
    {
      "type": "Feature",
      "geometry": {
        "type": "Polygon",
        "coordinates": [
          [
            [
              -9.861999999999833,
              -2.9526999999997834
            ],
            [
              -9.861996486982473,
              -2.9527026465625026
            ],
            [
              -8.076921902948042,
              -0.5833793298558294
            ],
            [
              -8.061107604877224,
              -0.5952939803549843
            ],
            [
              -3.664099999136599,
              5.240799999349522
            ],
            [
              0.2594999999999946,
              2.284800000000004
            ],
            [
              0.2527122644729251,
              2.2757907681967438
            ],
            [
              0.30770000000108116,
              2.234399999999186
            ],
            [
              1.9056,
              1.0304999999999997
            ],
            [
              -0.08681454455547372,
              -1.6140016257480874
            ],
            [
              -0.06850000000000019,
              -1.6278000000000001
            ],
            [
              -2.4745,
              -4.8213
            ],
            [
              -2.5703102511556994,
              -4.7491136354143935
            ],
            [
              -2.6224000000000687,
              -4.818400000000089
            ],
            [
              -2.6224360935483038,
              -4.818372805476512
            ],
            [
              -4.479824286962312,
              -7.283681702331237
            ],
            [
              -4.47979999999997,
              -7.283699999999962
            ],
            [
              -4.531080997013939,
              -7.351674810856686
            ],
            [
              -4.509074821434458,
              -7.368254492280648
            ],
            [
              -6.23772752893782,
              -9.6626940750371
            ],
            [
              -8.42363483960904,
              -8.01580878584444
            ],
            [
              -8.405782402360211,
              -7.99211324553533
            ],
            [
              -8.439558268015206,
              -7.966690550956299
            ],
            [
              -11.7730852868458,
              -5.45517593293219
            ],
            [
              -9.912712623411261,
              -2.985907292946134
            ],
            [
              -9.896286907161919,
              -2.99828259377795
            ],
            [
              -9.861999999999833,
              -2.9526999999997834
            ]
          ]
        ]
      },
      "properties": {
        "name": "footprint",
        "uuid": "193c3c70-2271-4c42-ab2c-586e1d64d4cb",
        "status": "ok",
        "n_exposed_rooms": 6,
        "n_vertices": 26,
        "area_m2": 93.53524170117169,
        "is_valid": true,
        "is_simple": true,
        "hull_area_m2": 94.16867211393412,
        "convexity": 0.9932734486051151,
        "obb_aspect_ratio": 1.9129697818288445,
        "unbuffered_union_area_m2": 36.40947491993671,
        "buffer_bridged_ratio": 0.657194043579932,
        "fell_back_to_hull": false,
        "error": null
      }
    },
    {
      "type": "Feature",
      "geometry": {
        "type": "Polygon",
        "coordinates": [
          [
            [
              -8.0611,
              -0.5953
            ],
            [
              -8.0474,
              -0.5771
            ],
            [
              -3.6641,
              5.2408
            ],
            [
              0.2595,
              2.2848
            ],
            [
              -1.7397,
              -0.3687
            ],
            [
              -0.0685,
              -1.6278
            ],
            [
              -2.4745,
              -4.8213
            ],
            [
              -4.5879,
              -3.229
            ],
            [
              -2.5703,
              -4.7491
            ],
            [
              -2.6224,
              -4.8184
            ],
            [
              -4.5887,
              -3.3369
            ],
            [
              -5.5183,
              -4.5708
            ],
            [
              -6.4461,
              -5.8023
            ],
            [
              -4.4798,
              -7.2837
            ],
            [
              -4.5311,
              -7.3517
            ],
            [
              -6.5333,
              -5.8432
            ],
            [
              -7.2025,
              -6.7315
            ],
            [
              -7.3643,
              -6.6097
            ],
            [
              -8.4058,
              -7.9921
            ],
            [
              -8.4337,
              -7.9711
            ],
            [
              -7.3517,
              -6.5349
            ],
            [
              -8.1313,
              -5.9475
            ],
            [
              -7.353,
              -4.9144
            ],
            [
              -9.8963,
              -2.9983
            ],
            [
              -9.862,
              -2.9527
            ],
            [
              -7.3016,
              -4.8816
            ],
            [
              -5.5166,
              -2.5124
            ],
            [
              -8.0611,
              -0.5953
            ]
          ]
        ]
      },
      "properties": {
        "name": "room_0"
      }
    },
    {
      "type": "Feature",
      "geometry": {
        "type": "Polygon",
        "coordinates": [
          [
            [
              -4.58870231192814,
              -3.3369395162948994
            ],
            [
              -5.518298734895577,
              -4.57079153832235
            ],
            [
              -6.44612212785081,
              -5.802289720926749
            ],
            [
              -4.47984195312999,
              -7.28370515061227
            ],
            [
              -2.6224230584250594,
              -4.81835550397464
            ],
            [
              -4.58870231192814,
              -3.3369395162948994
            ]
          ]
        ]
      },
      "properties": {
        "name": "room_1"
      }
    },
    {
      "type": "Feature",
      "geometry": {
        "type": "Polygon",
        "coordinates": [
          [
            [
              -8.076921902948044,
              -0.5833793298558319
            ],
            [
              -9.86196538175241,
              -2.9526613606983036
            ],
            [
              -7.301637938403267,
              -4.881637690491264
            ],
            [
              -5.516595817373158,
              -2.512354636688072
            ],
            [
              -8.076921902948044,
              -0.5833793298558319
            ]
          ]
        ]
      },
      "properties": {
        "name": "room_2"
      }
    },
    {
      "type": "Feature",
      "geometry": {
        "type": "Polygon",
        "coordinates": [
          [
            [
              -6.533255192642621,
              -5.84321596034417
            ],
            [
              -7.202530203397462,
              -6.731541843667937
            ],
            [
              -7.364256344169922,
              -6.609695688153558
            ],
            [
              -8.42363483960904,
              -8.01580878584444
            ],
            [
              -6.23772752893782,
              -9.6626940750371
            ],
            [
              -4.50907482143446,
              -7.36825449228065
            ],
            [
              -6.533255192642621,
              -5.84321596034417
            ]
          ]
        ]
      },
      "properties": {
        "name": "room_3"
      }
    },
    {
      "type": "Feature",
      "geometry": {
        "type": "Polygon",
        "coordinates": [
          [
            [
              -9.912712623411261,
              -2.985907292946134
            ],
            [
              -11.7730852868458,
              -5.45517593293219
            ],
            [
              -8.43373300238562,
              -7.9710793678760155
            ],
            [
              -7.351665159488238,
              -6.534851691111172
            ],
            [
              -8.131282491024283,
              -5.947480925322617
            ],
            [
              -7.3529777689786275,
              -4.91443743388036
            ],
            [
              -9.912712623411261,
              -2.985907292946134
            ]
          ]
        ]
      },
      "properties": {
        "name": "room_4"
      }
    },
    {
      "type": "Feature",
      "geometry": {
        "type": "Polygon",
        "coordinates": [
          [
            [
              -0.0868,
              -1.614
            ],
            [
              -1.7397,
              -0.3687
            ],
            [
              0.2527,
              2.2758
            ],
            [
              0.3077,
              2.2344
            ],
            [
              -1.6432,
              -0.355
            ],
            [
              0.3077,
              2.2344
            ],
            [
              1.9056,
              1.0305
            ],
            [
              -0.0453,
              -1.5589
            ],
            [
              -0.0868,
              -1.614
            ]
          ]
        ]
      },
      "properties": {
        "name": "room_5"
      }
    }
  ]
}