{
  "type": "FeatureCollection",
  "features": [
    {
      "type": "Feature",
      "geometry": {
        "type": "Polygon",
        "coordinates": [
          [
            [
              -9.276299999999837,
              -1.7192999999995227
            ],
            [
              -8.13170006901386,
              1.6235997984392538
            ],
            [
              -7.626719632355049,
              3.0984442195671122
            ],
            [
              -7.643997100409126,
              3.1050327682988184
            ],
            [
              -6.319601557751294,
              6.57806236629562
            ],
            [
              -5.389778673805453,
              6.22348702803934
            ],
            [
              -5.865228848294984,
              4.976692589326718
            ],
            [
              -5.08269241865607,
              4.67828195983275
            ],
            [
              -4.723593479500594,
              4.542060178275644
            ],
            [
              -3.862499999999999,
              6.8002
            ],
            [
              1.7151443537492557,
              4.673189092891354
            ],
            [
              6.296551062781457,
              2.927690261481273
            ],
            [
              5.658200000000001,
              4.114799999999999
            ],
            [
              5.6707069663507665,
              4.1215257430182035
            ],
            [
              5.0979,
              5.147
            ],
            [
              4.1094,
              4.5948
            ],
            [
              2.977901020610003,
              6.6204981728239645
            ],
            [
              1.3076000000020525,
              9.610900000001147
            ],
            [
              2.4139889777739545,
              10.228993842337383
            ],
            [
              3.290200000119248,
              10.718399999786467
            ],
            [
              3.6289000000000002,
              10.1119
            ],
            [
              6.2634,
              11.5835
            ],
            [
              6.323827908116044,
              11.47531587875569
            ],
            [
              6.500648003915848,
              11.575920416021075
            ],
            [
              9.497057851185668,
              13.280386346004398
            ],
            [
              9.474600000000008,
              13.317700000000006
            ],
            [
              14.324324639833367,
              16.236659076855865
            ],
            [
              13.8484,
              17.0271
            ],
            [
              16.140699999999992,
              18.407299999999996
            ],
            [
              16.154791799838755,
              18.383895246520073
            ],
            [
              16.25520000000079,
              18.44210000000046
            ],
            [
              16.25520650708587,
              18.442088769764418
            ],
            [
              18.882202011852065,
              19.96428727358399
            ],
            [
              20.117492914679097,
              17.832433978148906
            ],
            [
              20.296430376264826,
              17.587370327140576
            ],
            [
              20.5112,
              17.7203
            ],
            [
              22.33409999999999,
              14.775200000000014
            ],
            [
              22.317722391504507,
              14.765063209692707
            ],
            [
              24.268115806322715,
              11.560474029459712
            ],
            [
              19.839273817485473,
              8.86498570159992
            ],
            [
              17.954626148414807,
              11.961569427462974
            ],
            [
              17.965136234262932,
              11.967966090543012
            ],
            [
              17.6303,
              12.5089
            ],
            [
              16.89230000000001,
              12.052100000000006
            ],
            [
              16.888093402376935,
              12.058896025399541
            ],
            [
              16.764600000000318,
              11.984500000000187
            ],
            [
              16.764600000000314,
              11.98450000000019
            ],
            [
              14.37810712932884,
              10.548204290741676
            ],
            [
              12.002200000023239,
              9.118099999961393
            ],
            [
              11.983333933183483,
              9.14944591478187
            ],
            [
              8.978798650695515,
              7.440359041417303
            ],
            [
              8.675110390725042,
              7.265928065666884
            ],
            [
              9.331726920767004,
              6.090274895079061
            ],
            [
              9.5274,
              6.1955
            ],
            [
              12.524156720790838,
              0.6225960306209093
            ],
            [
              14.412290971836104,
              -0.09741954282580215
            ],
            [
              13.789522905409523,
              -1.7305360017713014
            ],
            [
              13.894899999999998,
              -1.9265000000000005
            ],
            [
              13.668334788216407,
              -2.04833378153274
            ],
            [
              13.668334788216407,
              -2.0483337815327416
            ],
            [
              12.239564254412656,
              -2.816644660795755
            ],
            [
              13.243720694134657,
              -3.199566308990585
            ],
            [
              13.122508876478461,
              -3.517426364577606
            ],
            [
              12.739300000000004,
              -4.522399999999997
            ],
            [
              12.771700000000001,
              -4.534799999999996
            ],
            [
              10.8526,
              -9.5674
            ],
            [
              4.320607374820695,
              -7.076502812299582
            ],
            [
              4.027915168288006,
              -6.96490578333086
            ],
            [
              3.955499999999998,
              -7.154800000000001
            ],
            [
              2.1783,
              -7.9254
            ],
            [
              1.4076000000000004,
              -6.148100000000001
            ],
            [
              -3.0565999999995737,
              -4.445700000000163
            ],
            [
              -3.056588204499233,
              -4.445669068651581
            ],
            [
              -3.6765938709257053,
              -4.209202337595026
            ],
            [
              -5.770644881786712,
              -9.760840519118744
            ],
            [
              -8.35715000543951,
              -8.785223396242989
            ],
            [
              -8.683605385885604,
              -8.662684942367264
            ],
            [
              -8.7055,
              -8.7201
            ],
            [
              -11.4989,
              -7.6549
            ],
            [
              -9.393492697863618,
              -2.133713694641674
            ],
            [
              -9.240793358037946,
              -1.7329832909946106
            ],
            [
              -9.276299999999837,
              -1.7192999999995227
            ]
          ]
        ]
      },
      "properties": {
        "name": "footprint",
        "uuid": "1f03f6e0-dfe6-4b25-bb45-f44ad146c0a3",
        "status": "ok",
        "n_exposed_rooms": 21,
        "n_vertices": 81,
        "area_m2": 407.1196525740132,
        "is_valid": true,
        "is_simple": true,
        "hull_area_m2": 615.149287103523,
        "convexity": 0.6618225219620539,
        "obb_aspect_ratio": 1.8195304531332377,
        "unbuffered_union_area_m2": 255.60806604693192,
        "buffer_bridged_ratio": 0.43295551473966193,
        "fell_back_to_hull": false,
        "error": null
      }
    },
    {
      "type": "Feature",
      "geometry": {
        "type": "Polygon",
        "coordinates": [
          [
            [
              13.8949,
              -1.9265
            ],
            [
              10.0213,
              -4.0095
            ],
            [
              8.5131,
              -1.2047
            ],
            [
              7.6462,
              -1.6709
            ],
            [
              6.2911,
              0.8492
            ],
            [
              7.1623,
              1.3177
            ],
            [
              5.6582,
              4.1148
            ],
            [
              9.5274,
              6.1955
            ],
            [
              13.8949,
              -1.9265
            ]
          ]
        ]
      },
      "properties": {
        "name": "room_0"
      }
    },
    {
      "type": "Feature",
      "geometry": {
        "type": "Polygon",
        "coordinates": [
          [
            [
              9.281,
              6.1811
            ],
            [
              5.6524,
              4.1543
            ],
            [
              5.0979,
              5.147
            ],
            [
              4.1094,
              4.5948
            ],
            [
              2.9779,
              6.6205
            ],
            [
              1.3076,
              9.6109
            ],
            [
              2.414,
              10.229
            ],
            [
              3.2902,
              10.7184
            ],
            [
              3.6289,
              10.1119
            ],
            [
              6.2634,
              11.5835
            ],
            [
              8.1728,
              8.1651
            ],
            [
              6.3238,
              11.4753
            ],
            [
              6.3354,
              11.4819
            ],
            [
              8.7186,
              7.2923
            ],
            [
              8.6744,
              7.2672
            ],
            [
              9.281,
              6.1811
            ]
          ]
        ]
      },
      "properties": {
        "name": "room_1"
      }
    },
    {
      "type": "Feature",
      "geometry": {
        "type": "Polygon",
        "coordinates": [
          [
            [
              9.486171798201333,
              13.274193966667273
            ],
            [
              6.335372053961425,
              11.481905498135385
            ],
            [
              8.718557201770832,
              7.292324419605759
            ],
            [
              11.869356832001388,
              9.084611672817783
            ],
            [
              9.486171798201333,
              13.274193966667273
            ]
          ]
        ]
      },
      "properties": {
        "name": "room_2"
      }
    },
    {
      "type": "Feature",
      "geometry": {
        "type": "Polygon",
        "coordinates": [
          [
            [
              15.8555,
              13.4951
            ],
            [
              16.7646,
              11.9845
            ],
            [
              14.3781,
              10.5482
            ],
            [
              12.0022,
              9.1181
            ],
            [
              9.4746,
              13.3177
            ],
            [
              14.237,
              16.1841
            ],
            [
              15.8555,
              13.4951
            ]
          ]
        ]
      },
      "properties": {
        "name": "room_3"
      }
    },
    {
      "type": "Feature",
      "geometry": {
        "type": "Polygon",
        "coordinates": [
          [
            [
              14.3243,
              16.2367
            ],
            [
              13.8484,
              17.0271
            ],
            [
              16.1407,
              18.4073
            ],
            [
              17.5629,
              16.0452
            ],
            [
              16.1548,
              18.3839
            ],
            [
              16.2552,
              18.4421
            ],
            [
              17.6329,
              16.0644
            ],
            [
              20.26,
              17.5866
            ],
            [
              20.2692,
              17.5706
            ],
            [
              17.6148,
              15.9276
            ],
            [
              16.6237,
              13.7134
            ],
            [
              16.1611,
              13.2334
            ],
            [
              16.8881,
              12.0589
            ],
            [
              16.7646,
              11.9845
            ],
            [
              15.8555,
              13.4951
            ],
            [
              14.237,
              16.1841
            ],
            [
              14.3243,
              16.2367
            ]
          ]
        ]
      },
      "properties": {
        "name": "room_4"
      }
    },
    {
      "type": "Feature",
      "geometry": {
        "type": "Polygon",
        "coordinates": [
          [
            [
              18.882202011852065,
              19.96428727358399
            ],
            [
              16.25519409750085,
              18.44208157909671
            ],
            [
              17.63294287376213,
              16.064375840122654
            ],
            [
              20.259951239335905,
              17.586580755894335
            ],
            [
              18.882202011852065,
              19.96428727358399
            ]
          ]
        ]
      },
      "properties": {
        "name": "room_5"
      }
    },
    {
      "type": "Feature",
      "geometry": {
        "type": "Polygon",
        "coordinates": [
          [
            [
              17.9651,
              11.968
            ],
            [
              17.919,
              12.0425
            ],
            [
              17.6303,
              12.5089
            ],
            [
              16.8923,
              12.0521
            ],
            [
              16.1611,
              13.2334
            ],
            [
              16.6237,
              13.7134
            ],
            [
              17.6148,
              15.9276
            ],
            [
              20.5112,
              17.7203
            ],
            [
              22.3341,
              14.7752
            ],
            [
              21.7027,
              14.3844
            ],
            [
              22.3177,
              14.7651
            ],
            [
              24.2681,
              11.5605
            ],
            [
              22.3834,
              14.657
            ],
            [
              17.9651,
              11.968
            ]
          ]
        ]
      },
      "properties": {
        "name": "room_6"
      }
    },
    {
      "type": "Feature",
      "geometry": {
        "type": "Polygon",
        "coordinates": [
          [
            [
              22.383443569313226,
              14.65704245155286
            ],
            [
              17.954626148414818,
              11.96156942746296
            ],
            [
              19.839273817485473,
              8.86498570159992
            ],
            [
              24.268091082413658,
              11.560458981957801
            ],
            [
              22.383443569313226,
              14.65704245155286
            ]
          ]
        ]
      },
      "properties": {
        "name": "room_7"
      }
    },
    {
      "type": "Feature",
      "geometry": {
        "type": "Polygon",
        "coordinates": [
          [
            [
              14.412290971836104,
              -0.09741954282580212
            ],
            [
              13.78953003977826,
              -1.7305172929523394
            ],
            [
              12.524179637552555,
              0.6225872916102583
            ],
            [
              14.412290971836104,
              -0.09741954282580212
            ]
          ]
        ]
      },
      "properties": {
        "name": "room_8"
      }
    },
    {
      "type": "Feature",
      "geometry": {
        "type": "Polygon",
        "coordinates": [
          [
            [
              13.243720694134657,
              -3.199566308990585
            ],
            [
              12.765057788633005,
              -4.454788948929466
            ],
            [
              10.70831734522675,
              -3.670477805607739
            ],
            [
              10.675176161674464,
              -3.6578398424518763
            ],
            [
              12.23952796980995,
              -2.816630824147078
            ],
            [
              13.243720694134657,
              -3.199566308990585
            ]
          ]
        ]
      },
      "properties": {
        "name": "room_9"
      }
    },
    {
      "type": "Feature",
      "geometry": {
        "type": "Polygon",
        "coordinates": [
          [
            [
              8.788045069074379,
              -2.968710938867666
            ],
            [
              6.238196513518944,
              -1.996477878216868
            ],
            [
              6.881394397061536,
              -0.31174195751907197
            ],
            [
              6.895487383546746,
              -0.27478066055924116
            ],
            [
              7.6462187314382,
              -1.6708750608741196
            ],
            [
              8.51305667943914,
              -1.20474445603717
            ],
            [
              9.06749534055899,
              -2.235804089155844
            ],
            [
              8.788045069074379,
              -2.968710938867666
            ]
          ]
        ]
      },
      "properties": {
        "name": "room_10"
      }
    },
    {
      "type": "Feature",
      "geometry": {
        "type": "Polygon",
        "coordinates": [
          [
            [
              10.8526,
              -9.5674
            ],
            [
              4.3206,
              -7.0765
            ],
            [
              6.2397,
              -2.0439
            ],
            [
              9.6671,
              -3.3509
            ],
            [
              10.0213,
              -4.0095
            ],
            [
              11.8762,
              -3.012
            ],
            [
              10.6752,
              -3.6578
            ],
            [
              10.7083,
              -3.6705
            ],
            [
              12.7651,
              -4.4548
            ],
            [
              13.2437,
              -3.1996
            ],
            [
              12.7393,
              -4.5224
            ],
            [
              12.7717,
              -4.5348
            ],
            [
              12.7717,
              -4.5348
            ],
            [
              10.8526,
              -9.5674
            ]
          ]
        ]
      },
      "properties": {
        "name": "room_11"
      }
    },
    {
      "type": "Feature",
      "geometry": {
        "type": "Polygon",
        "coordinates": [
          [
            [
              5.1726,
              -3.9632
            ],
            [
              3.9555,
              -7.1548
            ],
            [
              2.1783,
              -7.9254
            ],
            [
              1.4076,
              -6.1481
            ],
            [
              -3.0566,
              -4.4457
            ],
            [
              -1.8387,
              -1.252
            ],
            [
              -0.8411,
              -1.6324
            ],
            [
              -1.0598,
              -2.2057
            ],
            [
              -0.3989,
              -2.4577
            ],
            [
              -0.1928,
              -1.9172
            ],
            [
              1.4404,
              -2.54
            ],
            [
              1.4443,
              -2.5297
            ],
            [
              0.2717,
              -2.0826
            ],
            [
              0.2909,
              -2.0323
            ],
            [
              -1.9061,
              -1.1857
            ],
            [
              -2.9898,
              -3.9979
            ],
            [
              -3.1488,
              -4.4105
            ],
            [
              -3.6766,
              -4.2092
            ],
            [
              -3.5673,
              -3.9193
            ],
            [
              -3.5047,
              -3.9435
            ],
            [
              -3.4564,
              -3.8181
            ],
            [
              -3.3249,
              -3.4769
            ],
            [
              -3.2354,
              -3.5114
            ],
            [
              -2.1277,
              -0.6066
            ],
            [
              -0.1958,
              -1.3433
            ],
            [
              -0.2083,
              -1.3761
            ],
            [
              0.446,
              -1.6256
            ],
            [
              0.4691,
              -1.5652
            ],
            [
              0.812,
              -1.6973
            ],
            [
              0.9356,
              -1.7449
            ],
            [
              0.9171,
              -1.7935
            ],
            [
              1.2603,
              -1.9244
            ],
            [
              1.2564,
              -1.9347
            ],
            [
              2.0857,
              -2.2509
            ],
            [
              2.0484,
              -2.3487
            ],
            [
              1.9076,
              -2.7181
            ],
            [
              1.7644,
              -2.6635
            ],
            [
              5.1726,
              -3.9632
            ]
          ]
        ]
      },
      "properties": {
        "name": "room_12"
      }
    },
    {
      "type": "Feature",
      "geometry": {
        "type": "Polygon",
        "coordinates": [
          [
            [
              6.643882343340268,
              -0.27895156458773007
            ],
            [
              3.5629808655681665,
              0.8959110007749175
            ],
            [
              3.4295294420631937,
              0.9468004628248331
            ],
            [
              3.4443555011544706,
              0.985678255226668
            ],
            [
              0.9873303182101956,
              1.92263320463953
            ],
            [
              1.9958914141509156,
              4.56743499240133
            ],
            [
              6.296687081971253,
              2.927381940629009
            ],
            [
              7.162295867400241,
              1.317655791113876
            ],
            [
              6.29109333713986,
              0.849178191222054
            ],
            [
              6.749207480097891,
              -0.0027518520418791967
            ],
            [
              6.643882343340268,
              -0.27895156458773007
            ]
          ]
        ]
      },
      "properties": {
        "name": "room_13"
      }
    },
    {
      "type": "Feature",
      "geometry": {
        "type": "Polygon",
        "coordinates": [
          [
            [
              1.8799,
              0.1873
            ],
            [
              1.6354,
              0.0902
            ],
            [
              0.9356,
              -1.7449
            ],
            [
              0.812,
              -1.6973
            ],
            [
              1.5961,
              0.3375
            ],
            [
              1.4373,
              0.4076
            ],
            [
              1.4481,
              0.436
            ],
            [
              1.8614,
              1.5197
            ],
            [
              1.5265,
              0.6416
            ],
            [
              1.8846,
              1.5805
            ],
            [
              3.4444,
              0.9857
            ],
            [
              3.4295,
              0.9468
            ],
            [
              3.563,
              0.8959
            ],
            [
              6.6439,
              -0.279
            ],
            [
              6.7492,
              -0.0028
            ],
            [
              6.8955,
              -0.2748
            ],
            [
              6.8814,
              -0.3117
            ],
            [
              6.2382,
              -1.9965
            ],
            [
              8.788,
              -2.9687
            ],
            [
              8.7724,
              -3.0097
            ],
            [
              6.2397,
              -2.0439
            ],
            [
              4.3206,
              -7.0765
            ],
            [
              4.0279,
              -6.9649
            ],
            [
              5.1726,
              -3.9632
            ],
            [
              1.9076,
              -2.7181
            ],
            [
              2.0484,
              -2.3487
            ],
            [
              3.4213,
              -2.8722
            ],
            [
              4.2442,
              -0.7143
            ],
            [
              1.8799,
              0.1873
            ]
          ]
        ]
      },
      "properties": {
        "name": "room_14"
      }
    },
    {
      "type": "Feature",
      "geometry": {
        "type": "Polygon",
        "coordinates": [
          [
            [
              1.6354340536930319,
              0.09022433024660992
            ],
            [
              0.9170847603935119,
              -1.7935438911367798
            ],
            [
              2.089625360769302,
              -2.24067842648591
            ],
            [
              2.0484233726820635,
              -2.34872443813134
            ],
            [
              3.4212835588857637,
              -2.8722466978441097
            ],
            [
              4.244185264201679,
              -0.7143094433348001
            ],
            [
              1.8799434906776997,
              0.18726359282000987
            ],
            [
              1.6354340536930319,
              0.09022433024660992
            ]
          ]
        ]
      },
      "properties": {
        "name": "room_15"
      }
    },
    {
      "type": "Feature",
      "geometry": {
        "type": "Polygon",
        "coordinates": [
          [
            [
              -0.4646,
              1.4121
            ],
            [
              -4.5586,
              2.9733
            ],
            [
              -4.9772,
              3.877
            ],
            [
              -3.8625,
              6.8002
            ],
            [
              1.7909,
              4.6443
            ],
            [
              0.7671,
              1.9596
            ],
            [
              0.64,
              1.9031
            ],
            [
              -0.6516,
              1.329
            ],
            [
              -2.7988,
              2.2761
            ],
            [
              -3.2367,
              2.4692
            ],
            [
              -0.4646,
              1.4121
            ]
          ]
        ]
      },
      "properties": {
        "name": "room_16"
      }
    },
    {
      "type": "Feature",
      "geometry": {
        "type": "Polygon",
        "coordinates": [
          [
            [
              -3.6065,
              2.6323
            ],
            [
              -2.7988,
              2.2761
            ],
            [
              1.5961,
              0.3375
            ],
            [
              0.812,
              -1.6973
            ],
            [
              -2.2258,
              -0.5267
            ],
            [
              -2.3432,
              -0.9294
            ],
            [
              -3.4564,
              -3.8181
            ],
            [
              -3.5047,
              -3.9435
            ],
            [
              -5.6502,
              -3.1167
            ],
            [
              -9.2763,
              -1.7193
            ],
            [
              -8.1317,
              1.6236
            ],
            [
              -7.6695,
              2.9735
            ],
            [
              -7.6267,
              3.0984
            ],
            [
              -7.2251,
              2.9453
            ],
            [
              -5.0497,
              3.9234
            ],
            [
              -4.8026,
              4.5715
            ],
            [
              -4.7238,
              4.5414
            ],
            [
              -4.9772,
              3.877
            ],
            [
              -4.5586,
              2.9733
            ],
            [
              -3.6148,
              2.6134
            ],
            [
              -3.6065,
              2.6323
            ]
          ]
        ]
      },
      "properties": {
        "name": "room_17"
      }
    },
    {
      "type": "Feature",
      "geometry": {
        "type": "Polygon",
        "coordinates": [
          [
            [
              -6.319601557751294,
              6.57806236629562
            ],
            [
              -7.643997100409126,
              3.1050327682988197
            ],
            [
              -7.225084876262516,
              2.94528577328435
            ],
            [
              -5.049703591277499,
              3.9234057809216596
            ],
            [
              -4.802575328487658,
              4.5714627575015
            ],
            [
              -5.865228848294984,
              4.976692589326718
            ],
            [
              -5.389778673805453,
              6.22348702803934
            ],
            [
              -6.319601557751294,
              6.57806236629562
            ]
          ]
        ]
      },
      "properties": {
        "name": "room_18"
      }
    },
    {
      "type": "Feature",
      "geometry": {
        "type": "Polygon",
        "coordinates": [
          [
            [
              -7.4475,
              -5.4212
            ],
            [
              -8.7055,
              -8.7201
            ],
            [
              -11.4989,
              -7.6549
            ],
            [
              -9.2866,
              -1.8534
            ],
            [
              -6.5081,
              -2.9129
            ],
            [
              -9.2866,
              -1.8534
            ],
            [
              -9.2407,
              -1.7331
            ],
            [
              -6.4265,
              -2.8175
            ],
            [
              -7.0121,
              -4.3702
            ],
            [
              -7.4135,
              -5.4342
            ],
            [
              -7.4315,
              -5.4821
            ],
            [
              -8.6376,
              -8.6794
            ],
            [
              -8.6834,
              -8.6621
            ],
            [
              -7.4475,
              -5.4212
            ]
          ]
        ]
      },
      "properties": {
        "name": "room_19"
      }
    },
    {
      "type": "Feature",
      "geometry": {
        "type": "Polygon",
        "coordinates": [
          [
            [
              -5.770644881786712,
              -9.760840519118744
            ],
            [
              -8.637571210552721,
              -8.67944988478768
            ],
            [
              -7.431535540109024,
              -5.482070883286686
            ],
            [
              -6.426484320233745,
              -2.8175351088582588
            ],
            [
              -5.65020565829461,
              -3.116675678466668
            ],
            [
              -3.5672599514630274,
              -3.919341986210812
            ],
            [
              -5.770644881786712,
              -9.760840519118744
            ]
          ]
        ]
      },
      "properties": {
        "name": "room_20"
      }
    }
  ]
}