{
  "type": "FeatureCollection",
  "features": [
    {
      "type": "Feature",
      "geometry": {
        "type": "Polygon",
        "coordinates": [
          [
            [
              -3.6798999999999977,
              3.166200000000002
            ],
            [
              -1.5958000000000006,
              5.243
            ],
            [
              -1.5275671786154743,
              5.174524890411707
            ],
            [
              0.6333000031018123,
              7.327699996887347
            ],
            [
              0.6580068433028606,
              7.302906821180113
            ],
            [
              0.7507999999999504,
              7.39539999999995
            ],
            [
              0.7508161417474115,
              7.395383800799254
            ],
            [
              2.07305329045278,
              8.71296494673642
            ],
            [
              4.605551203240163,
              6.171519542440558
            ],
            [
              4.681799999999999,
              6.2475
            ],
            [
              7.2008,
              3.7196
            ],
            [
              3.6205000000000003,
              0.15190000000000056
            ],
            [
              3.5946055108007786,
              0.17779448919922275
            ],
            [
              2.5221459265572155,
              -0.8908894329111696
            ],
            [
              2.469221774155734,
              -0.8377783030758423
            ],
            [
              1.7778606057379052,
              -1.5266872564247973
            ],
            [
              0.3547266382031601,
              -2.944811130968655
            ],
            [
              -2.1436544411586,
              -0.43760220465429006
            ],
            [
              -2.1256852205714534,
              -0.4196962490152839
            ],
            [
              -3.536041684043004,
              0.9956433090376319
            ],
            [
              -3.554186548642569,
              0.9775623355838622
            ],
            [
              -4.694784158425182,
              2.122189597886725
            ],
            [
              -3.664521610302464,
              3.1488244168352564
            ],
            [
              -3.6798999999999977,
              3.166200000000002
            ]
          ]
        ]
      },
      "properties": {
        "name": "footprint",
        "uuid": "23cbb422-ada0-454d-8f91-30888256960d",
        "status": "ok",
        "n_exposed_rooms": 8,
        "n_vertices": 23,
        "area_m2": 68.19773332503036,
        "is_valid": true,
        "is_simple": true,
        "hull_area_m2": 68.82432008403586,
        "convexity": 0.9908958525381663,
        "obb_aspect_ratio": 1.3108486965862545,
        "unbuffered_union_area_m2": 44.7862869981066,
        "buffer_bridged_ratio": 0.43076305446631086,
        "fell_back_to_hull": false,
        "error": null
      }
    },
    {
      "type": "Feature",
      "geometry": {
        "type": "Polygon",
        "coordinates": [
          [
            [
              2.4692,
              -0.8378
            ],
            [
              0.3547,
              -2.9448
            ],
            [
              2.4085,
              -0.8983
            ],
            [
              -0.0899,
              1.609
            ],
            [
              -2.1257,
              -0.4197
            ],
            [
              -2.1858,
              -0.3593
            ],
            [
              -1.2279,
              0.5952
            ],
            [
              -2.5181,
              1.8898
            ],
            [
              -3.4759,
              0.9353
            ],
            [
              -3.534,
              0.9936
            ],
            [
              -3.536,
              0.9956
            ],
            [
              -2.5821,
              1.9462
            ],
            [
              -3.7227,
              3.0908
            ],
            [
              -3.6645,
              3.1488
            ],
            [
              -3.6635,
              3.1498
            ],
            [
              -3.6799,
              3.1662
            ],
            [
              -1.5958,
              5.243
            ],
            [
              0.5445,
              3.0951
            ],
            [
              0.9191,
              2.7193
            ],
            [
              -0.0816,
              1.7221
            ],
            [
              2.5221,
              -0.8909
            ],
            [
              2.5221,
              -0.8909
            ],
            [
              2.4692,
              -0.8378
            ]
          ]
        ]
      },
      "properties": {
        "name": "room_0"
      }
    },
    {
      "type": "Feature",
      "geometry": {
        "type": "Polygon",
        "coordinates": [
          [
            [
              1.3439,
              2.4365
            ],
            [
              1.1015,
              2.6798
            ],
            [
              4.6818,
              6.2475
            ],
            [
              7.2008,
              3.7196
            ],
            [
              3.6205,
              0.1519
            ],
            [
              3.5924,
              0.18
            ],
            [
              3.5946,
              0.1778
            ],
            [
              3.5377,
              0.1211
            ],
            [
              1.287,
              2.3798
            ],
            [
              1.3439,
              2.4365
            ]
          ]
        ]
      },
      "properties": {
        "name": "room_1"
      }
    },
    {
      "type": "Feature",
      "geometry": {
        "type": "Polygon",
        "coordinates": [
          [
            [
              -0.08986683725011993,
              1.60895454771989
            ],
            [
              -2.1436544411586,
              -0.43760220465429
            ],
            [
              0.35472663820315997,
              -2.944811130968655
            ],
            [
              2.40851438477966,
              -0.898253671738173
            ],
            [
              -0.08986683725011993,
              1.60895454771989
            ]
          ]
        ]
      },
      "properties": {
        "name": "room_2"
      }
    },
    {
      "type": "Feature",
      "geometry": {
        "type": "Polygon",
        "coordinates": [
          [
            [
              0.8815871955050102,
              1.9757740808065622
            ],
            [
              1.2870112188386102,
              2.3797707830967703
            ],
            [
              3.5377201852249653,
              0.12110943202779989
            ],
            [
              2.522145926557215,
              -0.8908894329111701
            ],
            [
              -0.0816456796448097,
              1.7221011920886076
            ],
            [
              0.5285050278558868,
              2.3301034522888893
            ],
            [
              0.8815871955050102,
              1.9757740808065622
            ]
          ]
        ]
      },
      "properties": {
        "name": "room_3"
      }
    },
    {
      "type": "Feature",
      "geometry": {
        "type": "Polygon",
        "coordinates": [
          [
            [
              -1.5275,
              5.1745
            ],
            [
              -1.4455,
              5.2563
            ],
            [
              0.6333,
              7.3277
            ],
            [
              3.123,
              4.8293
            ],
            [
              0.658,
              7.3029
            ],
            [
              0.7508,
              7.3954
            ],
            [
              3.2232,
              4.9142
            ],
            [
              4.5455,
              6.2318
            ],
            [
              4.6056,
              6.1715
            ],
            [
              1.1015,
              2.6798
            ],
            [
              0.9908,
              2.7908
            ],
            [
              0.9191,
              2.7193
            ],
            [
              0.5445,
              3.0951
            ],
            [
              -1.5275,
              5.1745
            ]
          ]
        ]
      },
      "properties": {
        "name": "room_4"
      }
    },
    {
      "type": "Feature",
      "geometry": {
        "type": "Polygon",
        "coordinates": [
          [
            [
              2.07305329045278,
              8.71296494673642
            ],
            [
              0.7507894141017448,
              7.395357167269831
            ],
            [
              3.223243634173285,
              4.91416617752426
            ],
            [
              4.5455080071193255,
              6.2317748753551605
            ],
            [
              2.07305329045278,
              8.71296494673642
            ]
          ]
        ]
      },
      "properties": {
        "name": "room_5"
      }
    },
    {
      "type": "Feature",
      "geometry": {
        "type": "Polygon",
        "coordinates": [
          [
            [
              -3.722726411116072,
              3.090824564997396
            ],
            [
              -4.694784158425182,
              2.122189597886725
            ],
            [
              -3.55418654864257,
              0.9775623355838632
            ],
            [
              -2.5821290492569053,
              1.9461970556440698
            ],
            [
              -3.722726411116072,
              3.090824564997396
            ]
          ]
        ]
      },
      "properties": {
        "name": "room_6"
      }
    },
    {
      "type": "Feature",
      "geometry": {
        "type": "Polygon",
        "coordinates": [
          [
            [
              -2.518060502075532,
              1.889846700569705
            ],
            [
              -3.4759452103779473,
              0.9353345015264615
            ],
            [
              -2.185829844443671,
              -0.3593391211718515
            ],
            [
              -1.2279451213756423,
              0.59517343139919
            ],
            [
              -2.518060502075532,
              1.889846700569705
            ]
          ]
        ]
      },
      "properties": {
        "name": "room_7"
      }
    }
  ]
}