{
  "type": "FeatureCollection",
  "features": [
    {
      "type": "Feature",
      "geometry": {
        "type": "Polygon",
        "coordinates": [
          [
            [
              1.2384000000000002,
              -1.2614
            ],
            [
              1.2309000000000003,
              -1.3393
            ],
            [
              1.3240000000025636,
              -1.348200000000245
            ],
            [
              3.560869704372968,
              -1.5623120272582867
            ],
            [
              3.567037264763809,
              -1.4978681259573654
            ],
            [
              5.10174345997304,
              -1.6447458392658403
            ],
            [
              5.084752342360106,
              -1.8222834789339586
            ],
            [
              7.159357857979258,
              -2.020772030062445
            ],
            [
              7.165829668302849,
              -1.9531490683238397
            ],
            [
              9.401831392773323,
              -2.1671441627394357
            ],
            [
              9.218735213616025,
              -4.080288290666879
            ],
            [
              9.284462810696473,
              -4.086578711387266
            ],
            [
              9.11608442062392,
              -5.845945140844742
            ],
            [
              9.067995000864219,
              -5.841342780728853
            ],
            [
              8.81280026265343,
              -8.507497255920875
            ],
            [
              8.678,
              -9.9161
            ],
            [
              4.846916957827059,
              -9.549414254808875
            ],
            [
              4.845189395535114,
              -9.56746530960405
            ],
            [
              1.8086267176404642,
              -9.27685316218488
            ],
            [
              1.804900000000001,
              -9.3158
            ],
            [
              -5.93,
              -8.5755
            ],
            [
              -5.169989398337189,
              -0.6343057932227094
            ],
            [
              -7.419080675107443,
              -0.4190577294618701
            ],
            [
              -7.282046542047093,
              1.01277472658128
            ],
            [
              -1.071389433644558,
              0.41838734924387
            ],
            [
              -1.2097286305876007,
              -1.0270972598559391
            ],
            [
              1.2384000000000002,
              -1.2614
            ]
          ]
        ]
      },
      "properties": {
        "name": "footprint",
        "uuid": "24e8aaa7-ec15-4a72-be5f-c67b95a53411",
        "status": "ok",
        "n_exposed_rooms": 8,
        "n_vertices": 26,
        "area_m2": 124.6789621302718,
        "is_valid": true,
        "is_simple": true,
        "hull_area_m2": 141.96501493276497,
        "convexity": 0.8782372346406621,
        "obb_aspect_ratio": 1.8030185196771034,
        "unbuffered_union_area_m2": 51.53114304131235,
        "buffer_bridged_ratio": 0.6344124017958634,
        "fell_back_to_hull": false,
        "error": null
      }
    },
    {
      "type": "Feature",
      "geometry": {
        "type": "Polygon",
        "coordinates": [
          [
            [
              2.23176436708917,
              -5.434907907041608
            ],
            [
              1.8635701102521478,
              -9.282111481872997
            ],
            [
              4.845189395535122,
              -9.56746530960405
            ],
            [
              5.213383083681882,
              -5.7202613789756445
            ],
            [
              2.23176436708917,
              -5.434907907041608
            ]
          ]
        ]
      },
      "properties": {
        "name": "room_0"
      }
    },
    {
      "type": "Feature",
      "geometry": {
        "type": "Polygon",
        "coordinates": [
          [
            [
              8.8128,
              -8.5075
            ],
            [
              8.678,
              -9.9161
            ],
            [
              4.9105,
              -9.5555
            ],
            [
              4.8469,
              -9.5494
            ],
            [
              5.2134,
              -5.7203
            ],
            [
              2.2318,
              -5.4349
            ],
            [
              1.8636,
              -9.2821
            ],
            [
              1.8086,
              -9.2769
            ],
            [
              2.1792,
              -5.4041
            ],
            [
              0.854,
              -5.2773
            ],
            [
              0.9723,
              -4.041
            ],
            [
              1.4706,
              -4.0887
            ],
            [
              1.0299,
              -4.0465
            ],
            [
              0.916,
              -5.2365
            ],
            [
              6.78,
              -5.7978
            ],
            [
              6.7967,
              -5.624
            ],
            [
              9.0679,
              -5.8413
            ],
            [
              9.0434,
              -6.0983
            ],
            [
              8.8128,
              -8.5075
            ]
          ]
        ]
      },
      "properties": {
        "name": "room_1"
      }
    },
    {
      "type": "Feature",
      "geometry": {
        "type": "Polygon",
        "coordinates": [
          [
            [
              7.165829668302847,
              -1.9531490683238397
            ],
            [
              9.401831392773323,
              -2.1671441627394357
            ],
            [
              9.218735213616023,
              -4.080288290666885
            ],
            [
              7.044728256985268,
              -3.872226243464485
            ],
            [
              6.970095742024013,
              -4.652048154857582
            ],
            [
              6.908101164875617,
              -4.6461150013143415
            ],
            [
              7.165829668302847,
              -1.9531490683238397
            ]
          ]
        ]
      },
      "properties": {
        "name": "room_2"
      }
    },
    {
      "type": "Feature",
      "geometry": {
        "type": "Polygon",
        "coordinates": [
          [
            [
              7.1594,
              -2.0208
            ],
            [
              6.9081,
              -4.6461
            ],
            [
              4.8335,
              -4.4476
            ],
            [
              5.0848,
              -1.8223
            ],
            [
              5.1884,
              -1.8322
            ],
            [
              5.1884,
              -1.8322
            ],
            [
              7.029,
              -2.0083
            ],
            [
              7.1594,
              -2.0208
            ]
          ]
        ]
      },
      "properties": {
        "name": "room_3"
      }
    },
    {
      "type": "Feature",
      "geometry": {
        "type": "Polygon",
        "coordinates": [
          [
            [
              1.5288012639646857,
              -3.480872790195714
            ],
            [
              1.4706269357112518,
              -4.088726027838222
            ],
            [
              1.0298582880890916,
              -4.046542505901432
            ],
            [
              0.9159697367592261,
              -5.2365490268196355
            ],
            [
              6.780031279129952,
              -5.7977657235323
            ],
            [
              6.796664620277669,
              -5.62396689210608
            ],
            [
              9.11608442062392,
              -5.84594514084474
            ],
            [
              9.284462810696473,
              -4.08657871138727
            ],
            [
              7.044728256985268,
              -3.872226243464485
            ],
            [
              6.970095742024013,
              -4.652048154857582
            ],
            [
              4.833501419860822,
              -4.447566686379053
            ],
            [
              5.10174345997304,
              -1.6447458392658403
            ],
            [
              3.56703726476381,
              -1.4978681259573654
            ],
            [
              3.360478211166302,
              -3.65617228826722
            ],
            [
              1.5288012639646857,
              -3.480872790195714
            ]
          ]
        ]
      },
      "properties": {
        "name": "room_4"
      }
    },
    {
      "type": "Feature",
      "geometry": {
        "type": "Polygon",
        "coordinates": [
          [
            [
              2.1792,
              -5.4041
            ],
            [
              1.8049,
              -9.3158
            ],
            [
              -5.93,
              -8.5755
            ],
            [
              -5.1713,
              -0.648
            ],
            [
              -5.17,
              -0.6343
            ],
            [
              -1.2084,
              -1.0134
            ],
            [
              -1.2097,
              -1.0271
            ],
            [
              1.2384,
              -1.2614
            ],
            [
              1.2309,
              -1.3393
            ],
            [
              1.324,
              -1.3482
            ],
            [
              1.1322,
              -3.3523
            ],
            [
              1.0391,
              -3.3434
            ],
            [
              1.0883,
              -2.8296
            ],
            [
              0.854,
              -5.2773
            ],
            [
              2.1792,
              -5.4041
            ]
          ]
        ]
      },
      "properties": {
        "name": "room_5"
      }
    },
    {
      "type": "Feature",
      "geometry": {
        "type": "Polygon",
        "coordinates": [
          [
            [
              3.3282,
              -3.5624
            ],
            [
              1.1322,
              -3.3523
            ],
            [
              1.324,
              -1.3482
            ],
            [
              3.52,
              -1.5584
            ],
            [
              3.5609,
              -1.5623
            ],
            [
              3.3605,
              -3.6562
            ],
            [
              1.5288,
              -3.4809
            ],
            [
              1.5374,
              -3.3911
            ],
            [
              3.3282,
              -3.5624
            ]
          ]
        ]
      },
      "properties": {
        "name": "room_6"
      }
    },
    {
      "type": "Feature",
      "geometry": {
        "type": "Polygon",
        "coordinates": [
          [
            [
              -7.282046542047093,
              1.01277472658128
            ],
            [
              -7.419080675107443,
              -0.41905772946187003
            ],
            [
              -1.2084220925813902,
              -1.013445448793605
            ],
            [
              -1.071389433644558,
              0.4183873492438701
            ],
            [
              -7.282046542047093,
              1.01277472658128
            ]
          ]
        ]
      },
      "properties": {
        "name": "room_7"
      }
    }
  ]
}