{
  "type": "FeatureCollection",
  "features": [
    {
      "type": "Feature",
      "geometry": {
        "type": "Polygon",
        "coordinates": [
          [
            [
              -0.9175634184770072,
              -1.9048339738557372
            ],
            [
              -2.15401082943976,
              0.7114220398641519
            ],
            [
              -0.8007618008091949,
              1.3509684117125307
            ],
            [
              -0.18812253929229195,
              1.6405033928893815
            ],
            [
              0.15688904488130168,
              1.8039478027678317
            ],
            [
              0.13781037146619768,
              1.8443172682067897
            ],
            [
              4.4895691050279645,
              3.9009656339888994
            ],
            [
              5.606145920207947,
              1.5383467976273684
            ],
            [
              5.772981693473192,
              1.1864583888022557
            ],
            [
              5.7864,
              1.192799999999999
            ],
            [
              8.780099999999997,
              -5.141799999999996
            ],
            [
              8.73955369348384,
              -5.1609218383816895
            ],
            [
              9.889952331468562,
              -7.595105805561941
            ],
            [
              9.85813083002759,
              -7.610144691449443
            ],
            [
              11.396247802775095,
              -10.86471890851684
            ],
            [
              8.601557032005363,
              -12.18549387358265
            ],
            [
              8.568959499970228,
              -12.11651916795302
            ],
            [
              8.503499999999505,
              -12.147500000000234
            ],
            [
              8.50348779963179,
              -12.147474181625421
            ],
            [
              6.932189195215193,
              -12.89007156614414
            ],
            [
              6.943025997932772,
              -12.91300167836591
            ],
            [
              4.734626398616353,
              -13.956695176738432
            ],
            [
              3.100034134145935,
              -10.497982063052746
            ],
            [
              3.10202050529854,
              -10.49704330108256
            ],
            [
              3.083200000000132,
              -10.457300000000282
            ],
            [
              3.083217191370819,
              -10.457291875622792
            ],
            [
              2.09422456568409,
              -8.364635292778654
            ],
            [
              2.0973308614118578,
              -8.363167253177918
            ],
            [
              0.030542318863745494,
              -3.989947880001219
            ],
            [
              0.06878733885091409,
              -3.971873218105554
            ],
            [
              0.031500000000203664,
              -3.893000000000431
            ],
            [
              0.03150790227422786,
              -3.892996265226314
            ],
            [
              -0.9098282882512068,
              -1.9011783472198007
            ],
            [
              -0.9175634184770072,
              -1.9048339738557372
            ]
          ]
        ]
      },
      "properties": {
        "name": "footprint",
        "uuid": "2df1d2ed-54c9-41e9-9ed8-c4110e3868e0",
        "status": "ok",
        "n_exposed_rooms": 10,
        "n_vertices": 33,
        "area_m2": 119.93026393976474,
        "is_valid": true,
        "is_simple": true,
        "hull_area_m2": 120.44098290581431,
        "convexity": 0.9957595915133891,
        "obb_aspect_ratio": 2.196591035374768,
        "unbuffered_union_area_m2": 86.57126484736757,
        "buffer_bridged_ratio": 0.35656549316842606,
        "fell_back_to_hull": false,
        "error": null
      }
    },
    {
      "type": "Feature",
      "geometry": {
        "type": "Polygon",
        "coordinates": [
          [
            [
              3.1000341341459405,
              -10.497982063052756
            ],
            [
              4.734626398616353,
              -13.956695176738432
            ],
            [
              6.943025997932772,
              -12.91300167836591
            ],
            [
              5.308433675870731,
              -9.454289144924351
            ],
            [
              3.1000341341459405,
              -10.497982063052756
            ]
          ]
        ]
      },
      "properties": {
        "name": "room_0"
      }
    },
    {
      "type": "Feature",
      "geometry": {
        "type": "Polygon",
        "coordinates": [
          [
            [
              6.027269468711038,
              -10.840315154525955
            ],
            [
              6.9843393343967,
              -12.865425355137765
            ],
            [
              8.503529421748679,
              -12.147454510968899
            ],
            [
              7.546459555320777,
              -10.12234353647119
            ],
            [
              6.027269468711038,
              -10.840315154525955
            ]
          ]
        ]
      },
      "properties": {
        "name": "room_1"
      }
    },
    {
      "type": "Feature",
      "geometry": {
        "type": "Polygon",
        "coordinates": [
          [
            [
              7.09943340242169,
              -9.00707732787075
            ],
            [
              8.601557032005365,
              -12.18549387358265
            ],
            [
              11.396247802775095,
              -10.86471890851684
            ],
            [
              9.894123311803934,
              -7.68630288050337
            ],
            [
              7.09943340242169,
              -9.00707732787075
            ]
          ]
        ]
      },
      "properties": {
        "name": "room_2"
      }
    },
    {
      "type": "Feature",
      "geometry": {
        "type": "Polygon",
        "coordinates": [
          [
            [
              2.09422456568409,
              -8.364635292778654
            ],
            [
              3.0832443798280007,
              -10.45734940497379
            ],
            [
              5.351964301808688,
              -9.385149094678496
            ],
            [
              6.0021973417118755,
              -10.761008883988122
            ],
            [
              7.533187912181106,
              -10.037460762952637
            ],
            [
              5.893934523219077,
              -6.568887180612473
            ],
            [
              2.09422456568409,
              -8.364635292778654
            ]
          ]
        ]
      },
      "properties": {
        "name": "room_3"
      }
    },
    {
      "type": "Feature",
      "geometry": {
        "type": "Polygon",
        "coordinates": [
          [
            [
              5.962174130794866,
              -6.564462666698848
            ],
            [
              7.077438275327148,
              -8.924303864483308
            ],
            [
              9.889952331468562,
              -7.595105805561939
            ],
            [
              8.774688229664934,
              -5.235264698189099
            ],
            [
              5.962174130794866,
              -6.564462666698848
            ]
          ]
        ]
      },
      "properties": {
        "name": "room_4"
      }
    },
    {
      "type": "Feature",
      "geometry": {
        "type": "Polygon",
        "coordinates": [
          [
            [
              5.7343,
              1.2673
            ],
            [
              5.7726,
              1.1862
            ],
            [
              1.9001,
              -0.6439
            ],
            [
              5.7864,
              1.1928
            ],
            [
              8.7801,
              -5.1418
            ],
            [
              8.7396,
              -5.1609
            ],
            [
              8.7747,
              -5.2353
            ],
            [
              5.9622,
              -6.5645
            ],
            [
              7.0774,
              -8.9243
            ],
            [
              9.8581,
              -7.6101
            ],
            [
              9.8941,
              -7.6863
            ],
            [
              7.0994,
              -9.0071
            ],
            [
              8.569,
              -12.1165
            ],
            [
              8.5035,
              -12.1475
            ],
            [
              7.5465,
              -10.1223
            ],
            [
              6.0273,
              -10.8403
            ],
            [
              6.9843,
              -12.8654
            ],
            [
              6.9322,
              -12.8901
            ],
            [
              5.3084,
              -9.4543
            ],
            [
              3.102,
              -10.497
            ],
            [
              3.0832,
              -10.4573
            ],
            [
              5.352,
              -9.3851
            ],
            [
              6.0022,
              -10.761
            ],
            [
              7.5332,
              -10.0375
            ],
            [
              5.8939,
              -6.5689
            ],
            [
              2.0973,
              -8.3632
            ],
            [
              2.061,
              -8.2863
            ],
            [
              4.8443,
              -6.971
            ],
            [
              2.8138,
              -2.6746
            ],
            [
              0.0688,
              -3.9719
            ],
            [
              0.0315,
              -3.893
            ],
            [
              2.7817,
              -2.5932
            ],
            [
              1.888,
              -0.7022
            ],
            [
              -0.8622,
              -2.0019
            ],
            [
              -0.9098,
              -1.9012
            ],
            [
              1.3195,
              -0.8476
            ],
            [
              0.0831,
              1.7687
            ],
            [
              0.157,
              1.8036
            ],
            [
              1.3825,
              -0.7894
            ],
            [
              5.7343,
              1.2673
            ]
          ]
        ]
      },
      "properties": {
        "name": "room_5"
      }
    },
    {
      "type": "Feature",
      "geometry": {
        "type": "Polygon",
        "coordinates": [
          [
            [
              0.030542318863743922,
              -3.989947880001216
            ],
            [
              2.0610241830389,
              -8.286344169457626
            ],
            [
              4.844315334960502,
              -6.970956671570567
            ],
            [
              2.8138318944038057,
              -2.674560463482786
            ],
            [
              0.030542318863743922,
              -3.989947880001216
            ]
          ]
        ]
      },
      "properties": {
        "name": "room_6"
      }
    },
    {
      "type": "Feature",
      "geometry": {
        "type": "Polygon",
        "coordinates": [
          [
            [
              -0.8622088906357652,
              -2.00193849048187
            ],
            [
              0.031496400019703885,
              -3.8929719270601097
            ],
            [
              2.781712971098944,
              -2.5932150551778097
            ],
            [
              1.888008019178707,
              -0.7021804630657
            ],
            [
              -0.8622088906357652,
              -2.00193849048187
            ]
          ]
        ]
      },
      "properties": {
        "name": "room_7"
      }
    },
    {
      "type": "Feature",
      "geometry": {
        "type": "Polygon",
        "coordinates": [
          [
            [
              0.1378103714661978,
              1.8443172682067899
            ],
            [
              1.3825012215836199,
              -0.7893828409539999
            ],
            [
              5.73425979723352,
              1.26726445475145
            ],
            [
              4.4895691050279645,
              3.9009656339889
            ],
            [
              0.1378103714661978,
              1.8443172682067899
            ]
          ]
        ]
      },
      "properties": {
        "name": "room_8"
      }
    },
    {
      "type": "Feature",
      "geometry": {
        "type": "Polygon",
        "coordinates": [
          [
            [
              -2.15401082943976,
              0.7114220398641519
            ],
            [
              -0.9175634184770041,
              -1.904833973855744
            ],
            [
              1.3195471343976288,
              -0.847574343326894
            ],
            [
              0.08309981570654001,
              1.768683815500592
            ],
            [
              -0.800761571532776,
              1.3509685200687152
            ],
            [
              -2.15401082943976,
              0.7114220398641519
            ]
          ]
        ]
      },
      "properties": {
        "name": "room_9"
      }
    }
  ]
}