{
  "type": "FeatureCollection",
  "features": [
    {
      "type": "Feature",
      "geometry": {
        "type": "Polygon",
        "coordinates": [
          [
            [
              -0.3849153781849873,
              -3.628678214086028
            ],
            [
              -0.3797117792323576,
              -3.609822033708573
            ],
            [
              -5.868,
              -2.0953
            ],
            [
              -4.5719,
              2.6014
            ],
            [
              0.5184946734546763,
              1.1965645962602214
            ],
            [
              0.5209535644284344,
              1.205474832846166
            ],
            [
              3.790940359699388,
              0.30308204514882825
            ],
            [
              2.4871955091423716,
              -4.421273442811378
            ],
            [
              -0.3849153781849873,
              -3.628678214086028
            ]
          ]
        ]
      },
      "properties": {
        "name": "footprint",
        "uuid": "513a4b03-cfb1-4221-99ff-d9b7d1e1d3f6",
        "status": "ok",
        "n_exposed_rooms": 2,
        "n_vertices": 8,
        "area_m2": 42.34553740634175,
        "is_valid": true,
        "is_simple": true,
        "hull_area_m2": 42.42562744427814,
        "convexity": 0.9981122250215019,
        "obb_aspect_ratio": 1.7696384475148388,
        "unbuffered_union_area_m2": 15.169722455429696,
        "buffer_bridged_ratio": 0.7016763286772386,
        "fell_back_to_hull": false,
        "error": null
      }
    },
    {
      "type": "Feature",
      "geometry": {
        "type": "Polygon",
        "coordinates": [
          [
            [
              -0.3797,
              -3.6099
            ],
            [
              -0.503,
              -3.5758
            ],
            [
              -5.868,
              -2.0953
            ],
            [
              -4.5719,
              2.6014
            ],
            [
              0.468,
              1.2105
            ],
            [
              0.5185,
              1.1966
            ],
            [
              0.2186,
              0.1098
            ],
            [
              0.1681,
              0.1238
            ],
            [
              0.4932,
              0.0341
            ],
            [
              0.0401,
              -1.6077
            ],
            [
              0.2886,
              -0.7074
            ],
            [
              0.4119,
              -0.7414
            ],
            [
              -0.3797,
              -3.6099
            ]
          ]
        ]
      },
      "properties": {
        "name": "room_0"
      }
    },
    {
      "type": "Feature",
      "geometry": {
        "type": "Polygon",
        "coordinates": [
          [
            [
              0.520953564428436,
              1.2054748328461657
            ],
            [
              3.790940359699388,
              0.3030820451488283
            ],
            [
              2.4871955091423716,
              -4.421273442811378
            ],
            [
              -0.3849153781849881,
              -3.628678214086028
            ],
            [
              0.41186079672508,
              -0.74141587674346
            ],
            [
              0.28856536847617725,
              -0.7073909478094177
            ],
            [
              0.4931751125075916,
              0.034050267442405024
            ],
            [
              0.218594976112166,
              0.10982375093886187
            ],
            [
              0.520953564428436,
              1.2054748328461657
            ]
          ]
        ]
      },
      "properties": {
        "name": "room_1"
      }
    }
  ]
}