{
  "type": "FeatureCollection",
  "features": [
    {
      "type": "Feature",
      "geometry": {
        "type": "Polygon",
        "coordinates": [
          [
            [
              -3.04050548829073,
              -1.1084618072501804
            ],
            [
              -2.998319904118983,
              -1.0865501182558055
            ],
            [
              -3.0361000000000042,
              -1.0141999999999929
            ],
            [
              -3.0360772586049225,
              -1.0141881879793173
            ],
            [
              -3.9492034470863606,
              0.7438130422489012
            ],
            [
              -1.4598943217211733,
              2.036789353227194
            ],
            [
              -1.4631000000000027,
              2.0427999999999993
            ],
            [
              2.4098000000000006,
              4.0544
            ],
            [
              3.8335737862788517,
              1.3132815587194
            ],
            [
              3.859600000000441,
              1.3267999999991513
            ],
            [
              5.836799411382729,
              -2.479720160284015
            ],
            [
              6.01146303963343,
              -2.8126392193906242
            ],
            [
              6.017500000000003,
              -2.809500000000006
            ],
            [
              7.0782,
              -4.8517
            ],
            [
              3.4211202384797037,
              -6.751289487567733
            ],
            [
              3.462959531078931,
              -6.831840783808428
            ],
            [
              0.7125214710584618,
              -8.260450811187933
            ],
            [
              -0.008429428055243438,
              -6.8724363139483735
            ],
            [
              -0.18372375064392196,
              -6.535261197601897
            ],
            [
              -0.2069000000000004,
              -6.547299999999998
            ],
            [
              -1.9558171410065615,
              -3.1801858541092196
            ],
            [
              -1.9625985384196336,
              -3.1837081902242432
            ],
            [
              -3.04050548829073,
              -1.1084618072501804
            ]
          ]
        ]
      },
      "properties": {
        "name": "footprint",
        "uuid": "573ee2ba-67b9-4bb0-b4ba-47015d09377c",
        "status": "ok",
        "n_exposed_rooms": 6,
        "n_vertices": 22,
        "area_m2": 72.8620662255701,
        "is_valid": true,
        "is_simple": true,
        "hull_area_m2": 73.21199189365272,
        "convexity": 0.9952203777136549,
        "obb_aspect_ratio": 1.3998906102857582,
        "unbuffered_union_area_m2": 25.975350368459615,
        "buffer_bridged_ratio": 0.689520777044962,
        "fell_back_to_hull": false,
        "error": null
      }
    },
    {
      "type": "Feature",
      "geometry": {
        "type": "Polygon",
        "coordinates": [
          [
            [
              -0.14669688264363412,
              -6.606236172300682
            ],
            [
              0.7125214710584611,
              -8.260450811187933
            ],
            [
              3.462959531078932,
              -6.831840783808428
            ],
            [
              2.603740944577747,
              -5.17762613061788
            ],
            [
              -0.14669688264363412,
              -6.606236172300682
            ]
          ]
        ]
      },
      "properties": {
        "name": "room_0"
      }
    },
    {
      "type": "Feature",
      "geometry": {
        "type": "Polygon",
        "coordinates": [
          [
            [
              -0.1467,
              -6.6062
            ],
            [
              -0.1738,
              -6.554
            ],
            [
              -0.1836,
              -6.5352
            ],
            [
              2.7372,
              -5.018
            ],
            [
              2.4955,
              -4.5526
            ],
            [
              5.9748,
              -2.7454
            ],
            [
              6.01,
              -2.8134
            ],
            [
              6.0175,
              -2.8095
            ],
            [
              7.0782,
              -4.8517
            ],
            [
              3.4211,
              -6.7513
            ],
            [
              2.6037,
              -5.1776
            ],
            [
              -0.1467,
              -6.6062
            ]
          ]
        ]
      },
      "properties": {
        "name": "room_1"
      }
    },
    {
      "type": "Feature",
      "geometry": {
        "type": "Polygon",
        "coordinates": [
          [
            [
              -1.9558,
              -3.1802
            ],
            [
              -0.6716,
              -2.5131
            ],
            [
              -0.6379,
              -2.578
            ],
            [
              -1.2796,
              -1.3426
            ],
            [
              -0.0675,
              -0.713
            ],
            [
              3.8596,
              1.3268
            ],
            [
              5.9748,
              -2.7454
            ],
            [
              2.4955,
              -4.5526
            ],
            [
              2.7372,
              -5.018
            ],
            [
              -0.2069,
              -6.5473
            ],
            [
              -1.9221,
              -3.2451
            ],
            [
              -1.9558,
              -3.1802
            ]
          ]
        ]
      },
      "properties": {
        "name": "room_2"
      }
    },
    {
      "type": "Feature",
      "geometry": {
        "type": "Polygon",
        "coordinates": [
          [
            [
              -1.962598538419631,
              -3.183708190224248
            ],
            [
              -3.04050548829073,
              -1.1084618072501804
            ],
            [
              -0.5377037943997475,
              0.19152285357294296
            ],
            [
              -0.06780524467388352,
              -0.7131517678436989
            ],
            [
              -1.27959787601572,
              -1.34257049621686
            ],
            [
              -0.6715888724398869,
              -2.51314286359123
            ],
            [
              -1.962598538419631,
              -3.183708190224248
            ]
          ]
        ]
      },
      "properties": {
        "name": "room_3"
      }
    },
    {
      "type": "Feature",
      "geometry": {
        "type": "Polygon",
        "coordinates": [
          [
            [
              -3.94920344708636,
              0.7438130422489011
            ],
            [
              -3.0360542331547293,
              -1.0142325178542855
            ],
            [
              -0.5909933848397049,
              0.255760190231926
            ],
            [
              -1.0676644506777548,
              1.17347422245293
            ],
            [
              -1.5041426379278249,
              2.0138062596158353
            ],
            [
              -3.94920344708636,
              0.7438130422489011
            ]
          ]
        ]
      },
      "properties": {
        "name": "room_4"
      }
    },
    {
      "type": "Feature",
      "geometry": {
        "type": "Polygon",
        "coordinates": [
          [
            [
              3.7877,
              1.4016
            ],
            [
              3.8336,
              1.3133
            ],
            [
              -0.0675,
              -0.713
            ],
            [
              -1.2796,
              -1.3426
            ],
            [
              -0.0678,
              -0.7132
            ],
            [
              -0.5377,
              0.1915
            ],
            [
              -2.9985,
              -1.0866
            ],
            [
              -3.0208,
              -1.0435
            ],
            [
              -3.0361,
              -1.0142
            ],
            [
              -0.591,
              0.2558
            ],
            [
              -1.0677,
              1.1735
            ],
            [
              -1.5041,
              2.0138
            ],
            [
              -1.4599,
              2.0368
            ],
            [
              -1.4631,
              2.0428
            ],
            [
              2.4098,
              4.0544
            ],
            [
              3.7877,
              1.4016
            ],
            [
              -0.0852,
              -0.61
            ],
            [
              3.7877,
              1.4016
            ]
          ]
        ]
      },
      "properties": {
        "name": "room_5"
      }
    }
  ]
}