{
  "type": "FeatureCollection",
  "features": [
    {
      "type": "Feature",
      "geometry": {
        "type": "Polygon",
        "coordinates": [
          [
            [
              -4.605200000000002,
              -8.501300000000006
            ],
            [
              -4.236300500461461,
              -7.10230189792785
            ],
            [
              -3.9202000000000012,
              -5.903600000000004
            ],
            [
              -3.949400000000001,
              -5.895900000000005
            ],
            [
              -3.503613902089921,
              -4.205569117703739
            ],
            [
              -3.1185990640483614,
              -2.7455856464902215
            ],
            [
              -3.0200102247281437,
              -2.371697247188579
            ],
            [
              -3.0382,
              -2.3668000000000022
            ],
            [
              -2.7764040975042192,
              -1.3798154478100249
            ],
            [
              -2.515999999624606,
              -0.39850000009958597
            ],
            [
              -2.4946299167744623,
              -0.4041691256727619
            ],
            [
              -1.9705819118269121,
              1.5830311020434193
            ],
            [
              -1.8563112232789494,
              2.0163574401587083
            ],
            [
              -1.8896275353854393,
              2.025143339847864
            ],
            [
              -1.2870633703887,
              4.3100782863449325
            ],
            [
              2.0028414920959667,
              3.4424920416168994
            ],
            [
              2.3302950450814004,
              3.3569281683039276
            ],
            [
              2.331599999999992,
              3.3618000000000023
            ],
            [
              5.9843,
              2.3985
            ],
            [
              5.1014,
              -0.9492999999999997
            ],
            [
              5.084613834078349,
              -0.9449036232109957
            ],
            [
              4.501189113481521,
              -3.157262582580039
            ],
            [
              4.457180975356639,
              -3.1456721415362994
            ],
            [
              2.2258894506344507,
              -11.606740003243335
            ],
            [
              -2.886745238533075,
              -10.25847867313297
            ],
            [
              -2.862490067661196,
              -10.166502619718484
            ],
            [
              -4.8761,
              -9.6354
            ],
            [
              -4.578908552189777,
              -8.508232436165262
            ],
            [
              -4.605200000000002,
              -8.501300000000006
            ]
          ]
        ]
      },
      "properties": {
        "name": "footprint",
        "uuid": "91f66e67-37e3-4cc9-9815-a4ce71c56a0a",
        "status": "ok",
        "n_exposed_rooms": 9,
        "n_vertices": 28,
        "area_m2": 107.73656318127797,
        "is_valid": true,
        "is_simple": true,
        "hull_area_m2": 108.26702468751483,
        "convexity": 0.9951004333242933,
        "obb_aspect_ratio": 1.9286833449923846,
        "unbuffered_union_area_m2": 84.82545227009606,
        "buffer_bridged_ratio": 0.30494826315362195,
        "fell_back_to_hull": false,
        "error": null
      }
    },
    {
      "type": "Feature",
      "geometry": {
        "type": "Polygon",
        "coordinates": [
          [
            [
              -2.8625,
              -10.1665
            ],
            [
              -4.8761,
              -9.6354
            ],
            [
              -4.5789,
              -8.5082
            ],
            [
              -2.5652,
              -9.0392
            ],
            [
              -1.9034,
              -6.5296
            ],
            [
              -2.8625,
              -10.1665
            ]
          ]
        ]
      },
      "properties": {
        "name": "room_0"
      }
    },
    {
      "type": "Feature",
      "geometry": {
        "type": "Polygon",
        "coordinates": [
          [
            [
              -4.2363,
              -7.1023
            ],
            [
              -3.9202,
              -5.9036
            ],
            [
              -3.9494,
              -5.8959
            ],
            [
              -3.0618,
              -2.5303
            ],
            [
              -3.9494,
              -5.8959
            ],
            [
              -0.4132,
              -6.8284
            ],
            [
              -0.4364,
              -6.9164
            ],
            [
              -1.9034,
              -6.5296
            ],
            [
              -2.5652,
              -9.0392
            ],
            [
              -4.6052,
              -8.5013
            ],
            [
              -4.2363,
              -7.1023
            ]
          ]
        ]
      },
      "properties": {
        "name": "room_1"
      }
    },
    {
      "type": "Feature",
      "geometry": {
        "type": "Polygon",
        "coordinates": [
          [
            [
              0.496527128882684,
              -3.3886304722535527
            ],
            [
              -3.042088422851481,
              -2.4554558631892545
            ],
            [
              -3.949374809748439,
              -5.895902821998243
            ],
            [
              -0.41075906462577416,
              -6.829077482061396
            ],
            [
              0.496527128882684,
              -3.3886304722535527
            ]
          ]
        ]
      },
      "properties": {
        "name": "room_2"
      }
    },
    {
      "type": "Feature",
      "geometry": {
        "type": "Polygon",
        "coordinates": [
          [
            [
              0.4941,
              -3.388
            ],
            [
              -3.0421,
              -2.4555
            ],
            [
              -3.02,
              -2.3717
            ],
            [
              -3.0382,
              -2.3668
            ],
            [
              -2.7764,
              -1.3798
            ],
            [
              -2.516,
              -0.3985
            ],
            [
              -0.0149,
              -1.062
            ],
            [
              0.6031,
              1.2879
            ],
            [
              1.682,
              1.0225
            ],
            [
              0.8088,
              -2.2688
            ],
            [
              0.7905,
              -2.264
            ],
            [
              0.4941,
              -3.388
            ]
          ]
        ]
      },
      "properties": {
        "name": "room_3"
      }
    },
    {
      "type": "Feature",
      "geometry": {
        "type": "Polygon",
        "coordinates": [
          [
            [
              4.436118620606595,
              -3.2253862137967597
            ],
            [
              0.7904775525340948,
              -2.2639878234310595
            ],
            [
              -0.43642710760857406,
              -6.91643557307498
            ],
            [
              -1.90339071986017,
              -6.52958027812322
            ],
            [
              -2.8867452385330754,
              -10.25847867313297
            ],
            [
              2.2258597014780004,
              -11.606732158044199
            ],
            [
              4.436118620606595,
              -3.2253862137967597
            ]
          ]
        ]
      },
      "properties": {
        "name": "room_4"
      }
    },
    {
      "type": "Feature",
      "geometry": {
        "type": "Polygon",
        "coordinates": [
          [
            [
              5.058483336876984,
              -1.043991024816244
            ],
            [
              1.430608428727641,
              -0.08727757364118416
            ],
            [
              0.8733383225904072,
              -2.20045689391628
            ],
            [
              4.501213526125852,
              -3.1571700093130843
            ],
            [
              5.058483336876984,
              -1.043991024816244
            ]
          ]
        ]
      },
      "properties": {
        "name": "room_5"
      }
    },
    {
      "type": "Feature",
      "geometry": {
        "type": "Polygon",
        "coordinates": [
          [
            [
              2.2926,
              3.3661
            ],
            [
              2.3301,
              3.3562
            ],
            [
              2.3316,
              3.3618
            ],
            [
              5.9843,
              2.3985
            ],
            [
              5.1014,
              -0.9493
            ],
            [
              5.0846,
              -0.9449
            ],
            [
              4.5012,
              -3.1572
            ],
            [
              4.4572,
              -3.1456
            ],
            [
              2.2259,
              -11.6067
            ],
            [
              4.4361,
              -3.2254
            ],
            [
              0.7905,
              -2.264
            ],
            [
              0.8088,
              -2.2688
            ],
            [
              1.682,
              1.0225
            ],
            [
              0.6031,
              1.2879
            ],
            [
              -0.0149,
              -1.062
            ],
            [
              -2.4946,
              -0.4041
            ],
            [
              -1.8563,
              2.0164
            ],
            [
              -1.8896,
              2.0251
            ],
            [
              -1.8896,
              2.0251
            ],
            [
              1.69,
              1.0811
            ],
            [
              2.2926,
              3.3661
            ]
          ]
        ]
      },
      "properties": {
        "name": "room_6"
      }
    },
    {
      "type": "Feature",
      "geometry": {
        "type": "Polygon",
        "coordinates": [
          [
            [
              2.2925875298663403,
              3.366082635466421
            ],
            [
              -1.2870633703887,
              4.3100782863449325
            ],
            [
              -1.88962753538544,
              2.025143339847863
            ],
            [
              1.69002365495238,
              1.0811476124711423
            ],
            [
              2.2925875298663403,
              3.366082635466421
            ]
          ]
        ]
      },
      "properties": {
        "name": "room_7"
      }
    },
    {
      "type": "Feature",
      "geometry": {
        "type": "Polygon",
        "coordinates": [
          [
            [
              0.4966426405152471,
              1.3470645075973
            ],
            [
              -0.37508486567877186,
              1.576948803657412
            ],
            [
              -1.868339136381609,
              1.97073769519718
            ],
            [
              -2.4753642461344176,
              -0.33111332788028
            ],
            [
              -0.11038279542648288,
              -0.9547873602291397
            ],
            [
              0.4966426405152471,
              1.3470645075973
            ]
          ]
        ]
      },
      "properties": {
        "name": "room_8"
      }
    }
  ]
}