{
  "type": "FeatureCollection",
  "features": [
    {
      "type": "Feature",
      "geometry": {
        "type": "Polygon",
        "coordinates": [
          [
            [
              10.12114917,
              55.22146587
            ],
            [
              10.12116315,
              55.22153324
            ],
            [
              10.12117397,
              55.2215875
            ],
            [
              10.12118253,
              55.22164079
            ],
            [
              10.12069655,
              55.22164257
            ],
            [
              10.12069402,
              55.22148008
            ],
            [
              10.12114917,
              55.22146587
            ]
          ]
        ]
      },
      "properties": {
        "source": "parcel_boundary"
      }
    }
  ]
}
