{
  "type": "FeatureCollection",
  "features": [
    {
      "type": "Feature",
      "geometry": {
        "type": "Polygon",
        "coordinates": [
          [
            [
              9.4143491,
              55.86067893
            ],
            [
              9.41489458,
              55.8609099
            ],
            [
              9.41474354,
              55.86102108
            ],
            [
              9.41468372,
              55.86099546
            ],
            [
              9.41460736,
              55.86105169
            ],
            [
              9.4143491,
              55.86067893
            ]
          ]
        ]
      },
      "properties": {
        "source": "parcel_boundary"
      }
    }
  ]
}
