{
  "type": "FeatureCollection",
  "features": [
    {
      "type": "Feature",
      "geometry": {
        "type": "Polygon",
        "coordinates": [
          [
            [
              10.08632169,
              55.56665731
            ],
            [
              10.08625837,
              55.56670152
            ],
            [
              10.08619757,
              55.5667435
            ],
            [
              10.08612505,
              55.56670878
            ],
            [
              10.08624931,
              55.56659901
            ],
            [
              10.08629536,
              55.5665612
            ],
            [
              10.08636355,
              55.56651398
            ],
            [
              10.0864724,
              55.56655612
            ],
            [
              10.08639268,
              55.56660823
            ],
            [
              10.08632169,
              55.56665731
            ]
          ]
        ]
      },
      "properties": {
        "source": "parcel_boundary"
      }
    }
  ]
}
