{
  "type": "FeatureCollection",
  "features": [
    {
      "type": "Feature",
      "geometry": {
        "type": "Polygon",
        "coordinates": [
          [
            [
              10.37020007,
              55.26882252
            ],
            [
              10.36986126,
              55.26884979
            ],
            [
              10.36965068,
              55.26805896
            ],
            [
              10.36962574,
              55.26796528
            ],
            [
              10.36996615,
              55.26795271
            ],
            [
              10.37020007,
              55.26882252
            ]
          ]
        ]
      },
      "properties": {
        "source": "parcel_boundary"
      }
    }
  ]
}
