{
  "type": "FeatureCollection",
  "features": [
    {
      "type": "Feature",
      "geometry": {
        "type": "Polygon",
        "coordinates": [
          [
            [
              10.12116102,
              55.21685882
            ],
            [
              10.12082961,
              55.21690412
            ],
            [
              10.12077906,
              55.21691105
            ],
            [
              10.12063664,
              55.21657058
            ],
            [
              10.12067094,
              55.21656123
            ],
            [
              10.12075297,
              55.21654083
            ],
            [
              10.1208369,
              55.21652312
            ],
            [
              10.12092244,
              55.21650818
            ],
            [
              10.12100934,
              55.21649605
            ],
            [
              10.12116102,
              55.21685882
            ]
          ]
        ]
      },
      "properties": {
        "source": "parcel_boundary"
      }
    }
  ]
}
