{
  "type": "FeatureCollection",
  "features": [
    {
      "type": "Feature",
      "geometry": {
        "type": "Polygon",
        "coordinates": [
          [
            [
              10.4261803,
              55.33990638
            ],
            [
              10.42575023,
              55.34005651
            ],
            [
              10.42550339,
              55.33982665
            ],
            [
              10.42593345,
              55.33967661
            ],
            [
              10.4261803,
              55.33990638
            ]
          ]
        ]
      },
      "properties": {
        "source": "parcel_boundary"
      }
    }
  ]
}
