{
  "type": "FeatureCollection",
  "features": [
    {
      "type": "Feature",
      "geometry": {
        "type": "Polygon",
        "coordinates": [
          [
            [
              10.43177513,
              55.53817618
            ],
            [
              10.43193714,
              55.53807448
            ],
            [
              10.43212082,
              55.53857956
            ],
            [
              10.43239219,
              55.53852938
            ],
            [
              10.43264345,
              55.53898181
            ],
            [
              10.43221112,
              55.53908138
            ],
            [
              10.43182121,
              55.53917206
            ],
            [
              10.4316941,
              55.53889487
            ],
            [
              10.43107513,
              55.53891214
            ],
            [
              10.43108286,
              55.53868256
            ],
            [
              10.43112732,
              55.53860053
            ],
            [
              10.43177513,
              55.53817618
            ]
          ]
        ]
      },
      "properties": {
        "source": "parcel_boundary"
      }
    }
  ]
}
