{
  "type": "FeatureCollection",
  "features": [
    {
      "type": "Feature",
      "geometry": {
        "type": "Polygon",
        "coordinates": [
          [
            [
              9.80494179,
              55.69433844
            ],
            [
              9.80531874,
              55.69436258
            ],
            [
              9.80537072,
              55.69439659
            ],
            [
              9.80527752,
              55.69484622
            ],
            [
              9.80439856,
              55.69495688
            ],
            [
              9.80440599,
              55.6943443
            ],
            [
              9.8046697,
              55.69433903
            ],
            [
              9.80494179,
              55.69433844
            ]
          ]
        ]
      },
      "properties": {
        "source": "parcel_boundary"
      }
    }
  ]
}
