{
  "type": "FeatureCollection",
  "features": [
    {
      "type": "Feature",
      "geometry": {
        "type": "Polygon",
        "coordinates": [
          [
            [
              10.39449335,
              55.51489585
            ],
            [
              10.39441704,
              55.51484901
            ],
            [
              10.39476032,
              55.51466819
            ],
            [
              10.39506967,
              55.51450473
            ],
            [
              10.39524303,
              55.51460641
            ],
            [
              10.39445349,
              55.51502745
            ],
            [
              10.39443305,
              55.51492741
            ],
            [
              10.39449335,
              55.51489585
            ]
          ]
        ]
      },
      "properties": {
        "source": "parcel_boundary"
      }
    }
  ]
}
