{
  "type": "FeatureCollection",
  "features": [
    {
      "type": "Feature",
      "geometry": {
        "type": "Polygon",
        "coordinates": [
          [
            [
              9.4378329,
              55.49862604
            ],
            [
              9.43765462,
              55.49843026
            ],
            [
              9.43814829,
              55.49836667
            ],
            [
              9.43819454,
              55.49843332
            ],
            [
              9.43828675,
              55.49855922
            ],
            [
              9.43793409,
              55.49864531
            ],
            [
              9.4378329,
              55.49862604
            ]
          ]
        ]
      },
      "properties": {
        "source": "parcel_boundary"
      }
    }
  ]
}
