{
  "type": "FeatureCollection",
  "features": [
    {
      "type": "Feature",
      "geometry": {
        "type": "Polygon",
        "coordinates": [
          [
            [
              10.31040749,
              55.33801934
            ],
            [
              10.31057964,
              55.33786899
            ],
            [
              10.31063365,
              55.3378847
            ],
            [
              10.31107139,
              55.33801509
            ],
            [
              10.31088923,
              55.33816157
            ],
            [
              10.31040749,
              55.33801934
            ]
          ]
        ]
      },
      "properties": {
        "source": "parcel_boundary"
      }
    }
  ]
}
