{
  "type": "FeatureCollection",
  "features": [
    {
      "type": "Feature",
      "geometry": {
        "type": "Polygon",
        "coordinates": [
          [
            [
              9.46667831,
              55.49741227
            ],
            [
              9.46677395,
              55.49767989
            ],
            [
              9.46651256,
              55.49770824
            ],
            [
              9.46639794,
              55.49745022
            ],
            [
              9.46667831,
              55.49741227
            ]
          ]
        ]
      },
      "properties": {
        "source": "parcel_boundary"
      }
    }
  ]
}
