{
  "type": "FeatureCollection",
  "features": [
    {
      "type": "Feature",
      "geometry": {
        "type": "Polygon",
        "coordinates": [
          [
            [
              9.78397492,
              55.70184302
            ],
            [
              9.78412503,
              55.70181567
            ],
            [
              9.78443953,
              55.70178443
            ],
            [
              9.78453369,
              55.70209415
            ],
            [
              9.7841424,
              55.70213317
            ],
            [
              9.78397492,
              55.70184302
            ]
          ]
        ]
      },
      "properties": {
        "source": "parcel_boundary"
      }
    }
  ]
}
