{
  "type": "FeatureCollection",
  "features": [
    {
      "type": "Feature",
      "geometry": {
        "type": "Polygon",
        "coordinates": [
          [
            [
              9.5568772,
              55.5266531
            ],
            [
              9.55691033,
              55.52659943
            ],
            [
              9.55703801,
              55.52638529
            ],
            [
              9.55764443,
              55.52652185
            ],
            [
              9.55744793,
              55.52680044
            ],
            [
              9.55740477,
              55.52679074
            ],
            [
              9.5568772,
              55.5266531
            ]
          ]
        ]
      },
      "properties": {
        "source": "parcel_boundary"
      }
    }
  ]
}
