{
  "type": "FeatureCollection",
  "features": [
    {
      "type": "Feature",
      "geometry": {
        "type": "Polygon",
        "coordinates": [
          [
            [
              10.20707492,
              55.31526777
            ],
            [
              10.20708621,
              55.31527269
            ],
            [
              10.20736213,
              55.3153951
            ],
            [
              10.20768079,
              55.31553448
            ],
            [
              10.2078729,
              55.3156185
            ],
            [
              10.20757311,
              55.31592027
            ],
            [
              10.20685355,
              55.31577563
            ],
            [
              10.20680437,
              55.31571948
            ],
            [
              10.20683349,
              55.31566649
            ],
            [
              10.20685387,
              55.31562776
            ],
            [
              10.20700552,
              55.31538453
            ],
            [
              10.20707492,
              55.31526777
            ]
          ]
        ]
      },
      "properties": {
        "source": "parcel_boundary"
      }
    }
  ]
}
