{
  "type": "FeatureCollection",
  "features": [
    {
      "type": "Feature",
      "geometry": {
        "type": "Polygon",
        "coordinates": [
          [
            [
              10.34686944,
              55.36441764
            ],
            [
              10.34685765,
              55.36452116
            ],
            [
              10.34629595,
              55.36450038
            ],
            [
              10.34630777,
              55.36439688
            ],
            [
              10.34686944,
              55.36441764
            ]
          ]
        ]
      },
      "properties": {
        "source": "parcel_boundary"
      }
    }
  ]
}
