{
  "type": "FeatureCollection",
  "features": [
    {
      "type": "Feature",
      "geometry": {
        "type": "Polygon",
        "coordinates": [
          [
            [
              9.45820853,
              55.52151839
            ],
            [
              9.45788633,
              55.52134736
            ],
            [
              9.45831786,
              55.52112798
            ],
            [
              9.45843821,
              55.52118608
            ],
            [
              9.45857607,
              55.52124025
            ],
            [
              9.45820853,
              55.52151839
            ]
          ]
        ]
      },
      "properties": {
        "source": "parcel_boundary"
      }
    }
  ]
}
