{
  "type": "FeatureCollection",
  "features": [
    {
      "type": "Feature",
      "geometry": {
        "type": "Polygon",
        "coordinates": [
          [
            [
              10.16850323,
              55.1086306
            ],
            [
              10.16853924,
              55.10888526
            ],
            [
              10.1681544,
              55.10889688
            ],
            [
              10.16818095,
              55.10864564
            ],
            [
              10.16834301,
              55.10828794
            ],
            [
              10.16861772,
              55.10835416
            ],
            [
              10.16850323,
              55.1086306
            ]
          ]
        ]
      },
      "properties": {
        "source": "parcel_boundary"
      }
    }
  ]
}
