{
  "type": "FeatureCollection",
  "features": [
    {
      "type": "Feature",
      "geometry": {
        "type": "Polygon",
        "coordinates": [
          [
            [
              9.48361367,
              55.48213334
            ],
            [
              9.48352384,
              55.48211236
            ],
            [
              9.48342684,
              55.48194518
            ],
            [
              9.483963,
              55.48185191
            ],
            [
              9.4840506,
              55.48200157
            ],
            [
              9.48361367,
              55.48213334
            ]
          ]
        ]
      },
      "properties": {
        "source": "parcel_boundary"
      }
    }
  ]
}
