{
  "type": "FeatureCollection",
  "features": [
    {
      "type": "Feature",
      "geometry": {
        "type": "Polygon",
        "coordinates": [
          [
            [
              10.37930181,
              55.35090006
            ],
            [
              10.37922539,
              55.35118762
            ],
            [
              10.37915363,
              55.35121774
            ],
            [
              10.37888882,
              55.3511949
            ],
            [
              10.37897472,
              55.35087183
            ],
            [
              10.37930181,
              55.35090006
            ]
          ]
        ]
      },
      "properties": {
        "source": "parcel_boundary"
      }
    }
  ]
}
