{
  "type": "FeatureCollection",
  "features": [
    {
      "type": "Feature",
      "geometry": {
        "type": "Polygon",
        "coordinates": [
          [
            [
              10.07606574,
              55.41444579
            ],
            [
              10.07570276,
              55.4145521
            ],
            [
              10.07553593,
              55.41463293
            ],
            [
              10.07529126,
              55.41472275
            ],
            [
              10.07518097,
              55.4147602
            ],
            [
              10.07499838,
              55.41483437
            ],
            [
              10.07478637,
              55.41495921
            ],
            [
              10.0746331,
              55.41503163
            ],
            [
              10.07446394,
              55.41512556
            ],
            [
              10.07425971,
              55.41522635
            ],
            [
              10.07406551,
              55.41531931
            ],
            [
              10.07397116,
              55.41540226
            ],
            [
              10.07384617,
              55.41551866
            ],
            [
              10.0737261,
              55.41563821
            ],
            [
              10.07358781,
              55.41575108
            ],
            [
              10.07338935,
              55.41588336
            ],
            [
              10.07308811,
              55.41604898
            ],
            [
              10.07269805,
              55.41601166
            ],
            [
              10.07231166,
              55.41594106
            ],
            [
              10.07185798,
              55.41585057
            ],
            [
              10.0705206,
              55.41500584
            ],
            [
              10.06965462,
              55.41405549
            ],
            [
              10.0699906,
              55.41398593
            ],
            [
              10.07042682,
              55.41391902
            ],
            [
              10.07071542,
              55.41386675
            ],
            [
              10.07098154,
              55.41378471
            ],
            [
              10.07128367,
              55.41371678
            ],
            [
              10.07159715,
              55.41364283
            ],
            [
              10.07187005,
              55.41356308
            ],
            [
              10.07207718,
              55.41351773
            ],
            [
              10.07242928,
              55.41341608
            ],
            [
              10.0729283,
              55.41327366
            ],
            [
              10.07362848,
              55.41306689
            ],
            [
              10.07414309,
              55.41291196
            ],
            [
              10.07451575,
              55.41282604
            ],
            [
              10.075153,
              55.41266599
            ],
            [
              10.07554396,
              55.41255231
            ],
            [
              10.07557445,
              55.41259553
            ],
            [
              10.0758064,
              55.41292031
            ],
            [
              10.0758766,
              55.41299878
            ],
            [
              10.07605108,
              55.41316378
            ],
            [
              10.07632816,
              55.41328607
            ],
            [
              10.07666461,
              55.41340402
            ],
            [
              10.07667002,
              55.4134763
            ],
            [
              10.07717663,
              55.41402606
            ],
            [
              10.07691565,
              55.41413342
            ],
            [
              10.07669975,
              55.41422803
            ],
            [
              10.07634649,
              55.41434122
            ],
            [
              10.07606574,
              55.41444579
            ]
          ]
        ]
      },
      "properties": {
        "source": "parcel_boundary"
      }
    }
  ]
}
