{
  "type": "FeatureCollection",
  "features": [
    {
      "type": "Feature",
      "geometry": {
        "type": "Polygon",
        "coordinates": [
          [
            [
              9.60720935,
              55.71906257
            ],
            [
              9.6068026,
              55.71901489
            ],
            [
              9.60677723,
              55.7190103
            ],
            [
              9.60675432,
              55.71900263
            ],
            [
              9.60673499,
              55.71899227
            ],
            [
              9.60672028,
              55.71897974
            ],
            [
              9.60671086,
              55.71896567
            ],
            [
              9.60670725,
              55.71895077
            ],
            [
              9.60670961,
              55.71893579
            ],
            [
              9.606869,
              55.71849334
            ],
            [
              9.60692105,
              55.71850901
            ],
            [
              9.60713198,
              55.71855729
            ],
            [
              9.60705947,
              55.71872671
            ],
            [
              9.60735115,
              55.71876572
            ],
            [
              9.60740183,
              55.71877249
            ],
            [
              9.607354,
              55.71882729
            ],
            [
              9.60733302,
              55.71885499
            ],
            [
              9.60731107,
              55.71888699
            ],
            [
              9.60729222,
              55.71892169
            ],
            [
              9.60725615,
              55.71900428
            ],
            [
              9.607234,
              55.71900146
            ],
            [
              9.60720935,
              55.71906257
            ]
          ]
        ]
      },
      "properties": {
        "source": "parcel_boundary"
      }
    }
  ]
}
