{
  "type": "FeatureCollection",
  "features": [
    {
      "type": "Feature",
      "geometry": {
        "type": "Polygon",
        "coordinates": [
          [
            [
              10.2638327,
              55.08852221
            ],
            [
              10.26392749,
              55.08850106
            ],
            [
              10.26407057,
              55.08871002
            ],
            [
              10.26356687,
              55.08882231
            ],
            [
              10.26342432,
              55.08861334
            ],
            [
              10.2638327,
              55.08852221
            ]
          ]
        ]
      },
      "properties": {
        "source": "parcel_boundary"
      }
    }
  ]
}
