{
  "type": "FeatureCollection",
  "features": [
    {
      "type": "Feature",
      "geometry": {
        "type": "Polygon",
        "coordinates": [
          [
            [
              10.32374642,
              55.13854975
            ],
            [
              10.32360166,
              55.13862718
            ],
            [
              10.32324506,
              55.13841432
            ],
            [
              10.3239753,
              55.13774409
            ],
            [
              10.32397897,
              55.13774618
            ],
            [
              10.32406578,
              55.13778557
            ],
            [
              10.32414085,
              55.13780331
            ],
            [
              10.32449317,
              55.13801028
            ],
            [
              10.32433185,
              55.13810027
            ],
            [
              10.32440663,
              55.13813995
            ],
            [
              10.3241293,
              55.13831149
            ],
            [
              10.32394105,
              55.13842986
            ],
            [
              10.32374642,
              55.13854975
            ]
          ]
        ]
      },
      "properties": {
        "source": "parcel_boundary"
      }
    }
  ]
}
