{
  "type": "FeatureCollection",
  "features": [
    {
      "type": "Feature",
      "geometry": {
        "type": "Polygon",
        "coordinates": [
          [
            [
              9.91018763,
              55.27535695
            ],
            [
              9.91014601,
              55.27533738
            ],
            [
              9.91028974,
              55.2752404
            ],
            [
              9.90994038,
              55.27507257
            ],
            [
              9.9101306,
              55.27494369
            ],
            [
              9.9101511,
              55.27495356
            ],
            [
              9.9103356,
              55.27482897
            ],
            [
              9.91074628,
              55.27502561
            ],
            [
              9.91023082,
              55.27537661
            ],
            [
              9.91018763,
              55.27535695
            ]
          ]
        ]
      },
      "properties": {
        "source": "parcel_boundary"
      }
    }
  ]
}
