{
  "type": "FeatureCollection",
  "features": [
    {
      "type": "Feature",
      "geometry": {
        "type": "Polygon",
        "coordinates": [
          [
            [
              10.36014826,
              55.39831234
            ],
            [
              10.36040358,
              55.3982062
            ],
            [
              10.36067977,
              55.39842147
            ],
            [
              10.36042351,
              55.3985276
            ],
            [
              10.36014826,
              55.39831234
            ]
          ]
        ]
      },
      "properties": {
        "source": "parcel_boundary"
      }
    }
  ]
}
