{
  "type": "FeatureCollection",
  "features": [
    {
      "type": "Feature",
      "geometry": {
        "type": "Polygon",
        "coordinates": [
          [
            [
              10.33910618,
              55.3678675
            ],
            [
              10.33909869,
              55.36781378
            ],
            [
              10.33912758,
              55.36779449
            ],
            [
              10.33919839,
              55.36779128
            ],
            [
              10.33959143,
              55.36777358
            ],
            [
              10.33962002,
              55.36797955
            ],
            [
              10.33903836,
              55.36800572
            ],
            [
              10.3390196,
              55.36787142
            ],
            [
              10.33910618,
              55.3678675
            ]
          ]
        ]
      },
      "properties": {
        "source": "parcel_boundary"
      }
    }
  ]
}
