{
  "type": "FeatureCollection",
  "features": [
    {
      "type": "Feature",
      "geometry": {
        "type": "Polygon",
        "coordinates": [
          [
            [
              9.53531815,
              55.69783696
            ],
            [
              9.53516311,
              55.69783244
            ],
            [
              9.53506347,
              55.69784699
            ],
            [
              9.5350547,
              55.69785513
            ],
            [
              9.53504104,
              55.6978289
            ],
            [
              9.5350406,
              55.69781058
            ],
            [
              9.5350412,
              55.69775267
            ],
            [
              9.53507519,
              55.69764137
            ],
            [
              9.53538042,
              55.69768644
            ],
            [
              9.53531815,
              55.69783696
            ]
          ]
        ]
      },
      "properties": {
        "source": "parcel_boundary"
      }
    }
  ]
}
