{
  "type": "FeatureCollection",
  "features": [
    {
      "type": "Feature",
      "geometry": {
        "type": "Polygon",
        "coordinates": [
          [
            [
              10.09994932,
              55.56753387
            ],
            [
              10.09964503,
              55.56754576
            ],
            [
              10.0995994,
              55.5671707
            ],
            [
              10.0999037,
              55.56715881
            ],
            [
              10.09994932,
              55.56753387
            ]
          ]
        ]
      },
      "properties": {
        "source": "parcel_boundary"
      }
    }
  ]
}
