{
  "type": "FeatureCollection",
  "features": [
    {
      "type": "Feature",
      "geometry": {
        "type": "Polygon",
        "coordinates": [
          [
            [
              10.5079788,
              55.43319174
            ],
            [
              10.50866564,
              55.43328197
            ],
            [
              10.50881573,
              55.43334006
            ],
            [
              10.50918012,
              55.43358951
            ],
            [
              10.50950166,
              55.43380962
            ],
            [
              10.51004968,
              55.43417113
            ],
            [
              10.51021143,
              55.43408106
            ],
            [
              10.510294,
              55.43403561
            ],
            [
              10.51082935,
              55.43426923
            ],
            [
              10.51090556,
              55.43429907
            ],
            [
              10.51077002,
              55.43443292
            ],
            [
              10.51048425,
              55.43464519
            ],
            [
              10.51024313,
              55.43453837
            ],
            [
              10.51016602,
              55.43454356
            ],
            [
              10.51003665,
              55.43462316
            ],
            [
              10.50994316,
              55.43463887
            ],
            [
              10.50957684,
              55.4349058
            ],
            [
              10.50933264,
              55.43511529
            ],
            [
              10.50927979,
              55.43508175
            ],
            [
              10.50948048,
              55.43491576
            ],
            [
              10.50967159,
              55.43476872
            ],
            [
              10.509916,
              55.43458823
            ],
            [
              10.50964501,
              55.4343929
            ],
            [
              10.50891438,
              55.43386639
            ],
            [
              10.5079788,
              55.43319174
            ]
          ]
        ]
      },
      "properties": {
        "source": "parcel_boundary"
      }
    }
  ]
}
