{
  "type": "FeatureCollection",
  "features": [
    {
      "type": "Feature",
      "geometry": {
        "type": "Polygon",
        "coordinates": [
          [
            [
              10.22843451,
              56.23571668
            ],
            [
              10.22905955,
              56.2358116
            ],
            [
              10.22898112,
              56.23598026
            ],
            [
              10.22835505,
              56.23588867
            ],
            [
              10.22843451,
              56.23571668
            ]
          ]
        ]
      },
      "properties": {
        "source": "parcel_boundary"
      }
    }
  ]
}
