{
  "type": "FeatureCollection",
  "features": [
    {
      "type": "Feature",
      "geometry": {
        "type": "Polygon",
        "coordinates": [
          [
            [
              10.0594779,
              55.37186649
            ],
            [
              10.05976454,
              55.37203361
            ],
            [
              10.05984161,
              55.37207856
            ],
            [
              10.0595708,
              55.37222919
            ],
            [
              10.05920708,
              55.37201721
            ],
            [
              10.0594779,
              55.37186649
            ]
          ]
        ]
      },
      "properties": {
        "source": "parcel_boundary"
      }
    }
  ]
}
