{
  "type": "FeatureCollection",
  "features": [
    {
      "type": "Feature",
      "geometry": {
        "type": "Polygon",
        "coordinates": [
          [
            [
              9.53588689,
              55.67624103
            ],
            [
              9.53598978,
              55.67601364
            ],
            [
              9.53638107,
              55.67610012
            ],
            [
              9.53644338,
              55.67611389
            ],
            [
              9.53626449,
              55.67635175
            ],
            [
              9.53590347,
              55.67627895
            ],
            [
              9.53588689,
              55.67624103
            ]
          ]
        ]
      },
      "properties": {
        "source": "parcel_boundary"
      }
    }
  ]
}
