{
  "type": "FeatureCollection",
  "features": [
    {
      "type": "Feature",
      "geometry": {
        "type": "Polygon",
        "coordinates": [
          [
            [
              10.25348704,
              55.42292071
            ],
            [
              10.25353124,
              55.42296999
            ],
            [
              10.25340875,
              55.4229532
            ],
            [
              10.25303288,
              55.42305961
            ],
            [
              10.2525664,
              55.42319172
            ],
            [
              10.25253039,
              55.42315037
            ],
            [
              10.2528207,
              55.42306506
            ],
            [
              10.25259798,
              55.42280439
            ],
            [
              10.25307463,
              55.42268075
            ],
            [
              10.2531117,
              55.4227235
            ],
            [
              10.25325857,
              55.42289293
            ],
            [
              10.25348704,
              55.42292071
            ]
          ]
        ]
      },
      "properties": {
        "source": "parcel_boundary"
      }
    }
  ]
}
