{
  "type": "FeatureCollection",
  "features": [
    {
      "type": "Feature",
      "geometry": {
        "type": "Polygon",
        "coordinates": [
          [
            [
              10.78344276,
              55.31577677
            ],
            [
              10.78371155,
              55.31572925
            ],
            [
              10.78401106,
              55.3161055
            ],
            [
              10.78376413,
              55.31615232
            ],
            [
              10.78371977,
              55.3161647
            ],
            [
              10.78339482,
              55.31579054
            ],
            [
              10.78344276,
              55.31577677
            ]
          ]
        ]
      },
      "properties": {
        "source": "parcel_boundary"
      }
    }
  ]
}
