{
  "type": "FeatureCollection",
  "features": [
    {
      "type": "Feature",
      "geometry": {
        "type": "Polygon",
        "coordinates": [
          [
            [
              10.35556781,
              55.43297143
            ],
            [
              10.35580311,
              55.43326513
            ],
            [
              10.35577795,
              55.43328279
            ],
            [
              10.35575411,
              55.43330105
            ],
            [
              10.35536689,
              55.43335875
            ],
            [
              10.35515047,
              55.43307826
            ],
            [
              10.35538935,
              55.43301712
            ],
            [
              10.35556781,
              55.43297143
            ]
          ]
        ]
      },
      "properties": {
        "source": "parcel_boundary"
      }
    }
  ]
}
