{
  "type": "FeatureCollection",
  "features": [
    {
      "type": "Feature",
      "geometry": {
        "type": "Polygon",
        "coordinates": [
          [
            [
              10.35208252,
              55.36937879
            ],
            [
              10.35144932,
              55.36940853
            ],
            [
              10.35142749,
              55.36926021
            ],
            [
              10.35206258,
              55.36923203
            ],
            [
              10.35208252,
              55.36937879
            ]
          ]
        ]
      },
      "properties": {
        "source": "parcel_boundary"
      }
    }
  ]
}
