{
  "type": "FeatureCollection",
  "features": [
    {
      "type": "Feature",
      "geometry": {
        "type": "Polygon",
        "coordinates": [
          [
            [
              10.4951342,
              55.30543931
            ],
            [
              10.49553091,
              55.30563819
            ],
            [
              10.49532787,
              55.30590415
            ],
            [
              10.49527444,
              55.30588515
            ],
            [
              10.4949313,
              55.30563996
            ],
            [
              10.4951342,
              55.30543931
            ]
          ]
        ]
      },
      "properties": {
        "source": "parcel_boundary"
      }
    }
  ]
}
