{
  "type": "FeatureCollection",
  "features": [
    {
      "type": "Feature",
      "geometry": {
        "type": "Polygon",
        "coordinates": [
          [
            [
              10.38524852,
              55.34829371
            ],
            [
              10.38509231,
              55.34828786
            ],
            [
              10.38518267,
              55.34794698
            ],
            [
              10.38533684,
              55.34796028
            ],
            [
              10.38524852,
              55.34829371
            ]
          ]
        ]
      },
      "properties": {
        "source": "parcel_boundary"
      }
    }
  ]
}
