{
  "type": "FeatureCollection",
  "features": [
    {
      "type": "Feature",
      "geometry": {
        "type": "Polygon",
        "coordinates": [
          [
            [
              10.6169122,
              55.3963152
            ],
            [
              10.61727242,
              55.39630246
            ],
            [
              10.61774843,
              55.39628563
            ],
            [
              10.6177014,
              55.39640576
            ],
            [
              10.61686751,
              55.39642984
            ],
            [
              10.6169049,
              55.39633413
            ],
            [
              10.6169122,
              55.3963152
            ]
          ]
        ]
      },
      "properties": {
        "source": "parcel_boundary"
      }
    }
  ]
}
