{
  "type": "FeatureCollection",
  "features": [
    {
      "type": "Feature",
      "geometry": {
        "type": "Polygon",
        "coordinates": [
          [
            [
              10.33212851,
              55.34817674
            ],
            [
              10.33220669,
              55.34818208
            ],
            [
              10.3322656,
              55.34821887
            ],
            [
              10.33232117,
              55.34825731
            ],
            [
              10.33186057,
              55.34838203
            ],
            [
              10.33173572,
              55.3482855
            ],
            [
              10.33207459,
              55.34819379
            ],
            [
              10.33210203,
              55.34818575
            ],
            [
              10.33212851,
              55.34817674
            ]
          ]
        ]
      },
      "properties": {
        "source": "parcel_boundary"
      }
    }
  ]
}
