{
  "type": "FeatureCollection",
  "features": [
    {
      "type": "Feature",
      "geometry": {
        "type": "Polygon",
        "coordinates": [
          [
            [
              9.39135569,
              55.64133513
            ],
            [
              9.3910864,
              55.64177387
            ],
            [
              9.39092273,
              55.64169403
            ],
            [
              9.39082398,
              55.64162595
            ],
            [
              9.39061794,
              55.64146651
            ],
            [
              9.39076901,
              55.64141253
            ],
            [
              9.39079015,
              55.64139111
            ],
            [
              9.39094289,
              55.64134793
            ],
            [
              9.39095564,
              55.64133969
            ],
            [
              9.39101936,
              55.64125569
            ],
            [
              9.39135569,
              55.64133513
            ]
          ]
        ]
      },
      "properties": {
        "source": "parcel_boundary"
      }
    }
  ]
}
