{
  "type": "FeatureCollection",
  "features": [
    {
      "type": "Feature",
      "geometry": {
        "type": "Polygon",
        "coordinates": [
          [
            [
              10.45222003,
              55.36008099
            ],
            [
              10.45220682,
              55.36011666
            ],
            [
              10.45201962,
              55.36009055
            ],
            [
              10.45203849,
              55.35984756
            ],
            [
              10.45211889,
              55.35983243
            ],
            [
              10.45219827,
              55.35981568
            ],
            [
              10.4523234,
              55.35983284
            ],
            [
              10.45222003,
              55.36008099
            ]
          ]
        ]
      },
      "properties": {
        "source": "parcel_boundary"
      }
    }
  ]
}
