{
  "type": "FeatureCollection",
  "features": [
    {
      "type": "Feature",
      "geometry": {
        "type": "Polygon",
        "coordinates": [
          [
            [
              9.32054469,
              55.61557505
            ],
            [
              9.3200281,
              55.61575241
            ],
            [
              9.31988671,
              55.61581542
            ],
            [
              9.31984862,
              55.61583239
            ],
            [
              9.31957527,
              55.6156121
            ],
            [
              9.31952117,
              55.61557072
            ],
            [
              9.31945101,
              55.61551774
            ],
            [
              9.31983173,
              55.61536914
            ],
            [
              9.31996215,
              55.61540152
            ],
            [
              9.32054469,
              55.61557505
            ]
          ]
        ]
      },
      "properties": {
        "source": "parcel_boundary"
      }
    }
  ]
}
