{
  "type": "FeatureCollection",
  "features": [
    {
      "type": "Feature",
      "geometry": {
        "type": "Polygon",
        "coordinates": [
          [
            [
              9.38264258,
              55.96174129
            ],
            [
              9.38268307,
              55.96159641
            ],
            [
              9.38272838,
              55.96145198
            ],
            [
              9.38277844,
              55.96130806
            ],
            [
              9.38411677,
              55.96146655
            ],
            [
              9.38396275,
              55.96189827
            ],
            [
              9.38365782,
              55.96186208
            ],
            [
              9.38345293,
              55.96183779
            ],
            [
              9.38324791,
              55.9618131
            ],
            [
              9.38264258,
              55.96174129
            ]
          ]
        ]
      },
      "properties": {
        "source": "parcel_boundary"
      }
    }
  ]
}
