{
  "type": "FeatureCollection",
  "features": [
    {
      "type": "Feature",
      "geometry": {
        "type": "Polygon",
        "coordinates": [
          [
            [
              9.49471254,
              55.50180583
            ],
            [
              9.49492412,
              55.50169932
            ],
            [
              9.49536941,
              55.50195866
            ],
            [
              9.4951622,
              55.50207157
            ],
            [
              9.49471254,
              55.50180583
            ]
          ]
        ]
      },
      "properties": {
        "source": "parcel_boundary"
      }
    }
  ]
}
