{
  "type": "FeatureCollection",
  "features": [
    {
      "type": "Feature",
      "geometry": {
        "type": "Polygon",
        "coordinates": [
          [
            [
              10.71708302,
              54.93819025
            ],
            [
              10.71777422,
              54.93814639
            ],
            [
              10.71780764,
              54.93827707
            ],
            [
              10.71725426,
              54.93832579
            ],
            [
              10.71716559,
              54.93825581
            ],
            [
              10.71708302,
              54.93819025
            ]
          ]
        ]
      },
      "properties": {
        "source": "parcel_boundary"
      }
    }
  ]
}
