{
  "type": "FeatureCollection",
  "features": [
    {
      "type": "Feature",
      "geometry": {
        "type": "Polygon",
        "coordinates": [
          [
            [
              10.3920237,
              55.30205092
            ],
            [
              10.39208108,
              55.30208176
            ],
            [
              10.39209083,
              55.30226816
            ],
            [
              10.39153999,
              55.30227753
            ],
            [
              10.39152838,
              55.30205889
            ],
            [
              10.3920237,
              55.30205092
            ]
          ]
        ]
      },
      "properties": {
        "source": "parcel_boundary"
      }
    }
  ]
}
