{
  "type": "FeatureCollection",
  "features": [
    {
      "type": "Feature",
      "geometry": {
        "type": "Polygon",
        "coordinates": [
          [
            [
              10.25686333,
              55.4846846
            ],
            [
              10.25689204,
              55.48454858
            ],
            [
              10.25689613,
              55.48452921
            ],
            [
              10.25753796,
              55.48457345
            ],
            [
              10.25750396,
              55.48473133
            ],
            [
              10.25686333,
              55.4846846
            ]
          ]
        ]
      },
      "properties": {
        "source": "parcel_boundary"
      }
    }
  ]
}
