{
  "type": "FeatureCollection",
  "features": [
    {
      "type": "Feature",
      "geometry": {
        "type": "Polygon",
        "coordinates": [
          [
            [
              10.25070309,
              55.49180732
            ],
            [
              10.25068036,
              55.49203112
            ],
            [
              10.25052535,
              55.49202603
            ],
            [
              10.25012525,
              55.49201288
            ],
            [
              10.25014883,
              55.49178889
            ],
            [
              10.25070309,
              55.49180732
            ]
          ]
        ]
      },
      "properties": {
        "source": "parcel_boundary"
      }
    }
  ]
}
