{
  "type": "FeatureCollection",
  "features": [
    {
      "type": "Feature",
      "geometry": {
        "type": "Polygon",
        "coordinates": [
          [
            [
              10.33948492,
              55.34961355
            ],
            [
              10.33924789,
              55.34943978
            ],
            [
              10.33926882,
              55.34939364
            ],
            [
              10.33967395,
              55.34928441
            ],
            [
              10.33987943,
              55.34943845
            ],
            [
              10.33948492,
              55.34961355
            ]
          ]
        ]
      },
      "properties": {
        "source": "parcel_boundary"
      }
    }
  ]
}
