{
  "type": "FeatureCollection",
  "features": [
    {
      "type": "Feature",
      "geometry": {
        "type": "Polygon",
        "coordinates": [
          [
            [
              10.56845984,
              55.29512448
            ],
            [
              10.56866887,
              55.29533667
            ],
            [
              10.56795513,
              55.29532332
            ],
            [
              10.56778414,
              55.29510129
            ],
            [
              10.56775806,
              55.29506825
            ],
            [
              10.5677149,
              55.29505986
            ],
            [
              10.56758671,
              55.29486129
            ],
            [
              10.56805903,
              55.29477768
            ],
            [
              10.5681812,
              55.29475998
            ],
            [
              10.56822001,
              55.29486993
            ],
            [
              10.56845984,
              55.29512448
            ]
          ]
        ]
      },
      "properties": {
        "source": "parcel_boundary"
      }
    }
  ]
}
