{
  "type": "FeatureCollection",
  "features": [
    {
      "type": "Feature",
      "geometry": {
        "type": "Polygon",
        "coordinates": [
          [
            [
              10.53255009,
              55.23971617
            ],
            [
              10.53218409,
              55.23971166
            ],
            [
              10.53219547,
              55.23940998
            ],
            [
              10.53256435,
              55.23941309
            ],
            [
              10.53255009,
              55.23971617
            ]
          ]
        ]
      },
      "properties": {
        "source": "parcel_boundary"
      }
    }
  ]
}
