{
  "type": "FeatureCollection",
  "features": [
    {
      "type": "Feature",
      "geometry": {
        "type": "Polygon",
        "coordinates": [
          [
            [
              10.26114531,
              55.08880371
            ],
            [
              10.26106784,
              55.08878682
            ],
            [
              10.26103624,
              55.08873588
            ],
            [
              10.26091837,
              55.08854592
            ],
            [
              10.26117791,
              55.08849053
            ],
            [
              10.26120714,
              55.08848436
            ],
            [
              10.26124232,
              55.08854155
            ],
            [
              10.26141486,
              55.0885016
            ],
            [
              10.26153652,
              55.08868119
            ],
            [
              10.26150484,
              55.08872247
            ],
            [
              10.26114531,
              55.08880371
            ]
          ]
        ]
      },
      "properties": {
        "source": "parcel_boundary"
      }
    }
  ]
}
