{
  "type": "FeatureCollection",
  "features": [
    {
      "type": "Feature",
      "geometry": {
        "type": "Polygon",
        "coordinates": [
          [
            [
              10.136032,
              55.36656434
            ],
            [
              10.13634624,
              55.36649299
            ],
            [
              10.13656182,
              55.36680635
            ],
            [
              10.13625974,
              55.36687277
            ],
            [
              10.136032,
              55.36656434
            ]
          ]
        ]
      },
      "properties": {
        "source": "parcel_boundary"
      }
    }
  ]
}
