{
  "type": "FeatureCollection",
  "features": [
    {
      "type": "Feature",
      "geometry": {
        "type": "Polygon",
        "coordinates": [
          [
            [
              10.25402673,
              55.32225453
            ],
            [
              10.25406867,
              55.32226662
            ],
            [
              10.25409232,
              55.3222862
            ],
            [
              10.25428981,
              55.32253912
            ],
            [
              10.25425749,
              55.32258462
            ],
            [
              10.25394146,
              55.32265113
            ],
            [
              10.25371926,
              55.32230054
            ],
            [
              10.25397955,
              55.32225632
            ],
            [
              10.25402673,
              55.32225453
            ]
          ]
        ]
      },
      "properties": {
        "source": "parcel_boundary"
      }
    }
  ]
}
