{
  "type": "FeatureCollection",
  "features": [
    {
      "type": "Feature",
      "geometry": {
        "type": "Polygon",
        "coordinates": [
          [
            [
              10.05345278,
              55.4183991
            ],
            [
              10.05314839,
              55.41835335
            ],
            [
              10.05307003,
              55.41834158
            ],
            [
              10.05321971,
              55.41807164
            ],
            [
              10.05359483,
              55.4181399
            ],
            [
              10.05345278,
              55.4183991
            ]
          ]
        ]
      },
      "properties": {
        "source": "parcel_boundary"
      }
    }
  ]
}
