{
  "type": "FeatureCollection",
  "features": [
    {
      "type": "Feature",
      "geometry": {
        "type": "Polygon",
        "coordinates": [
          [
            [
              10.43147074,
              55.39307138
            ],
            [
              10.43144316,
              55.39294654
            ],
            [
              10.43175544,
              55.39292959
            ],
            [
              10.4318296,
              55.39327129
            ],
            [
              10.43151977,
              55.39329355
            ],
            [
              10.43147074,
              55.39307138
            ]
          ]
        ]
      },
      "properties": {
        "source": "parcel_boundary"
      }
    }
  ]
}
