{
  "type": "FeatureCollection",
  "features": [
    {
      "type": "Feature",
      "geometry": {
        "type": "Polygon",
        "coordinates": [
          [
            [
              10.80425093,
              55.31656657
            ],
            [
              10.80406969,
              55.31675241
            ],
            [
              10.80404104,
              55.31686205
            ],
            [
              10.80376436,
              55.31684316
            ],
            [
              10.80379344,
              55.31671857
            ],
            [
              10.80383732,
              55.31656877
            ],
            [
              10.8038963,
              55.31648839
            ],
            [
              10.80425093,
              55.31656657
            ]
          ]
        ]
      },
      "properties": {
        "source": "parcel_boundary"
      }
    }
  ]
}
