{
  "type": "FeatureCollection",
  "features": [
    {
      "type": "Feature",
      "geometry": {
        "type": "Polygon",
        "coordinates": [
          [
            [
              9.77228983,
              55.59557995
            ],
            [
              9.77228452,
              55.59548838
            ],
            [
              9.77227642,
              55.59540714
            ],
            [
              9.77286272,
              55.59539256
            ],
            [
              9.77287611,
              55.59556537
            ],
            [
              9.77228983,
              55.59557995
            ]
          ]
        ]
      },
      "properties": {
        "source": "parcel_boundary"
      }
    }
  ]
}
