{
  "type": "FeatureCollection",
  "features": [
    {
      "type": "Feature",
      "geometry": {
        "type": "Polygon",
        "coordinates": [
          [
            [
              10.77142402,
              55.30648208
            ],
            [
              10.77104051,
              55.30662588
            ],
            [
              10.77087873,
              55.30651983
            ],
            [
              10.77084165,
              55.30649624
            ],
            [
              10.77124662,
              55.3063444
            ],
            [
              10.77142402,
              55.30648208
            ]
          ]
        ]
      },
      "properties": {
        "source": "parcel_boundary"
      }
    }
  ]
}
