{
  "type": "FeatureCollection",
  "features": [
    {
      "type": "Feature",
      "geometry": {
        "type": "Polygon",
        "coordinates": [
          [
            [
              9.70983388,
              55.77417059
            ],
            [
              9.70953845,
              55.77400046
            ],
            [
              9.70994448,
              55.77374973
            ],
            [
              9.71008928,
              55.77383315
            ],
            [
              9.71023978,
              55.77391972
            ],
            [
              9.70983388,
              55.77417059
            ]
          ]
        ]
      },
      "properties": {
        "source": "parcel_boundary"
      }
    }
  ]
}
