{
  "type": "FeatureCollection",
  "features": [
    {
      "type": "Feature",
      "geometry": {
        "type": "Polygon",
        "coordinates": [
          [
            [
              10.30026367,
              55.4164027
            ],
            [
              10.30092287,
              55.41641061
            ],
            [
              10.30090181,
              55.41644509
            ],
            [
              10.30088468,
              55.41648028
            ],
            [
              10.30087159,
              55.41651604
            ],
            [
              10.30086259,
              55.41655218
            ],
            [
              10.30085767,
              55.41658859
            ],
            [
              10.30032422,
              55.4166338
            ],
            [
              10.30026367,
              55.4164027
            ]
          ]
        ]
      },
      "properties": {
        "source": "parcel_boundary"
      }
    }
  ]
}
