{
  "type": "FeatureCollection",
  "features": [
    {
      "type": "Feature",
      "geometry": {
        "type": "Polygon",
        "coordinates": [
          [
            [
              10.10750568,
              55.28301114
            ],
            [
              10.10749786,
              55.28296217
            ],
            [
              10.10774352,
              55.28266863
            ],
            [
              10.10806376,
              55.28274924
            ],
            [
              10.10778341,
              55.28309109
            ],
            [
              10.10750568,
              55.28301114
            ]
          ]
        ]
      },
      "properties": {
        "source": "parcel_boundary"
      }
    }
  ]
}
