{
  "type": "FeatureCollection",
  "features": [
    {
      "type": "Feature",
      "geometry": {
        "type": "Polygon",
        "coordinates": [
          [
            [
              9.52620772,
              55.7216078
            ],
            [
              9.52654741,
              55.72163779
            ],
            [
              9.52652457,
              55.72175944
            ],
            [
              9.52651479,
              55.72177191
            ],
            [
              9.52649271,
              55.72177816
            ],
            [
              9.52618343,
              55.72175535
            ],
            [
              9.52620772,
              55.7216078
            ]
          ]
        ]
      },
      "properties": {
        "source": "parcel_boundary"
      }
    }
  ]
}
