{
  "type": "FeatureCollection",
  "features": [
    {
      "type": "Feature",
      "geometry": {
        "type": "Polygon",
        "coordinates": [
          [
            [
              10.796992,
              55.33124156
            ],
            [
              10.79754355,
              55.33123891
            ],
            [
              10.79754483,
              55.33132782
            ],
            [
              10.79699328,
              55.33133047
            ],
            [
              10.796992,
              55.33124156
            ]
          ]
        ]
      },
      "properties": {
        "source": "parcel_boundary"
      }
    }
  ]
}
