{
  "type": "FeatureCollection",
  "features": [
    {
      "type": "Feature",
      "geometry": {
        "type": "Polygon",
        "coordinates": [
          [
            [
              10.30221254,
              55.40907839
            ],
            [
              10.30288032,
              55.40913776
            ],
            [
              10.30286933,
              55.40917769
            ],
            [
              10.30260619,
              55.4091543
            ],
            [
              10.30253147,
              55.40942635
            ],
            [
              10.30201638,
              55.40938056
            ],
            [
              10.30211698,
              55.40920247
            ],
            [
              10.30221254,
              55.40907839
            ]
          ]
        ]
      },
      "properties": {
        "source": "parcel_boundary"
      }
    }
  ]
}
