{
  "type": "FeatureCollection",
  "features": [
    {
      "type": "Feature",
      "geometry": {
        "type": "Polygon",
        "coordinates": [
          [
            [
              10.44066701,
              55.48151522
            ],
            [
              10.44038101,
              55.48170111
            ],
            [
              10.43970013,
              55.48130846
            ],
            [
              10.43995651,
              55.4812033
            ],
            [
              10.4400534,
              55.48116242
            ],
            [
              10.44066701,
              55.48151522
            ]
          ]
        ]
      },
      "properties": {
        "source": "parcel_boundary"
      }
    }
  ]
}
