{
  "type": "FeatureCollection",
  "features": [
    {
      "type": "Feature",
      "geometry": {
        "type": "Polygon",
        "coordinates": [
          [
            [
              9.56286775,
              55.3239318
            ],
            [
              9.56224849,
              55.3240375
            ],
            [
              9.56215168,
              55.32381093
            ],
            [
              9.56276315,
              55.32372043
            ],
            [
              9.56286775,
              55.3239318
            ]
          ]
        ]
      },
      "properties": {
        "source": "parcel_boundary"
      }
    }
  ]
}
