{
  "type": "FeatureCollection",
  "features": [
    {
      "type": "Feature",
      "geometry": {
        "type": "Polygon",
        "coordinates": [
          [
            [
              10.31730063,
              55.33488754
            ],
            [
              10.31743273,
              55.33479046
            ],
            [
              10.31757742,
              55.33468357
            ],
            [
              10.31763157,
              55.33464576
            ],
            [
              10.31811119,
              55.3347152
            ],
            [
              10.31804818,
              55.33485668
            ],
            [
              10.31799775,
              55.33498094
            ],
            [
              10.31730063,
              55.33488754
            ]
          ]
        ]
      },
      "properties": {
        "source": "parcel_boundary"
      }
    }
  ]
}
