{
  "type": "FeatureCollection",
  "features": [
    {
      "type": "Feature",
      "geometry": {
        "type": "Polygon",
        "coordinates": [
          [
            [
              10.03798563,
              55.37509454
            ],
            [
              10.03800833,
              55.37511296
            ],
            [
              10.03790097,
              55.37515605
            ],
            [
              10.03806666,
              55.37529063
            ],
            [
              10.03753661,
              55.37550339
            ],
            [
              10.03728185,
              55.3753289
            ],
            [
              10.03785059,
              55.37511537
            ],
            [
              10.03787825,
              55.37513768
            ],
            [
              10.03798563,
              55.37509454
            ]
          ]
        ]
      },
      "properties": {
        "source": "parcel_boundary"
      }
    }
  ]
}
