{
  "type": "FeatureCollection",
  "features": [
    {
      "type": "Feature",
      "geometry": {
        "type": "Polygon",
        "coordinates": [
          [
            [
              10.33685779,
              55.41132186
            ],
            [
              10.33629867,
              55.41131575
            ],
            [
              10.33629934,
              55.41128512
            ],
            [
              10.33630239,
              55.41114643
            ],
            [
              10.33686183,
              55.41115195
            ],
            [
              10.33685779,
              55.41132186
            ]
          ]
        ]
      },
      "properties": {
        "source": "parcel_boundary"
      }
    }
  ]
}
