{
  "type": "FeatureCollection",
  "features": [
    {
      "type": "Feature",
      "geometry": {
        "type": "Polygon",
        "coordinates": [
          [
            [
              9.7873881,
              55.82144677
            ],
            [
              9.78722392,
              55.82124197
            ],
            [
              9.78779871,
              55.82109594
            ],
            [
              9.78796289,
              55.82130073
            ],
            [
              9.7873881,
              55.82144677
            ]
          ]
        ]
      },
      "properties": {
        "source": "parcel_boundary"
      }
    }
  ]
}
