{
  "type": "FeatureCollection",
  "features": [
    {
      "type": "Feature",
      "geometry": {
        "type": "Polygon",
        "coordinates": [
          [
            [
              9.51086122,
              55.69396457
            ],
            [
              9.5107227,
              55.69391889
            ],
            [
              9.51049441,
              55.69377485
            ],
            [
              9.5105308,
              55.69375615
            ],
            [
              9.51082491,
              55.69360506
            ],
            [
              9.51109924,
              55.69376904
            ],
            [
              9.51108525,
              55.69378446
            ],
            [
              9.51090446,
              55.69395738
            ],
            [
              9.51086122,
              55.69396457
            ]
          ]
        ]
      },
      "properties": {
        "source": "parcel_boundary"
      }
    }
  ]
}
