{
  "type": "FeatureCollection",
  "features": [
    {
      "type": "Feature",
      "geometry": {
        "type": "Polygon",
        "coordinates": [
          [
            [
              10.33210616,
              55.14251345
            ],
            [
              10.33172061,
              55.14272662
            ],
            [
              10.33161783,
              55.14278506
            ],
            [
              10.33143719,
              55.14288775
            ],
            [
              10.3312218,
              55.14277157
            ],
            [
              10.331541,
              55.142588
            ],
            [
              10.33188984,
              55.14238471
            ],
            [
              10.33210616,
              55.14251345
            ]
          ]
        ]
      },
      "properties": {
        "source": "parcel_boundary"
      }
    }
  ]
}
