{
  "type": "FeatureCollection",
  "features": [
    {
      "type": "Feature",
      "geometry": {
        "type": "Polygon",
        "coordinates": [
          [
            [
              9.53043031,
              55.83555239
            ],
            [
              9.53033522,
              55.83578413
            ],
            [
              9.52990012,
              55.83572751
            ],
            [
              9.52990689,
              55.83570668
            ],
            [
              9.52997604,
              55.83549406
            ],
            [
              9.53043031,
              55.83555239
            ]
          ]
        ]
      },
      "properties": {
        "source": "parcel_boundary"
      }
    }
  ]
}
