{
  "type": "FeatureCollection",
  "features": [
    {
      "type": "Feature",
      "geometry": {
        "type": "Polygon",
        "coordinates": [
          [
            [
              10.14302988,
              55.38659115
            ],
            [
              10.14268264,
              55.38687843
            ],
            [
              10.14259868,
              55.38685146
            ],
            [
              10.14240485,
              55.38678918
            ],
            [
              10.1427587,
              55.38650361
            ],
            [
              10.14302988,
              55.38659115
            ]
          ]
        ]
      },
      "properties": {
        "source": "parcel_boundary"
      }
    }
  ]
}
