{
  "type": "FeatureCollection",
  "features": [
    {
      "type": "Feature",
      "geometry": {
        "type": "Polygon",
        "coordinates": [
          [
            [
              10.91666945,
              55.08381844
            ],
            [
              10.9168227,
              55.08397603
            ],
            [
              10.91641542,
              55.0841668
            ],
            [
              10.91631197,
              55.08409785
            ],
            [
              10.91621584,
              55.08404066
            ],
            [
              10.91666945,
              55.08381844
            ]
          ]
        ]
      },
      "properties": {
        "source": "parcel_boundary"
      }
    }
  ]
}
