{
  "type": "FeatureCollection",
  "features": [
    {
      "type": "Feature",
      "geometry": {
        "type": "Polygon",
        "coordinates": [
          [
            [
              10.48897572,
              55.23227543
            ],
            [
              10.48868661,
              55.23206796
            ],
            [
              10.48865263,
              55.23204359
            ],
            [
              10.48902144,
              55.23187571
            ],
            [
              10.48934453,
              55.23210757
            ],
            [
              10.48897572,
              55.23227543
            ]
          ]
        ]
      },
      "properties": {
        "source": "parcel_boundary"
      }
    }
  ]
}
