{
  "type": "FeatureCollection",
  "features": [
    {
      "type": "Feature",
      "geometry": {
        "type": "Polygon",
        "coordinates": [
          [
            [
              10.64387314,
              55.28424033
            ],
            [
              10.64410457,
              55.28453067
            ],
            [
              10.64441733,
              55.2848396
            ],
            [
              10.64471086,
              55.28506995
            ],
            [
              10.64672649,
              55.28533172
            ],
            [
              10.64692461,
              55.28532928
            ],
            [
              10.64713009,
              55.2852241
            ],
            [
              10.64750492,
              55.2848552
            ],
            [
              10.64781842,
              55.28452662
            ],
            [
              10.6479515,
              55.28449074
            ],
            [
              10.64837182,
              55.28448381
            ],
            [
              10.64859846,
              55.28454428
            ],
            [
              10.64961518,
              55.28508475
            ],
            [
              10.64925579,
              55.28533308
            ],
            [
              10.64897925,
              55.28554027
            ],
            [
              10.64869311,
              55.2856811
            ],
            [
              10.64855094,
              55.28582648
            ],
            [
              10.64856569,
              55.28592316
            ],
            [
              10.64958729,
              55.28664456
            ],
            [
              10.64951791,
              55.28668654
            ],
            [
              10.64941385,
              55.28669134
            ],
            [
              10.64917779,
              55.28676832
            ],
            [
              10.64896218,
              55.2868774
            ],
            [
              10.64880521,
              55.28698038
            ],
            [
              10.64867938,
              55.28707282
            ],
            [
              10.64867339,
              55.28707837
            ],
            [
              10.64855654,
              55.28705251
            ],
            [
              10.6483699,
              55.2872041
            ],
            [
              10.64834571,
              55.2871965
            ],
            [
              10.64819403,
              55.28716036
            ],
            [
              10.64806602,
              55.28700575
            ],
            [
              10.64816132,
              55.28672832
            ],
            [
              10.64816651,
              55.28665796
            ],
            [
              10.64811495,
              55.28661935
            ],
            [
              10.64797223,
              55.28659766
            ],
            [
              10.64782299,
              55.28655049
            ],
            [
              10.64773032,
              55.28651047
            ],
            [
              10.64761805,
              55.28643597
            ],
            [
              10.64736864,
              55.28644769
            ],
            [
              10.64732881,
              55.28642985
            ],
            [
              10.64725226,
              55.28629938
            ],
            [
              10.64715398,
              55.28625013
            ],
            [
              10.64683085,
              55.28629519
            ],
            [
              10.64666337,
              55.28622885
            ],
            [
              10.64657278,
              55.28618099
            ],
            [
              10.64644547,
              55.2860442
            ],
            [
              10.64623313,
              55.28594987
            ],
            [
              10.64606623,
              55.28581295
            ],
            [
              10.64599098,
              55.28570733
            ],
            [
              10.64591239,
              55.28560921
            ],
            [
              10.64579439,
              55.28559902
            ],
            [
              10.64568739,
              55.28566149
            ],
            [
              10.64556668,
              55.28565286
            ],
            [
              10.64533832,
              55.28573398
            ],
            [
              10.64464562,
              55.28561747
            ],
            [
              10.64447171,
              55.28558822
            ],
            [
              10.64444519,
              55.28555648
            ],
            [
              10.6445082,
              55.28546064
            ],
            [
              10.64448405,
              55.28533633
            ],
            [
              10.64427788,
              55.28523545
            ],
            [
              10.6441181,
              55.28526191
            ],
            [
              10.64408195,
              55.28528331
            ],
            [
              10.64398113,
              55.28525489
            ],
            [
              10.64394166,
              55.28511304
            ],
            [
              10.64346942,
              55.2847689
            ],
            [
              10.64343481,
              55.28461322
            ],
            [
              10.6433932,
              55.28444002
            ],
            [
              10.64352365,
              55.28430563
            ],
            [
              10.64387314,
              55.28424033
            ]
          ]
        ]
      },
      "properties": {
        "source": "parcel_boundary"
      }
    }
  ]
}
