{
  "type": "FeatureCollection",
  "features": [
    {
      "type": "Feature",
      "geometry": {
        "type": "Polygon",
        "coordinates": [
          [
            [
              10.66251042,
              55.44672779
            ],
            [
              10.66263604,
              55.44686783
            ],
            [
              10.66215315,
              55.44700778
            ],
            [
              10.66202754,
              55.44686774
            ],
            [
              10.66251042,
              55.44672779
            ]
          ]
        ]
      },
      "properties": {
        "source": "parcel_boundary"
      }
    }
  ]
}
