{
  "type": "FeatureCollection",
  "features": [
    {
      "type": "Feature",
      "geometry": {
        "type": "Polygon",
        "coordinates": [
          [
            [
              10.40403982,
              55.51057537
            ],
            [
              10.40418552,
              55.51036677
            ],
            [
              10.40433036,
              55.51039944
            ],
            [
              10.40418484,
              55.51060795
            ],
            [
              10.40403982,
              55.51057537
            ]
          ]
        ]
      },
      "properties": {
        "source": "parcel_boundary"
      }
    }
  ]
}
