{
  "type": "FeatureCollection",
  "features": [
    {
      "type": "Feature",
      "geometry": {
        "type": "Polygon",
        "coordinates": [
          [
            [
              9.56927836,
              55.71763544
            ],
            [
              9.56942183,
              55.71748421
            ],
            [
              9.56975132,
              55.71743175
            ],
            [
              9.56977394,
              55.71768928
            ],
            [
              9.5697342,
              55.71769027
            ],
            [
              9.56962313,
              55.71768977
            ],
            [
              9.56951577,
              55.71768139
            ],
            [
              9.56939585,
              55.71766473
            ],
            [
              9.56927836,
              55.71763544
            ]
          ]
        ]
      },
      "properties": {
        "source": "parcel_boundary"
      }
    }
  ]
}
