{
  "type": "FeatureCollection",
  "features": [
    {
      "type": "Feature",
      "geometry": {
        "type": "Polygon",
        "coordinates": [
          [
            [
              10.59063884,
              55.05454816
            ],
            [
              10.58974593,
              55.05427966
            ],
            [
              10.58986436,
              55.05409754
            ],
            [
              10.59075431,
              55.05436999
            ],
            [
              10.59063884,
              55.05454816
            ]
          ]
        ]
      },
      "properties": {
        "source": "parcel_boundary"
      }
    }
  ]
}
