{
  "type": "FeatureCollection",
  "features": [
    {
      "type": "Feature",
      "geometry": {
        "type": "Polygon",
        "coordinates": [
          [
            [
              10.6557189,
              55.43998776
            ],
            [
              10.65575914,
              55.43997857
            ],
            [
              10.65578798,
              55.43997869
            ],
            [
              10.65581151,
              55.43998259
            ],
            [
              10.65581904,
              55.4400159
            ],
            [
              10.65561527,
              55.44003081
            ],
            [
              10.65541287,
              55.44021112
            ],
            [
              10.65527595,
              55.44019246
            ],
            [
              10.65522487,
              55.44017096
            ],
            [
              10.65514502,
              55.43986618
            ],
            [
              10.65511707,
              55.43975957
            ],
            [
              10.6556504,
              55.43971438
            ],
            [
              10.65567599,
              55.43982163
            ],
            [
              10.65570658,
              55.43994946
            ],
            [
              10.6557189,
              55.43998776
            ]
          ]
        ]
      },
      "properties": {
        "source": "parcel_boundary"
      }
    }
  ]
}
