{
  "type": "FeatureCollection",
  "features": [
    {
      "type": "Feature",
      "geometry": {
        "type": "Polygon",
        "coordinates": [
          [
            [
              10.37594274,
              55.39217623
            ],
            [
              10.3760984,
              55.39225785
            ],
            [
              10.3760552,
              55.39228478
            ],
            [
              10.37603569,
              55.39229697
            ],
            [
              10.37588186,
              55.3922144
            ],
            [
              10.37594274,
              55.39217623
            ]
          ]
        ]
      },
      "properties": {
        "source": "parcel_boundary"
      }
    }
  ]
}
