{
  "type": "FeatureCollection",
  "features": [
    {
      "type": "Feature",
      "geometry": {
        "type": "Polygon",
        "coordinates": [
          [
            [
              10.33880222,
              55.36718743
            ],
            [
              10.33877049,
              55.36695909
            ],
            [
              10.33875878,
              55.36687402
            ],
            [
              10.33910464,
              55.36685844
            ],
            [
              10.33914809,
              55.36717185
            ],
            [
              10.33880222,
              55.36718743
            ]
          ]
        ]
      },
      "properties": {
        "source": "parcel_boundary"
      }
    }
  ]
}
