{
  "type": "FeatureCollection",
  "features": [
    {
      "type": "Feature",
      "geometry": {
        "type": "Polygon",
        "coordinates": [
          [
            [
              9.48993596,
              55.48007059
            ],
            [
              9.48995303,
              55.48024258
            ],
            [
              9.48929487,
              55.48026716
            ],
            [
              9.48927837,
              55.48009504
            ],
            [
              9.48993596,
              55.48007059
            ]
          ]
        ]
      },
      "properties": {
        "source": "parcel_boundary"
      }
    }
  ]
}
