{
  "type": "FeatureCollection",
  "features": [
    {
      "type": "Feature",
      "geometry": {
        "type": "Polygon",
        "coordinates": [
          [
            [
              10.3055925,
              55.2702073
            ],
            [
              10.30549849,
              55.27030791
            ],
            [
              10.30526662,
              55.27029005
            ],
            [
              10.30498432,
              55.27026829
            ],
            [
              10.30510793,
              55.26984765
            ],
            [
              10.30521185,
              55.26937819
            ],
            [
              10.3053627,
              55.26941284
            ],
            [
              10.30550681,
              55.26945702
            ],
            [
              10.30555079,
              55.26948092
            ],
            [
              10.30567675,
              55.26957534
            ],
            [
              10.30579253,
              55.26966845
            ],
            [
              10.30589066,
              55.26974051
            ],
            [
              10.30597894,
              55.26977637
            ],
            [
              10.3056561,
              55.27013924
            ],
            [
              10.3055925,
              55.2702073
            ]
          ]
        ]
      },
      "properties": {
        "source": "parcel_boundary"
      }
    }
  ]
}
