{
  "type": "FeatureCollection",
  "features": [
    {
      "type": "Feature",
      "geometry": {
        "type": "Polygon",
        "coordinates": [
          [
            [
              10.59339031,
              55.30754949
            ],
            [
              10.59290641,
              55.30751244
            ],
            [
              10.59297879,
              55.30721661
            ],
            [
              10.59342418,
              55.30719212
            ],
            [
              10.59344461,
              55.30731888
            ],
            [
              10.59339031,
              55.30754949
            ]
          ]
        ]
      },
      "properties": {
        "source": "parcel_boundary"
      }
    }
  ]
}
