{
  "type": "FeatureCollection",
  "features": [
    {
      "type": "Feature",
      "geometry": {
        "type": "Polygon",
        "coordinates": [
          [
            [
              10.14373018,
              55.32783651
            ],
            [
              10.14370191,
              55.32791074
            ],
            [
              10.14348628,
              55.32854865
            ],
            [
              10.14343499,
              55.32862033
            ],
            [
              10.14336807,
              55.32868553
            ],
            [
              10.14330376,
              55.32876858
            ],
            [
              10.14326926,
              55.32881858
            ],
            [
              10.14315346,
              55.32917572
            ],
            [
              10.14201135,
              55.32906712
            ],
            [
              10.14202775,
              55.32896339
            ],
            [
              10.14218245,
              55.32851942
            ],
            [
              10.1422006,
              55.32839849
            ],
            [
              10.14230824,
              55.32834302
            ],
            [
              10.14236725,
              55.32831256
            ],
            [
              10.14244318,
              55.32827654
            ],
            [
              10.14262022,
              55.32818282
            ],
            [
              10.14279965,
              55.32809142
            ],
            [
              10.14286345,
              55.32806482
            ],
            [
              10.14302852,
              55.32799488
            ],
            [
              10.14314177,
              55.32794544
            ],
            [
              10.14322472,
              55.3279197
            ],
            [
              10.14332758,
              55.3278956
            ],
            [
              10.14358565,
              55.32784857
            ],
            [
              10.14373018,
              55.32783651
            ]
          ]
        ]
      },
      "properties": {
        "source": "parcel_boundary"
      }
    }
  ]
}
