{
  "type": "FeatureCollection",
  "features": [
    {
      "type": "Feature",
      "geometry": {
        "type": "Polygon",
        "coordinates": [
          [
            [
              9.68563211,
              55.8066773
            ],
            [
              9.68616063,
              55.80643655
            ],
            [
              9.68634671,
              55.80650364
            ],
            [
              9.68655232,
              55.80657778
            ],
            [
              9.68582801,
              55.80677054
            ],
            [
              9.68570882,
              55.80670725
            ],
            [
              9.68563211,
              55.8066773
            ]
          ]
        ]
      },
      "properties": {
        "source": "parcel_boundary"
      }
    }
  ]
}
