{
  "type": "FeatureCollection",
  "features": [
    {
      "type": "Feature",
      "geometry": {
        "type": "Polygon",
        "coordinates": [
          [
            [
              9.23336185,
              55.98722774
            ],
            [
              9.23351236,
              55.98721416
            ],
            [
              9.23331716,
              55.99020399
            ],
            [
              9.22941366,
              55.99087088
            ],
            [
              9.22884767,
              55.98764928
            ],
            [
              9.23274713,
              55.98728609
            ],
            [
              9.23336185,
              55.98722774
            ]
          ]
        ]
      },
      "properties": {
        "source": "parcel_boundary"
      }
    }
  ]
}
