{
  "type": "FeatureCollection",
  "features": [
    {
      "type": "Feature",
      "geometry": {
        "type": "Polygon",
        "coordinates": [
          [
            [
              10.66039364,
              55.4462588
            ],
            [
              10.66075555,
              55.44645621
            ],
            [
              10.66072231,
              55.44649842
            ],
            [
              10.66054012,
              55.44640341
            ],
            [
              10.66033938,
              55.44629873
            ],
            [
              10.66039364,
              55.4462588
            ]
          ]
        ]
      },
      "properties": {
        "source": "parcel_boundary"
      }
    }
  ]
}
