{
  "type": "FeatureCollection",
  "features": [
    {
      "type": "Feature",
      "geometry": {
        "type": "Polygon",
        "coordinates": [
          [
            [
              10.32193311,
              55.33666652
            ],
            [
              10.32224001,
              55.33665206
            ],
            [
              10.32225658,
              55.33681255
            ],
            [
              10.32164588,
              55.33684148
            ],
            [
              10.32162694,
              55.33668103
            ],
            [
              10.32193311,
              55.33666652
            ]
          ]
        ]
      },
      "properties": {
        "source": "parcel_boundary"
      }
    }
  ]
}
