{
  "type": "FeatureCollection",
  "features": [
    {
      "type": "Feature",
      "geometry": {
        "type": "Polygon",
        "coordinates": [
          [
            [
              9.57067658,
              55.67375433
            ],
            [
              9.57069573,
              55.67379073
            ],
            [
              9.57077253,
              55.67393661
            ],
            [
              9.57074227,
              55.67396819
            ],
            [
              9.57030439,
              55.67404181
            ],
            [
              9.57023501,
              55.67402018
            ],
            [
              9.57021624,
              55.67397493
            ],
            [
              9.57020191,
              55.67392917
            ],
            [
              9.57019208,
              55.67388305
            ],
            [
              9.57018675,
              55.67383668
            ],
            [
              9.57067658,
              55.67375433
            ]
          ]
        ]
      },
      "properties": {
        "source": "parcel_boundary"
      }
    }
  ]
}
