{
  "type": "FeatureCollection",
  "features": [
    {
      "type": "Feature",
      "geometry": {
        "type": "Polygon",
        "coordinates": [
          [
            [
              10.16579563,
              55.50749645
            ],
            [
              10.16581682,
              55.50722956
            ],
            [
              10.16626148,
              55.50727212
            ],
            [
              10.16611569,
              55.50758432
            ],
            [
              10.16579563,
              55.50749645
            ]
          ]
        ]
      },
      "properties": {
        "source": "parcel_boundary"
      }
    }
  ]
}
