{
  "type": "FeatureCollection",
  "features": [
    {
      "type": "Feature",
      "geometry": {
        "type": "Polygon",
        "coordinates": [
          [
            [
              9.31673173,
              56.03432966
            ],
            [
              9.31613482,
              56.03443987
            ],
            [
              9.31599263,
              56.0342198
            ],
            [
              9.31660666,
              56.03410767
            ],
            [
              9.31673173,
              56.03432966
            ]
          ]
        ]
      },
      "properties": {
        "source": "parcel_boundary"
      }
    }
  ]
}
