{
  "type": "FeatureCollection",
  "features": [
    {
      "type": "Feature",
      "geometry": {
        "type": "Polygon",
        "coordinates": [
          [
            [
              10.34203011,
              55.36255125
            ],
            [
              10.34275431,
              55.36244966
            ],
            [
              10.34274907,
              55.36249517
            ],
            [
              10.34274042,
              55.36257
            ],
            [
              10.34272608,
              55.36269401
            ],
            [
              10.34264251,
              55.36269078
            ],
            [
              10.34201667,
              55.36266661
            ],
            [
              10.34203011,
              55.36255125
            ]
          ]
        ]
      },
      "properties": {
        "source": "parcel_boundary"
      }
    }
  ]
}
