{
  "type": "FeatureCollection",
  "features": [
    {
      "type": "Feature",
      "geometry": {
        "type": "Polygon",
        "coordinates": [
          [
            [
              10.30672748,
              55.26995564
            ],
            [
              10.30685429,
              55.26996845
            ],
            [
              10.30699099,
              55.26999467
            ],
            [
              10.30708624,
              55.270014
            ],
            [
              10.30702288,
              55.27013228
            ],
            [
              10.30667699,
              55.27008133
            ],
            [
              10.30672748,
              55.26995564
            ]
          ]
        ]
      },
      "properties": {
        "source": "parcel_boundary"
      }
    }
  ]
}
