{
  "type": "FeatureCollection",
  "features": [
    {
      "type": "Feature",
      "geometry": {
        "type": "Polygon",
        "coordinates": [
          [
            [
              9.44860354,
              55.47912874
            ],
            [
              9.44859749,
              55.47906119
            ],
            [
              9.44860491,
              55.47897462
            ],
            [
              9.44863457,
              55.47889739
            ],
            [
              9.44915346,
              55.47897637
            ],
            [
              9.44914476,
              55.47905291
            ],
            [
              9.44914266,
              55.47912405
            ],
            [
              9.44860354,
              55.47912874
            ]
          ]
        ]
      },
      "properties": {
        "source": "parcel_boundary"
      }
    }
  ]
}
