{
  "type": "FeatureCollection",
  "features": [
    {
      "type": "Feature",
      "geometry": {
        "type": "Polygon",
        "coordinates": [
          [
            [
              10.40133987,
              55.51398975
            ],
            [
              10.40092167,
              55.5142325
            ],
            [
              10.40073484,
              55.51413668
            ],
            [
              10.40114341,
              55.51388624
            ],
            [
              10.40132014,
              55.51397932
            ],
            [
              10.40133987,
              55.51398975
            ]
          ]
        ]
      },
      "properties": {
        "source": "parcel_boundary"
      }
    }
  ]
}
