{
  "type": "FeatureCollection",
  "features": [
    {
      "type": "Feature",
      "geometry": {
        "type": "Polygon",
        "coordinates": [
          [
            [
              10.09643316,
              55.28274427
            ],
            [
              10.09610655,
              55.28252554
            ],
            [
              10.09611578,
              55.28252105
            ],
            [
              10.09617655,
              55.28249268
            ],
            [
              10.09626093,
              55.28245917
            ],
            [
              10.09634706,
              55.28242742
            ],
            [
              10.0964172,
              55.2824064
            ],
            [
              10.09671615,
              55.28260661
            ],
            [
              10.09651766,
              55.28270316
            ],
            [
              10.09643316,
              55.28274427
            ]
          ]
        ]
      },
      "properties": {
        "source": "parcel_boundary"
      }
    }
  ]
}
