{
  "type": "FeatureCollection",
  "features": [
    {
      "type": "Feature",
      "geometry": {
        "type": "Polygon",
        "coordinates": [
          [
            [
              10.44205935,
              55.40037958
            ],
            [
              10.44209718,
              55.40040066
            ],
            [
              10.44208793,
              55.40045373
            ],
            [
              10.4420831,
              55.40050699
            ],
            [
              10.44208272,
              55.40056031
            ],
            [
              10.44147044,
              55.40062795
            ],
            [
              10.44143558,
              55.40051039
            ],
            [
              10.4414121,
              55.40043153
            ],
            [
              10.44200807,
              55.40036486
            ],
            [
              10.44201442,
              55.40038523
            ],
            [
              10.44205935,
              55.40037958
            ]
          ]
        ]
      },
      "properties": {
        "source": "parcel_boundary"
      }
    }
  ]
}
