{
  "type": "FeatureCollection",
  "features": [
    {
      "type": "Feature",
      "geometry": {
        "type": "Polygon",
        "coordinates": [
          [
            [
              -7.8851,
              -0.5428000000000001
            ],
            [
              -3.9015099638966557,
              -1.2734981723518208
            ],
            [
              -3.3779504599730705,
              -1.3694966014568741
            ],
            [
              -2.9965974141329847,
              0.7611001613707754
            ],
            [
              -2.80319946828321,
              1.8415999049697653
            ],
            [
              -2.6622,
              1.8164000000000005
            ],
            [
              -2.5260109335119405,
              2.636586695473955
            ],
            [
              -3.0020673264573197,
              2.723794014633336
            ],
            [
              -7.042099999909687,
              3.4648000004924713
            ],
            [
              -6.841000818407095,
              4.561395537219198
            ],
            [
              -6.557199999978379,
              6.108699999996033
            ],
            [
              -2.085679897915623,
              5.288441696125066
            ],
            [
              -2.0328356467584525,
              5.606691558974337
            ],
            [
              -2.229403476985707,
              4.422879058428788
            ],
            [
              0.6577937237554948,
              3.9434622042966985
            ],
            [
              0.6720099303719083,
              4.029072560444705
            ],
            [
              0.505312268917426,
              3.0249979627664296
            ],
            [
              4.117852202741563,
              2.4251416452400476
            ],
            [
              4.117850862550369,
              2.425133574150244
            ],
            [
              4.4137927831460395,
              2.375992666104268
            ],
            [
              3.64166209368428,
              -2.274016335685924
            ],
            [
              -0.22779907449276948,
              -1.631494830920048
            ],
            [
              -0.35290000000000005,
              -2.3302
            ],
            [
              -4.011645093151386,
              -1.873909840646891
            ],
            [
              -4.3805000000000005,
              -3.8850000000000002
            ],
            [
              -8.3641,
              -3.1543
            ],
            [
              -7.8851,
              -0.5428000000000001
            ]
          ]
        ]
      },
      "properties": {
        "name": "footprint",
        "uuid": "146ecf8b-ffa1-4239-ba58-040b61861fd9",
        "status": "ok",
        "n_exposed_rooms": 5,
        "n_vertices": 26,
        "area_m2": 61.46890927391203,
        "is_valid": true,
        "is_simple": true,
        "hull_area_m2": 93.72889527204163,
        "convexity": 0.6558160009835045,
        "obb_aspect_ratio": 1.1937053057176987,
        "unbuffered_union_area_m2": 47.8518238967481,
        "buffer_bridged_ratio": 0.3871419962080984,
        "fell_back_to_hull": false,
        "error": null
      }
    },
    {
      "type": "Feature",
      "geometry": {
        "type": "Polygon",
        "coordinates": [
          [
            [
              -3.0021,
              2.7238
            ],
            [
              -7.0421,
              3.4648
            ],
            [
              -6.841,
              4.5614
            ],
            [
              -6.5572,
              6.1087
            ],
            [
              -2.5172,
              5.3676
            ],
            [
              -2.5296,
              5.2998
            ],
            [
              -2.4499,
              5.2852
            ],
            [
              -2.9224,
              2.7092
            ],
            [
              -3.0021,
              2.7238
            ]
          ]
        ]
      },
      "properties": {
        "name": "room_0"
      }
    },
    {
      "type": "Feature",
      "geometry": {
        "type": "Polygon",
        "coordinates": [
          [
            [
              -4.3805,
              -3.885
            ],
            [
              -8.3641,
              -3.1543
            ],
            [
              -7.8851,
              -0.5428
            ],
            [
              -3.9015,
              -1.2735
            ],
            [
              -3.553,
              -1.3374
            ],
            [
              -3.6236,
              -1.7223
            ],
            [
              -3.9721,
              -1.6583
            ],
            [
              -4.3805,
              -3.885
            ]
          ]
        ]
      },
      "properties": {
        "name": "room_1"
      }
    },
    {
      "type": "Feature",
      "geometry": {
        "type": "Polygon",
        "coordinates": [
          [
            [
              0.6578136681812201,
              3.9434588925402876
            ],
            [
              -2.2293944272686703,
              4.422877555730299
            ],
            [
              -2.65283622259345,
              1.8727775130053586
            ],
            [
              -0.40807433091057,
              1.5000366783522767
            ],
            [
              -0.37959921081299997,
              1.6715222220030155
            ],
            [
              0.2628467133868799,
              1.5648445412572098
            ],
            [
              0.6578136681812201,
              3.9434588925402876
            ]
          ]
        ]
      },
      "properties": {
        "name": "room_2"
      }
    },
    {
      "type": "Feature",
      "geometry": {
        "type": "Polygon",
        "coordinates": [
          [
            [
              -3.4801,
              -1.9402
            ],
            [
              -2.8032,
              1.8416
            ],
            [
              -2.9966,
              0.7611
            ],
            [
              -2.8032,
              1.8416
            ],
            [
              -2.6622,
              1.8164
            ],
            [
              -2.2294,
              4.4229
            ],
            [
              -2.6528,
              1.8728
            ],
            [
              -0.4081,
              1.5
            ],
            [
              -0.3796,
              1.6715
            ],
            [
              0.2628,
              1.5648
            ],
            [
              0.6578,
              3.9435
            ],
            [
              0.6578,
              3.9435
            ],
            [
              0.5053,
              3.025
            ],
            [
              4.4138,
              2.376
            ],
            [
              0.5934,
              3.0104
            ],
            [
              -0.1788,
              -1.6396
            ],
            [
              -0.2278,
              -1.6315
            ],
            [
              -0.3529,
              -2.3302
            ],
            [
              -3.4801,
              -1.9402
            ]
          ]
        ]
      },
      "properties": {
        "name": "room_3"
      }
    },
    {
      "type": "Feature",
      "geometry": {
        "type": "Polygon",
        "coordinates": [
          [
            [
              4.4137927831460395,
              2.375992666104268
            ],
            [
              0.59337366028184,
              3.010370061627953
            ],
            [
              -0.17875661856772007,
              -1.639638298759324
            ],
            [
              3.64166209368428,
              -2.274016335685924
            ],
            [
              4.4137927831460395,
              2.375992666104268
            ]
          ]
        ]
      },
      "properties": {
        "name": "room_4"
      }
    }
  ]
}