{
  "type": "FeatureCollection",
  "features": [
    {
      "type": "Feature",
      "geometry": {
        "type": "Polygon",
        "coordinates": [
          [
            [
              2.8665,
              -8.835800000000003
            ],
            [
              2.93849587622426,
              -8.823875100874272
            ],
            [
              2.8789389080202876,
              -8.464273480127394
            ],
            [
              2.1863012691462687,
              -4.282299789813701
            ],
            [
              4.731400000000001,
              -3.8608
            ],
            [
              5.25349897140534,
              -7.0133233636739165
            ],
            [
              5.313598236030227,
              -7.374497759087089
            ],
            [
              6.8744,
              -7.116
            ],
            [
              7.1435,
              -8.7402
            ],
            [
              9.0867,
              -8.4184
            ],
            [
              10.109,
              -14.5909
            ],
            [
              6.999704823726688,
              -15.105828942360118
            ],
            [
              7.012799999999949,
              -15.18439999999968
            ],
            [
              7.012757521954575,
              -15.184407035375466
            ],
            [
              7.999806717401167,
              -21.143877509256708
            ],
            [
              5.107186547684293,
              -21.622973867810646
            ],
            [
              4.169129166466682,
              -15.959300624568053
            ],
            [
              4.106711878097426,
              -15.584964686983762
            ],
            [
              4.097500000000001,
              -15.5865
            ],
            [
              3.899520147640831,
              -14.391073587605876
            ],
            [
              3.889700000000001,
              -14.392700000000005
            ],
            [
              3.2278212350904103,
              -10.396951631593552
            ],
            [
              3.1279,
              -10.4135
            ],
            [
              2.8665,
              -8.835800000000003
            ]
          ]
        ]
      },
      "properties": {
        "name": "footprint",
        "uuid": "1900be91-8684-4316-98e2-c4fef6e6296f",
        "status": "ok",
        "n_exposed_rooms": 6,
        "n_vertices": 23,
        "area_m2": 72.30455416515069,
        "is_valid": true,
        "is_simple": true,
        "hull_area_m2": 89.35842654302388,
        "convexity": 0.8091520516012872,
        "obb_aspect_ratio": 2.834076774339982,
        "unbuffered_union_area_m2": 69.86340111140625,
        "buffer_bridged_ratio": 0.35375317735983214,
        "fell_back_to_hull": false,
        "error": null
      }
    },
    {
      "type": "Feature",
      "geometry": {
        "type": "Polygon",
        "coordinates": [
          [
            [
              2.9385,
              -8.8239
            ],
            [
              2.8568,
              -8.3306
            ],
            [
              3.2824,
              -8.2601
            ],
            [
              3.2555,
              -8.0978
            ],
            [
              2.8299,
              -8.1683
            ],
            [
              2.1863,
              -4.2823
            ],
            [
              4.7314,
              -3.8608
            ],
            [
              5.3025,
              -7.3092
            ],
            [
              5.1204,
              -7.3393
            ],
            [
              5.3014,
              -8.4325
            ],
            [
              3.3641,
              -8.7534
            ],
            [
              2.9385,
              -8.8239
            ]
          ]
        ]
      },
      "properties": {
        "name": "room_0"
      }
    },
    {
      "type": "Feature",
      "geometry": {
        "type": "Polygon",
        "coordinates": [
          [
            [
              7.0128,
              -15.1844
            ],
            [
              4.1201,
              -15.6635
            ],
            [
              4.1071,
              -15.5849
            ],
            [
              4.0975,
              -15.5865
            ],
            [
              3.9165,
              -14.4936
            ],
            [
              6.7678,
              -14.0213
            ],
            [
              6.089,
              -9.9231
            ],
            [
              3.1279,
              -10.4135
            ],
            [
              2.8665,
              -8.8358
            ],
            [
              5.3014,
              -8.4325
            ],
            [
              5.1204,
              -7.3393
            ],
            [
              5.3025,
              -7.3092
            ],
            [
              5.3133,
              -7.3745
            ],
            [
              5.1729,
              -7.3978
            ],
            [
              6.8744,
              -7.116
            ],
            [
              7.1435,
              -8.7402
            ],
            [
              9.0867,
              -8.4184
            ],
            [
              10.109,
              -14.5909
            ],
            [
              6.9558,
              -15.1131
            ],
            [
              6.9997,
              -15.1058
            ],
            [
              7.0128,
              -15.1844
            ]
          ]
        ]
      },
      "properties": {
        "name": "room_1"
      }
    },
    {
      "type": "Feature",
      "geometry": {
        "type": "Polygon",
        "coordinates": [
          [
            [
              7.012750175373763,
              -15.184362679195816
            ],
            [
              4.120129775664755,
              -15.663458873118007
            ],
            [
              5.107186547684293,
              -21.622973867810646
            ],
            [
              7.999806717401167,
              -21.143877509256708
            ],
            [
              7.012750175373763,
              -15.184362679195816
            ]
          ]
        ]
      },
      "properties": {
        "name": "room_2"
      }
    },
    {
      "type": "Feature",
      "geometry": {
        "type": "Polygon",
        "coordinates": [
          [
            [
              3.8897,
              -14.3927
            ],
            [
              3.2488,
              -10.5236
            ],
            [
              3.2279,
              -10.397
            ],
            [
              6.089,
              -9.9231
            ],
            [
              6.7678,
              -14.0213
            ],
            [
              3.9165,
              -14.4936
            ],
            [
              3.8995,
              -14.3911
            ],
            [
              6.6762,
              -13.9312
            ],
            [
              3.8897,
              -14.3927
            ]
          ]
        ]
      },
      "properties": {
        "name": "room_3"
      }
    },
    {
      "type": "Feature",
      "geometry": {
        "type": "Polygon",
        "coordinates": [
          [
            [
              5.1501,
              -3.166
            ],
            [
              5.1536,
              -3.1871
            ],
            [
              8.5075,
              -2.5566
            ],
            [
              8.5908,
              -2.9998
            ],
            [
              5.525,
              -3.5761
            ],
            [
              5.4605,
              -3.2332
            ],
            [
              4.6785,
              -3.3815
            ],
            [
              4.6542,
              -3.231
            ],
            [
              5.0522,
              -3.1562
            ],
            [
              4.3434,
              0.6142
            ],
            [
              7.9653,
              1.295
            ],
            [
              8.6741,
              -2.4754
            ],
            [
              5.4355,
              -3.0841
            ],
            [
              5.4398,
              -3.1108
            ],
            [
              5.1501,
              -3.166
            ]
          ]
        ]
      },
      "properties": {
        "name": "room_4"
      }
    },
    {
      "type": "Feature",
      "geometry": {
        "type": "Polygon",
        "coordinates": [
          [
            [
              -1.5991,
              -0.3362
            ],
            [
              -2.4768,
              3.4309
            ],
            [
              -0.4443,
              3.7675
            ],
            [
              1.6981,
              2.1777
            ],
            [
              2.0153,
              0.2624
            ],
            [
              -1.5991,
              -0.3362
            ]
          ]
        ]
      },
      "properties": {
        "name": "room_5"
      }
    }
  ]
}