{
  "type": "FeatureCollection",
  "features": [
    {
      "type": "Feature",
      "geometry": {
        "type": "Polygon",
        "coordinates": [
          [
            [
              -6.97209950141057,
              5.570540434326563
            ],
            [
              -6.717638858914593,
              5.767730925399029
            ],
            [
              -8.101035433981187,
              7.58379319876404
            ],
            [
              -5.898845281829462,
              9.261321887995006
            ],
            [
              -5.896406147055874,
              9.258119893931541
            ],
            [
              0.2973636489412218,
              14.03758388197429
            ],
            [
              3.107166364056801,
              10.396325070421078
            ],
            [
              0.07726813251912178,
              8.278928100343961
            ],
            [
              1.2118244148390072,
              6.808642871948871
            ],
            [
              1.4155262357184333,
              6.546297515062802
            ],
            [
              1.4217401956031555,
              6.551031029306239
            ],
            [
              2.9855637374918693,
              4.498108305118822
            ],
            [
              3.005509445464333,
              4.472558568382728
            ],
            [
              6.122860828822495,
              0.3839364053406521
            ],
            [
              3.803793301542411,
              -1.382623884204703
            ],
            [
              3.775423927823393,
              -1.345381763449179
            ],
            [
              3.7362999999997273,
              -1.3752000000002083
            ],
            [
              3.7362802286016037,
              -1.3751740456306352
            ],
            [
              0.5128947186503011,
              -3.8306032219752075
            ],
            [
              -1.028378789613767,
              -1.8072838431525922
            ],
            [
              -1.028399999999937,
              -1.807300000000083
            ],
            [
              -1.0913894866902674,
              -1.7245138174927914
            ],
            [
              -1.0963976002370786,
              -1.7283287722237322
            ],
            [
              -2.0837788754982802,
              -0.4321363012853794
            ],
            [
              -2.033848058544454,
              -0.3941012525368045
            ],
            [
              -2.949782298021609,
              0.8082453742878052
            ],
            [
              -2.999199999999999,
              0.7705999999999997
            ],
            [
              -4.1762999999999995,
              2.3159999999999985
            ],
            [
              -4.139374316450179,
              2.344128625278231
            ],
            [
              -5.817297604381157,
              4.546796855187865
            ],
            [
              -6.7347999999862855,
              5.751300000010446
            ],
            [
              -6.97209950141057,
              5.570540434326563
            ]
          ]
        ]
      },
      "properties": {
        "name": "footprint",
        "uuid": "19bf6498-09eb-4c62-8fc8-8623942351ba",
        "status": "ok",
        "n_exposed_rooms": 9,
        "n_vertices": 31,
        "area_m2": 116.55831078064197,
        "is_valid": true,
        "is_simple": true,
        "hull_area_m2": 137.17389876796068,
        "convexity": 0.8497120212192013,
        "obb_aspect_ratio": 1.3149638487557678,
        "unbuffered_union_area_m2": 90.56699906426147,
        "buffer_bridged_ratio": 0.31758415545148205,
        "fell_back_to_hull": false,
        "error": null
      }
    },
    {
      "type": "Feature",
      "geometry": {
        "type": "Polygon",
        "coordinates": [
          [
            [
              2.1950202718457,
              0.6481213239739039
            ],
            [
              -1.0283617553431628,
              -1.807306205030372
            ],
            [
              0.5128947186503008,
              -3.830603221975208
            ],
            [
              3.7362771510646207,
              -1.3751763899590062
            ],
            [
              2.1950202718457,
              0.6481213239739039
            ]
          ]
        ]
      },
      "properties": {
        "name": "room_0"
      }
    },
    {
      "type": "Feature",
      "geometry": {
        "type": "Polygon",
        "coordinates": [
          [
            [
              3.18807216055291,
              4.236818238063976
            ],
            [
              0.8689010831114001,
              2.47017919441888
            ],
            [
              3.80379330154241,
              -1.3826238842047038
            ],
            [
              6.12296503432731,
              0.38401578436027584
            ],
            [
              3.18807216055291,
              4.236818238063976
            ]
          ]
        ]
      },
      "properties": {
        "name": "room_1"
      }
    },
    {
      "type": "Feature",
      "geometry": {
        "type": "Polygon",
        "coordinates": [
          [
            [
              1.4217401956031548,
              6.55103102930624
            ],
            [
              -0.9011752174859005,
              4.78153888610944
            ],
            [
              0.8433397002664669,
              2.491413168652
            ],
            [
              3.1662546777065748,
              4.26090472857364
            ],
            [
              1.4217401956031548,
              6.55103102930624
            ]
          ]
        ]
      },
      "properties": {
        "name": "room_2"
      }
    },
    {
      "type": "Feature",
      "geometry": {
        "type": "Polygon",
        "coordinates": [
          [
            [
              -1.0816,
              1.2868
            ],
            [
              -0.621,
              0.6821
            ],
            [
              -2.0339,
              -0.3941
            ],
            [
              -2.0743,
              -0.341
            ],
            [
              -2.9192,
              0.7681
            ],
            [
              -2.9192,
              0.7681
            ],
            [
              -2.9498,
              0.8082
            ],
            [
              -1.5867,
              1.8466
            ],
            [
              -1.5561,
              1.8064
            ],
            [
              -0.7112,
              0.6973
            ],
            [
              -1.1314,
              1.2489
            ],
            [
              -1.0816,
              1.2868
            ]
          ]
        ]
      },
      "properties": {
        "name": "room_3"
      }
    },
    {
      "type": "Feature",
      "geometry": {
        "type": "Polygon",
        "coordinates": [
          [
            [
              -0.8386,
              2.4165
            ],
            [
              -2.9992,
              0.7706
            ],
            [
              -4.1763,
              2.316
            ],
            [
              -0.948,
              4.7752
            ],
            [
              2.1439,
              0.7163
            ],
            [
              -0.9459,
              4.7724
            ],
            [
              1.3945,
              6.5719
            ],
            [
              1.4147,
              6.5457
            ],
            [
              -0.9012,
              4.7815
            ],
            [
              0.8433,
              2.4914
            ],
            [
              3.1663,
              4.2609
            ],
            [
              3.1859,
              4.2351
            ],
            [
              0.8689,
              2.4702
            ],
            [
              3.7754,
              -1.3454
            ],
            [
              3.7363,
              -1.3752
            ],
            [
              2.195,
              0.6481
            ],
            [
              -1.0284,
              -1.8073
            ],
            [
              -1.0914,
              -1.7245
            ],
            [
              0.9933,
              -0.1365
            ],
            [
              -0.4547,
              1.7644
            ],
            [
              -0.4366,
              1.7782
            ],
            [
              -0.3833,
              1.8188
            ],
            [
              -0.8386,
              2.4165
            ]
          ]
        ]
      },
      "properties": {
        "name": "room_4"
      }
    },
    {
      "type": "Feature",
      "geometry": {
        "type": "Polygon",
        "coordinates": [
          [
            [
              0.2973636489412226,
              14.037583881974292
            ],
            [
              -5.928048997635852,
              9.233702476137978
            ],
            [
              -1.9121210633104702,
              4.029408676814009
            ],
            [
              1.3944713147787724,
              6.571948542034722
            ],
            [
              0.07726813251912201,
              8.278928100343961
            ],
            [
              3.107166364056801,
              10.39632507042108
            ],
            [
              0.2973636489412226,
              14.037583881974292
            ]
          ]
        ]
      },
      "properties": {
        "name": "room_5"
      }
    },
    {
      "type": "Feature",
      "geometry": {
        "type": "Polygon",
        "coordinates": [
          [
            [
              -1.9176,
              4.0365
            ],
            [
              -4.1394,
              2.3441
            ],
            [
              -4.1667,
              2.38
            ],
            [
              -5.8173,
              4.5468
            ],
            [
              -6.7348,
              5.7513
            ],
            [
              -6.716,
              5.7656
            ],
            [
              -8.101,
              7.5838
            ],
            [
              -6.7446,
              5.8031
            ],
            [
              -4.5631,
              7.4649
            ],
            [
              -5.928,
              9.2337
            ],
            [
              -4.5343,
              7.4275
            ],
            [
              -6.7348,
              5.7513
            ],
            [
              -4.5316,
              7.4296
            ],
            [
              -2.1902,
              4.3558
            ],
            [
              -4.2037,
              6.9991
            ],
            [
              -1.9176,
              4.0365
            ]
          ]
        ]
      },
      "properties": {
        "name": "room_6"
      }
    },
    {
      "type": "Feature",
      "geometry": {
        "type": "Polygon",
        "coordinates": [
          [
            [
              -6.7445978248368,
              5.80312147198752
            ],
            [
              -8.101035433981187,
              7.58379319876404
            ],
            [
              -5.898845281829443,
              9.26132188799502
            ],
            [
              -5.896406147055856,
              9.258119893931557
            ],
            [
              -5.928048997635852,
              9.233702476137978
            ],
            [
              -4.563118620278779,
              7.464871258159056
            ],
            [
              -6.7445978248368,
              5.80312147198752
            ]
          ]
        ]
      },
      "properties": {
        "name": "room_7"
      }
    },
    {
      "type": "Feature",
      "geometry": {
        "type": "Polygon",
        "coordinates": [
          [
            [
              -0.45466467383059994,
              1.7644259895977301
            ],
            [
              -1.0816490785373598,
              1.28681799987761
            ],
            [
              -0.6210217465048039,
              0.682126234415603
            ],
            [
              -2.08377887549828,
              -0.43213630128538005
            ],
            [
              -1.0963976002370799,
              -1.72832877222373
            ],
            [
              0.9933433989892801,
              -0.1364584528065899
            ],
            [
              -0.45466467383059994,
              1.7644259895977301
            ]
          ]
        ]
      },
      "properties": {
        "name": "room_8"
      }
    }
  ]
}