{
  "type": "FeatureCollection",
  "features": [
    {
      "type": "Feature",
      "geometry": {
        "type": "Polygon",
        "coordinates": [
          [
            [
              -4.687,
              -1.3452
            ],
            [
              -2.1262567069861067,
              0.3585622706330327
            ],
            [
              -2.4437,
              0.8357000000000001
            ],
            [
              -0.6365967329606239,
              2.0381063082590973
            ],
            [
              -1.0636,
              2.6799
            ],
            [
              1.9164,
              4.6626
            ],
            [
              3.772400000000001,
              1.872899999999998
            ],
            [
              3.749816773671479,
              1.85787482205653
            ],
            [
              3.797899999999998,
              1.7856999999999994
            ],
            [
              1.9925506899699723,
              0.5845341247875115
            ],
            [
              3.111894843815656,
              -1.0978821407148642
            ],
            [
              3.1526,
              -1.0707999999999998
            ],
            [
              3.7318000000005966,
              -1.9414000000008962
            ],
            [
              3.7005,
              -1.8944
            ],
            [
              2.5289,
              -2.6739
            ],
            [
              1.9773185489546532,
              -1.8446653929073695
            ],
            [
              0.13510322909828,
              -3.0703273315166997
            ],
            [
              -0.008194377801408057,
              -2.854945671715168
            ],
            [
              -2.5551,
              -4.5495
            ],
            [
              -4.687,
              -1.3452
            ]
          ]
        ]
      },
      "properties": {
        "name": "footprint",
        "uuid": "287808db-3826-4351-b9a1-6f9831bdc870",
        "status": "ok",
        "n_exposed_rooms": 5,
        "n_vertices": 19,
        "area_m2": 38.49068644506017,
        "is_valid": true,
        "is_simple": true,
        "hull_area_m2": 46.8963484750019,
        "convexity": 0.8207608416586556,
        "obb_aspect_ratio": 1.3569851338916237,
        "unbuffered_union_area_m2": 19.086145872185654,
        "buffer_bridged_ratio": 0.6088680053097655,
        "fell_back_to_hull": false,
        "error": null
      }
    },
    {
      "type": "Feature",
      "geometry": {
        "type": "Polygon",
        "coordinates": [
          [
            [
              3.7318,
              -1.9414
            ],
            [
              3.7318,
              -1.9414
            ],
            [
              3.7005,
              -1.8944
            ],
            [
              2.5289,
              -2.6739
            ],
            [
              1.981,
              -1.8502
            ],
            [
              1.7369,
              -2.0127
            ],
            [
              3.1526,
              -1.0708
            ],
            [
              3.7318,
              -1.9414
            ]
          ]
        ]
      },
      "properties": {
        "name": "room_0"
      }
    },
    {
      "type": "Feature",
      "geometry": {
        "type": "Polygon",
        "coordinates": [
          [
            [
              1.2095,
              -0.1115
            ],
            [
              1.2692,
              -0.2013
            ],
            [
              0.862,
              -0.4722
            ],
            [
              0.862,
              -0.4722
            ],
            [
              0.9809,
              -0.3931
            ],
            [
              0.6924,
              0.0406
            ],
            [
              0.6924,
              0.0406
            ],
            [
              -1.0636,
              2.6799
            ],
            [
              1.9164,
              4.6626
            ],
            [
              3.7724,
              1.8729
            ],
            [
              1.0898,
              0.0881
            ],
            [
              3.7498,
              1.8579
            ],
            [
              3.7979,
              1.7857
            ],
            [
              1.9928,
              0.5847
            ],
            [
              1.1288,
              0.0099
            ],
            [
              1.1766,
              -0.0621
            ],
            [
              1.1479,
              -0.0189
            ],
            [
              1.2095,
              -0.1115
            ]
          ]
        ]
      },
      "properties": {
        "name": "room_1"
      }
    },
    {
      "type": "Feature",
      "geometry": {
        "type": "Polygon",
        "coordinates": [
          [
            [
              -1.4459077638546,
              -0.69400870907779
            ],
            [
              0.13510322909828,
              -3.0703273315166997
            ],
            [
              3.1081719416123197,
              -1.09228647900506
            ],
            [
              2.13551745950766,
              0.3696497054870148
            ],
            [
              1.565197250046824,
              -0.009796654667037052
            ],
            [
              -0.06337823299621193,
              -1.093319536687069
            ],
            [
              -0.6717352245801799,
              -0.17893511246435
            ],
            [
              -1.4459077638546,
              -0.69400870907779
            ]
          ]
        ]
      },
      "properties": {
        "name": "room_2"
      }
    },
    {
      "type": "Feature",
      "geometry": {
        "type": "Polygon",
        "coordinates": [
          [
            [
              -0.0705,
              -2.8964
            ],
            [
              -2.5551,
              -4.5495
            ],
            [
              -4.687,
              -1.3452
            ],
            [
              -2.1262,
              0.3586
            ],
            [
              -1.4321,
              -0.6848
            ],
            [
              -0.6717,
              -0.1789
            ],
            [
              -1.4459,
              -0.694
            ],
            [
              -0.0082,
              -2.855
            ],
            [
              -0.0384,
              -2.8751
            ],
            [
              -0.0705,
              -2.8964
            ]
          ]
        ]
      },
      "properties": {
        "name": "room_3"
      }
    },
    {
      "type": "Feature",
      "geometry": {
        "type": "Polygon",
        "coordinates": [
          [
            [
              0.8327,
              -0.4438
            ],
            [
              0.8573,
              -0.4808
            ],
            [
              -0.0634,
              -1.0933
            ],
            [
              -0.6515,
              -0.2093
            ],
            [
              -0.6717,
              -0.1789
            ],
            [
              -1.4321,
              -0.6848
            ],
            [
              -2.4437,
              0.8357
            ],
            [
              -0.7627,
              1.9542
            ],
            [
              0.8327,
              -0.4438
            ],
            [
              0.0195,
              -0.9848
            ],
            [
              0.8327,
              -0.4438
            ]
          ]
        ]
      },
      "properties": {
        "name": "room_4"
      }
    }
  ]
}