{
  "type": "FeatureCollection",
  "features": [
    {
      "type": "Feature",
      "geometry": {
        "type": "Polygon",
        "coordinates": [
          [
            [
              -3.940486649695181,
              5.725332547280739
            ],
            [
              -3.9053014605488037,
              5.698798063347688
            ],
            [
              -1.7352,
              8.5763
            ],
            [
              1.5350000000000015,
              6.110199999999998
            ],
            [
              1.5181689800702247,
              6.0878588247360685
            ],
            [
              4.424039751050084,
              3.896431703643714
            ],
            [
              2.300567631519851,
              1.0806704164372207
            ],
            [
              2.25212222266596,
              1.117204926249264
            ],
            [
              0.2652219525638111,
              -1.5174600202641046
            ],
            [
              -1.6655293796876065,
              -0.061414429670912936
            ],
            [
              -1.6606437230714304,
              -0.05171539827478339
            ],
            [
              -3.465993744679456,
              1.3097686118987992
            ],
            [
              -3.4622558247001765,
              1.3161174926358097
            ],
            [
              -5.88676660700622,
              3.144531650855236
            ],
            [
              -3.940486649695181,
              5.725332547280739
            ]
          ]
        ]
      },
      "properties": {
        "name": "footprint",
        "uuid": "3a034c99-8986-4749-aedb-0a5a04ea803f",
        "status": "ok",
        "n_exposed_rooms": 5,
        "n_vertices": 14,
        "area_m2": 52.78538272621615,
        "is_valid": true,
        "is_simple": true,
        "hull_area_m2": 53.04695615317324,
        "convexity": 0.995069020997137,
        "obb_aspect_ratio": 1.1355710539190587,
        "unbuffered_union_area_m2": 37.02199787805788,
        "buffer_bridged_ratio": 0.4021488548888268,
        "fell_back_to_hull": false,
        "error": null
      }
    },
    {
      "type": "Feature",
      "geometry": {
        "type": "Polygon",
        "coordinates": [
          [
            [
              1.5182,
              6.0879
            ],
            [
              1.5893,
              6.0342
            ],
            [
              -0.5342,
              3.2185
            ],
            [
              2.2521,
              1.1172
            ],
            [
              2.2018,
              1.0505
            ],
            [
              0.3091,
              2.4779
            ],
            [
              -1.1452,
              0.5495
            ],
            [
              -1.6275,
              -0.0901
            ],
            [
              0.2652,
              -1.5175
            ],
            [
              -1.6275,
              -0.0901
            ],
            [
              -1.6211,
              -0.0815
            ],
            [
              -3.4401,
              1.2903
            ],
            [
              -3.4357,
              1.2961
            ],
            [
              -3.4805,
              1.3299
            ],
            [
              -1.5343,
              3.9107
            ],
            [
              -3.9053,
              5.6988
            ],
            [
              -1.7352,
              8.5763
            ],
            [
              1.535,
              6.1102
            ],
            [
              1.5182,
              6.0879
            ]
          ]
        ]
      },
      "properties": {
        "name": "room_0"
      }
    },
    {
      "type": "Feature",
      "geometry": {
        "type": "Polygon",
        "coordinates": [
          [
            [
              -3.9404866496951803,
              5.72533254728074
            ],
            [
              -5.88676660700622,
              3.144531650855236
            ],
            [
              -3.48053334986452,
              1.329901257192184
            ],
            [
              -1.5342543140302802,
              3.910701596051064
            ],
            [
              -3.9404866496951803,
              5.72533254728074
            ]
          ]
        ]
      },
      "properties": {
        "name": "room_1"
      }
    },
    {
      "type": "Feature",
      "geometry": {
        "type": "Polygon",
        "coordinates": [
          [
            [
              1.5892988646911421,
              6.034217086832532
            ],
            [
              -0.5341731161081429,
              3.218455319257697
            ],
            [
              2.300567631519851,
              1.0806704164372207
            ],
            [
              4.424039751050084,
              3.8964317036437137
            ],
            [
              1.5892988646911421,
              6.034217086832532
            ]
          ]
        ]
      },
      "properties": {
        "name": "room_2"
      }
    },
    {
      "type": "Feature",
      "geometry": {
        "type": "Polygon",
        "coordinates": [
          [
            [
              0.3090519325637,
              2.477855221905415
            ],
            [
              -1.145170394291435,
              0.549530370546035
            ],
            [
              -1.62751916503111,
              -0.09007235052471008
            ],
            [
              0.26522195256683495,
              -1.517460020260095
            ],
            [
              2.201792809316825,
              1.05046723280543
            ],
            [
              0.3090519325637,
              2.477855221905415
            ]
          ]
        ]
      },
      "properties": {
        "name": "room_3"
      }
    },
    {
      "type": "Feature",
      "geometry": {
        "type": "Polygon",
        "coordinates": [
          [
            [
              -1.4794073489111454,
              3.8902189359847306
            ],
            [
              -3.4401309257856547,
              1.2902644636945841
            ],
            [
              -1.6909888074190227,
              -0.028831000993298384
            ],
            [
              0.26973516877137993,
              2.5711244226447683
            ],
            [
              -1.4794073489111454,
              3.8902189359847306
            ]
          ]
        ]
      },
      "properties": {
        "name": "room_4"
      }
    }
  ]
}