{
  "type": "FeatureCollection",
  "features": [
    {
      "type": "Feature",
      "geometry": {
        "type": "Polygon",
        "coordinates": [
          [
            [
              2.797974139379675,
              0.8196200067599931
            ],
            [
              1.874921318944647,
              0.9355125570750903
            ],
            [
              0.8509886404262704,
              0.5496288485788782
            ],
            [
              1.0367696618081372,
              2.0293239276807937
            ],
            [
              -0.073677591686623,
              2.168744724556377
            ],
            [
              -0.030845777303072256,
              2.5098899242877364
            ],
            [
              -2.7101861449173406,
              2.84629102680137
            ],
            [
              -2.4238180021352433,
              5.1271386355604145
            ],
            [
              2.2275387358175234,
              4.543143618952682
            ],
            [
              3.263250638749967,
              4.413106388917097
            ],
            [
              3.049547618349693,
              2.7110239598960746
            ],
            [
              3.0356654213025887,
              2.71276692069815
            ],
            [
              2.797974139379675,
              0.8196200067599931
            ]
          ]
        ]
      },
      "properties": {
        "name": "footprint",
        "uuid": "a1ac389f-7406-4ddf-a270-d9a5e72dbf51",
        "status": "ok",
        "n_exposed_rooms": 2,
        "n_vertices": 12,
        "area_m2": 16.313993994396295,
        "is_valid": true,
        "is_simple": true,
        "hull_area_m2": 19.68466404553197,
        "convexity": 0.8287666965847583,
        "obb_aspect_ratio": 1.3865190767200568,
        "unbuffered_union_area_m2": 16.260505870582534,
        "buffer_bridged_ratio": 0.27779447002199886,
        "fell_back_to_hull": false,
        "error": null
      }
    },
    {
      "type": "Feature",
      "geometry": {
        "type": "Polygon",
        "coordinates": [
          [
            [
              -2.4238180021352433,
              5.1271386355604145
            ],
            [
              -2.7101861449173406,
              2.84629102680137
            ],
            [
              -0.030845777303072225,
              2.5098899242877364
            ],
            [
              -0.073677591686623,
              2.168744724556377
            ],
            [
              1.898338977483982,
              1.921150684713118
            ],
            [
              2.013837162118399,
              2.841061209863473
            ],
            [
              3.049547618349693,
              2.711023959896075
            ],
            [
              3.263250638749967,
              4.413106388917097
            ],
            [
              2.2275387685093273,
              4.543143614848105
            ],
            [
              -2.4238180021352433,
              5.1271386355604145
            ]
          ]
        ]
      },
      "properties": {
        "name": "room_0"
      }
    },
    {
      "type": "Feature",
      "geometry": {
        "type": "Polygon",
        "coordinates": [
          [
            [
              2.797974139379675,
              0.8196200067599931
            ],
            [
              1.874921318944647,
              0.9355125570750902
            ],
            [
              0.8509886404262703,
              0.5496288485788781
            ],
            [
              1.0285670002974094,
              1.9639919697516022
            ],
            [
              1.8345750498523916,
              1.8627947672859677
            ],
            [
              1.8427777046922718,
              1.9281266098672958
            ],
            [
              1.898338977483982,
              1.921150684713118
            ],
            [
              2.013837162118399,
              2.841061209863473
            ],
            [
              3.035665421302589,
              2.7127669206981504
            ],
            [
              2.797974139379675,
              0.8196200067599931
            ]
          ]
        ]
      },
      "properties": {
        "name": "room_1"
      }
    }
  ]
}