{
  "type": "FeatureCollection",
  "features": [
    {
      "type": "Feature",
      "geometry": {
        "type": "Polygon",
        "coordinates": [
          [
            [
              10.58722964,
              55.35683194
            ],
            [
              10.58728933,
              55.35691259
            ],
            [
              10.58679282,
              55.35703803
            ],
            [
              10.5866708,
              55.35706908
            ],
            [
              10.58655701,
              55.35692035
            ],
            [
              10.58717635,
              55.35676564
            ],
            [
              10.58722964,
              55.35683194
            ]
          ]
        ]
      },
      "properties": {
        "source": "parcel_boundary"
      }
    }
  ]
}
