{
  "type": "FeatureCollection",
  "features": [
    {
      "type": "Feature",
      "geometry": {
        "type": "Polygon",
        "coordinates": [
          [
            [
              9.47106133,
              55.5022395
            ],
            [
              9.47109723,
              55.50197888
            ],
            [
              9.47144739,
              55.50198534
            ],
            [
              9.47141156,
              55.50227937
            ],
            [
              9.4711193,
              55.50226726
            ],
            [
              9.47106133,
              55.5022395
            ]
          ]
        ]
      },
      "properties": {
        "source": "parcel_boundary"
      }
    }
  ]
}
