{
  "type": "FeatureCollection",
  "features": [
    {
      "type": "Feature",
      "geometry": {
        "type": "Polygon",
        "coordinates": [
          [
            [
              9.55187177,
              55.67995458
            ],
            [
              9.55226738,
              55.6799622
            ],
            [
              9.55225205,
              55.68024509
            ],
            [
              9.55185614,
              55.68023823
            ],
            [
              9.55187177,
              55.67995458
            ]
          ]
        ]
      },
      "properties": {
        "source": "parcel_boundary"
      }
    }
  ]
}
