{
  "type": "FeatureCollection",
  "features": [
    {
      "type": "Feature",
      "geometry": {
        "type": "Polygon",
        "coordinates": [
          [
            [
              9.72915509,
              55.56005138
            ],
            [
              9.72911852,
              55.56009349
            ],
            [
              9.72911005,
              55.56029787
            ],
            [
              9.72888273,
              55.5602914
            ],
            [
              9.72888431,
              55.56020547
            ],
            [
              9.72889014,
              55.56003736
            ],
            [
              9.72917989,
              55.56004019
            ],
            [
              9.72915509,
              55.56005138
            ]
          ]
        ]
      },
      "properties": {
        "source": "parcel_boundary"
      }
    }
  ]
}
