{
  "type": "FeatureCollection",
  "features": [
    {
      "type": "Feature",
      "geometry": {
        "type": "Polygon",
        "coordinates": [
          [
            [
              10.19251308,
              55.4484625
            ],
            [
              10.19302177,
              55.44840857
            ],
            [
              10.19303011,
              55.44843635
            ],
            [
              10.19308843,
              55.4486428
            ],
            [
              10.19258889,
              55.4486962
            ],
            [
              10.19251308,
              55.4484625
            ]
          ]
        ]
      },
      "properties": {
        "source": "parcel_boundary"
      }
    }
  ]
}
