{
  "type": "FeatureCollection",
  "features": [
    {
      "type": "Feature",
      "geometry": {
        "type": "Polygon",
        "coordinates": [
          [
            [
              10.3624476,
              55.37713024
            ],
            [
              10.3622167,
              55.37717895
            ],
            [
              10.36192396,
              55.3767103
            ],
            [
              10.36210613,
              55.37666737
            ],
            [
              10.36215425,
              55.37665731
            ],
            [
              10.3624476,
              55.37713024
            ]
          ]
        ]
      },
      "properties": {
        "source": "parcel_boundary"
      }
    }
  ]
}
