{
  "type": "FeatureCollection",
  "features": [
    {
      "type": "Feature",
      "geometry": {
        "type": "Polygon",
        "coordinates": [
          [
            [
              10.67382437,
              55.25055863
            ],
            [
              10.67359757,
              55.250512
            ],
            [
              10.6734557,
              55.25047862
            ],
            [
              10.67373724,
              55.25005479
            ],
            [
              10.67410589,
              55.25013472
            ],
            [
              10.67382437,
              55.25055863
            ]
          ]
        ]
      },
      "properties": {
        "source": "parcel_boundary"
      }
    }
  ]
}
