{
  "type": "FeatureCollection",
  "features": [
    {
      "type": "Feature",
      "geometry": {
        "type": "Polygon",
        "coordinates": [
          [
            [
              9.46692838,
              55.4992482
            ],
            [
              9.46691194,
              55.49923953
            ],
            [
              9.46688563,
              55.49905565
            ],
            [
              9.46742106,
              55.49903178
            ],
            [
              9.46744821,
              55.49919191
            ],
            [
              9.46720381,
              55.49922007
            ],
            [
              9.46692838,
              55.4992482
            ]
          ]
        ]
      },
      "properties": {
        "source": "parcel_boundary"
      }
    }
  ]
}
