{
  "type": "FeatureCollection",
  "features": [
    {
      "type": "Feature",
      "geometry": {
        "type": "Polygon",
        "coordinates": [
          [
            [
              10.35880519,
              55.43331795
            ],
            [
              10.35904643,
              55.43324601
            ],
            [
              10.35937849,
              55.43360887
            ],
            [
              10.35914039,
              55.433682
            ],
            [
              10.35880519,
              55.43331795
            ]
          ]
        ]
      },
      "properties": {
        "source": "parcel_boundary"
      }
    }
  ]
}
