{
  "type": "FeatureCollection",
  "features": [
    {
      "type": "Feature",
      "geometry": {
        "type": "Polygon",
        "coordinates": [
          [
            [
              10.39273922,
              55.38866863
            ],
            [
              10.39217636,
              55.38865882
            ],
            [
              10.39217961,
              55.38860394
            ],
            [
              10.39273748,
              55.38861377
            ],
            [
              10.39273823,
              55.38863731
            ],
            [
              10.39273922,
              55.38866863
            ]
          ]
        ]
      },
      "properties": {
        "source": "parcel_boundary"
      }
    }
  ]
}
