{
  "type": "FeatureCollection",
  "features": [
    {
      "type": "Feature",
      "geometry": {
        "type": "Polygon",
        "coordinates": [
          [
            [
              10.39758324,
              55.30038422
            ],
            [
              10.39816136,
              55.30042538
            ],
            [
              10.39811935,
              55.30061752
            ],
            [
              10.39803243,
              55.30065613
            ],
            [
              10.39753161,
              55.30062045
            ],
            [
              10.39757928,
              55.30040209
            ],
            [
              10.39758324,
              55.30038422
            ]
          ]
        ]
      },
      "properties": {
        "source": "parcel_boundary"
      }
    }
  ]
}
