{
  "type": "FeatureCollection",
  "features": [
    {
      "type": "Feature",
      "geometry": {
        "type": "Polygon",
        "coordinates": [
          [
            [
              10.7740375,
              55.30362261
            ],
            [
              10.7739546,
              55.30368284
            ],
            [
              10.77381027,
              55.30378774
            ],
            [
              10.77375614,
              55.30382698
            ],
            [
              10.77344946,
              55.30360729
            ],
            [
              10.77343377,
              55.30359402
            ],
            [
              10.77342295,
              55.30357928
            ],
            [
              10.77341745,
              55.3035636
            ],
            [
              10.77341746,
              55.3035476
            ],
            [
              10.77342297,
              55.30353192
            ],
            [
              10.77343379,
              55.30351715
            ],
            [
              10.77344949,
              55.3035039
            ],
            [
              10.77346944,
              55.30349268
            ],
            [
              10.77368503,
              55.30338761
            ],
            [
              10.7740375,
              55.30362261
            ]
          ]
        ]
      },
      "properties": {
        "source": "parcel_boundary"
      }
    }
  ]
}
