{
  "type": "FeatureCollection",
  "features": [
    {
      "type": "Feature",
      "geometry": {
        "type": "Polygon",
        "coordinates": [
          [
            [
              9.51682458,
              55.72134826
            ],
            [
              9.51686184,
              55.72134276
            ],
            [
              9.51699657,
              55.72162909
            ],
            [
              9.51666714,
              55.72167879
            ],
            [
              9.51653272,
              55.72139148
            ],
            [
              9.51682458,
              55.72134826
            ]
          ]
        ]
      },
      "properties": {
        "source": "parcel_boundary"
      }
    }
  ]
}
