{
  "type": "FeatureCollection",
  "features": [
    {
      "type": "Feature",
      "geometry": {
        "type": "Polygon",
        "coordinates": [
          [
            [
              10.18572633,
              55.5614136
            ],
            [
              10.18573851,
              55.5614455
            ],
            [
              10.18526146,
              55.561446
            ],
            [
              10.18525375,
              55.56141263
            ],
            [
              10.18526379,
              55.56141242
            ],
            [
              10.18520511,
              55.56116544
            ],
            [
              10.1856068,
              55.56114941
            ],
            [
              10.18572633,
              55.5614136
            ]
          ]
        ]
      },
      "properties": {
        "source": "parcel_boundary"
      }
    }
  ]
}
