{
  "type": "FeatureCollection",
  "features": [
    {
      "type": "Feature",
      "geometry": {
        "type": "Polygon",
        "coordinates": [
          [
            [
              10.35964022,
              55.37452883
            ],
            [
              10.35968371,
              55.37426545
            ],
            [
              10.36001649,
              55.37420751
            ],
            [
              10.35997989,
              55.37443659
            ],
            [
              10.35987133,
              55.37446607
            ],
            [
              10.35964022,
              55.37452883
            ]
          ]
        ]
      },
      "properties": {
        "source": "parcel_boundary"
      }
    }
  ]
}
