{
  "type": "FeatureCollection",
  "features": [
    {
      "type": "Feature",
      "geometry": {
        "type": "Polygon",
        "coordinates": [
          [
            [
              9.85226627,
              55.84389618
            ],
            [
              9.85265191,
              55.84383037
            ],
            [
              9.85281223,
              55.84412212
            ],
            [
              9.85251797,
              55.84417308
            ],
            [
              9.85244492,
              55.84416928
            ],
            [
              9.85239825,
              55.84413743
            ],
            [
              9.85226627,
              55.84389618
            ]
          ]
        ]
      },
      "properties": {
        "source": "parcel_boundary"
      }
    }
  ]
}
