{
  "type": "FeatureCollection",
  "features": [
    {
      "type": "Feature",
      "geometry": {
        "type": "Polygon",
        "coordinates": [
          [
            [
              10.52606345,
              55.18027197
            ],
            [
              10.52604724,
              55.18004134
            ],
            [
              10.52623118,
              55.18003539
            ],
            [
              10.52625924,
              55.18003449
            ],
            [
              10.52627559,
              55.18026708
            ],
            [
              10.5261451,
              55.18027009
            ],
            [
              10.52606345,
              55.18027197
            ]
          ]
        ]
      },
      "properties": {
        "source": "parcel_boundary"
      }
    }
  ]
}
