{
  "type": "FeatureCollection",
  "features": [
    {
      "type": "Feature",
      "geometry": {
        "type": "Polygon",
        "coordinates": [
          [
            [
              10.73215068,
              55.36894602
            ],
            [
              10.73210231,
              55.36932823
            ],
            [
              10.73186814,
              55.36929951
            ],
            [
              10.73186327,
              55.36917623
            ],
            [
              10.73189859,
              55.36909206
            ],
            [
              10.73190578,
              55.36890555
            ],
            [
              10.73215068,
              55.36894602
            ]
          ]
        ]
      },
      "properties": {
        "source": "parcel_boundary"
      }
    }
  ]
}
