{
  "type": "FeatureCollection",
  "features": [
    {
      "type": "Feature",
      "geometry": {
        "type": "Polygon",
        "coordinates": [
          [
            [
              10.1094883,
              55.4142111
            ],
            [
              10.10950345,
              55.41398219
            ],
            [
              10.11022684,
              55.41396654
            ],
            [
              10.11025526,
              55.41419499
            ],
            [
              10.1094883,
              55.4142111
            ]
          ]
        ]
      },
      "properties": {
        "source": "parcel_boundary"
      }
    }
  ]
}
