{
  "type": "FeatureCollection",
  "features": [
    {
      "type": "Feature",
      "geometry": {
        "type": "Polygon",
        "coordinates": [
          [
            [
              10.79490493,
              55.33168456
            ],
            [
              10.79491358,
              55.3315948
            ],
            [
              10.79491674,
              55.33156702
            ],
            [
              10.79551494,
              55.33156407
            ],
            [
              10.79551653,
              55.33168152
            ],
            [
              10.79490493,
              55.33168456
            ]
          ]
        ]
      },
      "properties": {
        "source": "parcel_boundary"
      }
    }
  ]
}
