{
  "type": "FeatureCollection",
  "features": [
    {
      "type": "Feature",
      "geometry": {
        "type": "Polygon",
        "coordinates": [
          [
            [
              9.91269697,
              55.26865853
            ],
            [
              9.91269024,
              55.26858949
            ],
            [
              9.91266327,
              55.26853598
            ],
            [
              9.91320927,
              55.26848917
            ],
            [
              9.91326971,
              55.26862041
            ],
            [
              9.91269208,
              55.2686695
            ],
            [
              9.91269697,
              55.26865853
            ]
          ]
        ]
      },
      "properties": {
        "source": "parcel_boundary"
      }
    }
  ]
}
