{
  "type": "FeatureCollection",
  "features": [
    {
      "type": "Feature",
      "geometry": {
        "type": "Polygon",
        "coordinates": [
          [
            [
              10.36267842,
              55.41572861
            ],
            [
              10.36252403,
              55.41586862
            ],
            [
              10.36202843,
              55.41569179
            ],
            [
              10.36218575,
              55.41555283
            ],
            [
              10.36267842,
              55.41572861
            ]
          ]
        ]
      },
      "properties": {
        "source": "parcel_boundary"
      }
    }
  ]
}
