{
  "type": "FeatureCollection",
  "features": [
    {
      "type": "Feature",
      "geometry": {
        "type": "Polygon",
        "coordinates": [
          [
            [
              9.55180906,
              55.69718428
            ],
            [
              9.55172203,
              55.69710012
            ],
            [
              9.55224838,
              55.69705551
            ],
            [
              9.55243876,
              55.69727973
            ],
            [
              9.55188833,
              55.69737233
            ],
            [
              9.55181106,
              55.69739387
            ],
            [
              9.55180906,
              55.69718428
            ]
          ]
        ]
      },
      "properties": {
        "source": "parcel_boundary"
      }
    }
  ]
}
