{
  "type": "FeatureCollection",
  "features": [
    {
      "type": "Feature",
      "geometry": {
        "type": "Polygon",
        "coordinates": [
          [
            [
              10.34896378,
              55.39277439
            ],
            [
              10.34835156,
              55.39282113
            ],
            [
              10.34833587,
              55.39275261
            ],
            [
              10.34833112,
              55.39273188
            ],
            [
              10.34894352,
              55.39268571
            ],
            [
              10.34896378,
              55.39277439
            ]
          ]
        ]
      },
      "properties": {
        "source": "parcel_boundary"
      }
    }
  ]
}
