{
  "type": "FeatureCollection",
  "features": [
    {
      "type": "Feature",
      "geometry": {
        "type": "Polygon",
        "coordinates": [
          [
            [
              9.86254094,
              55.86246647
            ],
            [
              9.8625463,
              55.8624099
            ],
            [
              9.86298547,
              55.86241652
            ],
            [
              9.86297927,
              55.86247266
            ],
            [
              9.86254094,
              55.86246647
            ]
          ]
        ]
      },
      "properties": {
        "source": "parcel_boundary"
      }
    }
  ]
}
