{
  "type": "FeatureCollection",
  "features": [
    {
      "type": "Feature",
      "geometry": {
        "type": "Polygon",
        "coordinates": [
          [
            [
              9.52138834,
              55.72426733
            ],
            [
              9.52090304,
              55.7242625
            ],
            [
              9.52090864,
              55.72424191
            ],
            [
              9.52095618,
              55.72407096
            ],
            [
              9.52148993,
              55.72407113
            ],
            [
              9.5214858,
              55.72420548
            ],
            [
              9.52139032,
              55.72420447
            ],
            [
              9.52138834,
              55.72426733
            ]
          ]
        ]
      },
      "properties": {
        "source": "parcel_boundary"
      }
    }
  ]
}
