{
  "type": "FeatureCollection",
  "features": [
    {
      "type": "Feature",
      "geometry": {
        "type": "Polygon",
        "coordinates": [
          [
            [
              9.66655666,
              55.85753268
            ],
            [
              9.66613522,
              55.85754886
            ],
            [
              9.66609079,
              55.85732381
            ],
            [
              9.66656661,
              55.85729266
            ],
            [
              9.66660905,
              55.85749746
            ],
            [
              9.66655666,
              55.85753268
            ]
          ]
        ]
      },
      "properties": {
        "source": "parcel_boundary"
      }
    }
  ]
}
