{
  "type": "FeatureCollection",
  "features": [
    {
      "type": "Feature",
      "geometry": {
        "type": "Polygon",
        "coordinates": [
          [
            [
              10.44251282,
              55.33793167
            ],
            [
              10.4422742,
              55.33792227
            ],
            [
              10.44223287,
              55.33789516
            ],
            [
              10.44224562,
              55.33779051
            ],
            [
              10.44252868,
              55.33780114
            ],
            [
              10.44251282,
              55.33793167
            ]
          ]
        ]
      },
      "properties": {
        "source": "parcel_boundary"
      }
    }
  ]
}
