{
  "type": "FeatureCollection",
  "features": [
    {
      "type": "Feature",
      "geometry": {
        "type": "Polygon",
        "coordinates": [
          [
            [
              9.40993931,
              55.74836432
            ],
            [
              9.41000773,
              55.74812491
            ],
            [
              9.41007611,
              55.7478855
            ],
            [
              9.41015285,
              55.74761929
            ],
            [
              9.41166202,
              55.7477564
            ],
            [
              9.41134692,
              55.74885957
            ],
            [
              9.41126396,
              55.74882811
            ],
            [
              9.4111779,
              55.7487994
            ],
            [
              9.41108907,
              55.74877354
            ],
            [
              9.41099772,
              55.7487506
            ],
            [
              9.4109042,
              55.74873067
            ],
            [
              9.4108088,
              55.7487138
            ],
            [
              9.41071183,
              55.74870007
            ],
            [
              9.41061362,
              55.7486895
            ],
            [
              9.40986588,
              55.74862148
            ],
            [
              9.40993931,
              55.74836432
            ]
          ]
        ]
      },
      "properties": {
        "source": "parcel_boundary"
      }
    }
  ]
}
