{
  "type": "FeatureCollection",
  "features": [
    {
      "type": "Feature",
      "geometry": {
        "type": "Polygon",
        "coordinates": [
          [
            [
              10.09279757,
              55.49977524
            ],
            [
              10.09296466,
              55.5002932
            ],
            [
              10.09227449,
              55.4995557
            ],
            [
              10.09269126,
              55.49946396
            ],
            [
              10.09308873,
              55.49937837
            ],
            [
              10.09320744,
              55.49974033
            ],
            [
              10.09279757,
              55.49977524
            ]
          ]
        ]
      },
      "properties": {
        "source": "parcel_boundary"
      }
    }
  ]
}
