{
  "type": "FeatureCollection",
  "features": [
    {
      "type": "Feature",
      "geometry": {
        "type": "Polygon",
        "coordinates": [
          [
            [
              10.37590288,
              55.33438196
            ],
            [
              10.37586409,
              55.33440377
            ],
            [
              10.37554513,
              55.33447579
            ],
            [
              10.37525183,
              55.33405839
            ],
            [
              10.37561769,
              55.33397512
            ],
            [
              10.37590288,
              55.33438196
            ]
          ]
        ]
      },
      "properties": {
        "source": "parcel_boundary"
      }
    }
  ]
}
