{
  "type": "FeatureCollection",
  "features": [
    {
      "type": "Feature",
      "geometry": {
        "type": "Polygon",
        "coordinates": [
          [
            [
              10.44927463,
              55.54434451
            ],
            [
              10.44858701,
              55.5444757
            ],
            [
              10.44851719,
              55.54443714
            ],
            [
              10.44797876,
              55.54413981
            ],
            [
              10.44410397,
              55.54199992
            ],
            [
              10.44428381,
              55.54093228
            ],
            [
              10.44849911,
              55.5432262
            ],
            [
              10.44879072,
              55.54368463
            ],
            [
              10.44893644,
              55.54405126
            ],
            [
              10.44898688,
              55.54414678
            ],
            [
              10.44902148,
              55.54419025
            ],
            [
              10.44903205,
              55.54420351
            ],
            [
              10.44906239,
              55.54424163
            ],
            [
              10.44911765,
              55.5442818
            ],
            [
              10.44918403,
              55.54429986
            ],
            [
              10.4491965,
              55.54429911
            ],
            [
              10.44927463,
              55.54434451
            ]
          ]
        ]
      },
      "properties": {
        "source": "parcel_boundary"
      }
    }
  ]
}
