{
  "type": "FeatureCollection",
  "features": [
    {
      "type": "Feature",
      "geometry": {
        "type": "Polygon",
        "coordinates": [
          [
            [
              9.85568547,
              55.7568952
            ],
            [
              9.85563705,
              55.7568984
            ],
            [
              9.85485953,
              55.75695229
            ],
            [
              9.85479049,
              55.75693208
            ],
            [
              9.85476691,
              55.75684832
            ],
            [
              9.85467315,
              55.75651536
            ],
            [
              9.8552619,
              55.7564763
            ],
            [
              9.85527196,
              55.75648587
            ],
            [
              9.85535016,
              55.75648054
            ],
            [
              9.85536965,
              55.75657575
            ],
            [
              9.85550282,
              55.75670325
            ],
            [
              9.85549306,
              55.75670685
            ],
            [
              9.85568547,
              55.7568952
            ]
          ]
        ]
      },
      "properties": {
        "source": "parcel_boundary"
      }
    }
  ]
}
