{
  "type": "FeatureCollection",
  "features": [
    {
      "type": "Feature",
      "geometry": {
        "type": "Polygon",
        "coordinates": [
          [
            [
              9.53059794,
              55.7258057
            ],
            [
              9.53051396,
              55.72625637
            ],
            [
              9.53019645,
              55.7262435
            ],
            [
              9.53027302,
              55.7258121
            ],
            [
              9.53050861,
              55.72581695
            ],
            [
              9.53059794,
              55.7258057
            ]
          ]
        ]
      },
      "properties": {
        "source": "parcel_boundary"
      }
    }
  ]
}
