{
  "type": "FeatureCollection",
  "features": [
    {
      "type": "Feature",
      "geometry": {
        "type": "Polygon",
        "coordinates": [
          [
            [
              10.43545866,
              55.42676576
            ],
            [
              10.43568708,
              55.42667866
            ],
            [
              10.43600742,
              55.42700005
            ],
            [
              10.43596383,
              55.42701769
            ],
            [
              10.43585851,
              55.42705655
            ],
            [
              10.43575726,
              55.42709241
            ],
            [
              10.43545866,
              55.42676576
            ]
          ]
        ]
      },
      "properties": {
        "source": "parcel_boundary"
      }
    }
  ]
}
