{
  "type": "FeatureCollection",
  "features": [
    {
      "type": "Feature",
      "geometry": {
        "type": "Polygon",
        "coordinates": [
          [
            [
              10.34363642,
              55.36483114
            ],
            [
              10.34330601,
              55.36481821
            ],
            [
              10.34334628,
              55.36449804
            ],
            [
              10.34367719,
              55.36451068
            ],
            [
              10.34363642,
              55.36483114
            ]
          ]
        ]
      },
      "properties": {
        "source": "parcel_boundary"
      }
    }
  ]
}
