{
  "type": "FeatureCollection",
  "features": [
    {
      "type": "Feature",
      "geometry": {
        "type": "Polygon",
        "coordinates": [
          [
            [
              9.5920038,
              55.65392638
            ],
            [
              9.59209729,
              55.65376267
            ],
            [
              9.59220794,
              55.65360189
            ],
            [
              9.59273749,
              55.65374192
            ],
            [
              9.59700809,
              55.65487113
            ],
            [
              9.59678406,
              55.65516349
            ],
            [
              9.59617849,
              55.65557468
            ],
            [
              9.59598117,
              55.65564747
            ],
            [
              9.59436246,
              55.65500103
            ],
            [
              9.59316249,
              55.65443522
            ],
            [
              9.59237848,
              55.65426822
            ],
            [
              9.59240713,
              55.6539703
            ],
            [
              9.5920038,
              55.65392638
            ]
          ]
        ]
      },
      "properties": {
        "source": "parcel_boundary"
      }
    }
  ]
}
