{
  "type": "FeatureCollection",
  "features": [
    {
      "type": "Feature",
      "geometry": {
        "type": "Polygon",
        "coordinates": [
          [
            [
              10.66317624,
              55.35926458
            ],
            [
              10.66284692,
              55.35935111
            ],
            [
              10.66258275,
              55.35902486
            ],
            [
              10.66291206,
              55.35893832
            ],
            [
              10.66317624,
              55.35926458
            ]
          ]
        ]
      },
      "properties": {
        "source": "parcel_boundary"
      }
    }
  ]
}
