{
  "type": "FeatureCollection",
  "features": [
    {
      "type": "Feature",
      "geometry": {
        "type": "Polygon",
        "coordinates": [
          [
            [
              9.56933183,
              55.67218122
            ],
            [
              9.56965632,
              55.6721076
            ],
            [
              9.56998822,
              55.67203233
            ],
            [
              9.57010069,
              55.6721907
            ],
            [
              9.57006538,
              55.67223744
            ],
            [
              9.56967181,
              55.67232672
            ],
            [
              9.56959447,
              55.67230982
            ],
            [
              9.56939278,
              55.67226632
            ],
            [
              9.56933183,
              55.67218122
            ]
          ]
        ]
      },
      "properties": {
        "source": "parcel_boundary"
      }
    }
  ]
}
