{
  "type": "FeatureCollection",
  "features": [
    {
      "type": "Feature",
      "geometry": {
        "type": "Polygon",
        "coordinates": [
          [
            [
              10.644136,
              55.27471882
            ],
            [
              10.64487636,
              55.27513808
            ],
            [
              10.6443557,
              55.27540405
            ],
            [
              10.64381695,
              55.27487992
            ],
            [
              10.64411614,
              55.27472588
            ],
            [
              10.644136,
              55.27471882
            ]
          ]
        ]
      },
      "properties": {
        "source": "parcel_boundary"
      }
    }
  ]
}
