{
  "type": "FeatureCollection",
  "features": [
    {
      "type": "Feature",
      "geometry": {
        "type": "Polygon",
        "coordinates": [
          [
            [
              10.13893171,
              55.38630257
            ],
            [
              10.13826802,
              55.38623306
            ],
            [
              10.13831972,
              55.38601705
            ],
            [
              10.13872765,
              55.38606587
            ],
            [
              10.138969,
              55.38609299
            ],
            [
              10.13893171,
              55.38630257
            ]
          ]
        ]
      },
      "properties": {
        "source": "parcel_boundary"
      }
    }
  ]
}
