{
  "type": "FeatureCollection",
  "features": [
    {
      "type": "Feature",
      "geometry": {
        "type": "Polygon",
        "coordinates": [
          [
            [
              10.3258237,
              55.33418314
            ],
            [
              10.32599152,
              55.3343663
            ],
            [
              10.32543272,
              55.3345327
            ],
            [
              10.32526486,
              55.33434955
            ],
            [
              10.3258237,
              55.33418314
            ]
          ]
        ]
      },
      "properties": {
        "source": "parcel_boundary"
      }
    }
  ]
}
