{
  "type": "FeatureCollection",
  "features": [
    {
      "type": "Feature",
      "geometry": {
        "type": "Polygon",
        "coordinates": [
          [
            [
              10.44948418,
              55.30149117
            ],
            [
              10.44979237,
              55.30151234
            ],
            [
              10.44972743,
              55.3018378
            ],
            [
              10.45002611,
              55.30185406
            ],
            [
              10.45002139,
              55.30196263
            ],
            [
              10.44939234,
              55.30192001
            ],
            [
              10.44941626,
              55.30181194
            ],
            [
              10.44948418,
              55.30149117
            ]
          ]
        ]
      },
      "properties": {
        "source": "parcel_boundary"
      }
    }
  ]
}
