{
  "type": "FeatureCollection",
  "features": [
    {
      "type": "Feature",
      "geometry": {
        "type": "Polygon",
        "coordinates": [
          [
            [
              10.19195043,
              55.17552438
            ],
            [
              10.19184619,
              55.1752428
            ],
            [
              10.19190613,
              55.17519009
            ],
            [
              10.19223932,
              55.17514972
            ],
            [
              10.19235957,
              55.17547474
            ],
            [
              10.19195043,
              55.17552438
            ]
          ]
        ]
      },
      "properties": {
        "source": "parcel_boundary"
      }
    }
  ]
}
