{
  "type": "FeatureCollection",
  "features": [
    {
      "type": "Feature",
      "geometry": {
        "type": "Polygon",
        "coordinates": [
          [
            [
              10.35656589,
              55.36602763
            ],
            [
              10.35658789,
              55.36583488
            ],
            [
              10.35684849,
              55.3656738
            ],
            [
              10.35686431,
              55.36568989
            ],
            [
              10.35706226,
              55.36589121
            ],
            [
              10.35657128,
              55.36603635
            ],
            [
              10.35656589,
              55.36602763
            ]
          ]
        ]
      },
      "properties": {
        "source": "parcel_boundary"
      }
    }
  ]
}
