{
  "type": "FeatureCollection",
  "features": [
    {
      "type": "Feature",
      "geometry": {
        "type": "Polygon",
        "coordinates": [
          [
            [
              9.72499215,
              55.90798656
            ],
            [
              9.72493968,
              55.90798136
            ],
            [
              9.72487377,
              55.90796832
            ],
            [
              9.72478611,
              55.90791333
            ],
            [
              9.7246465,
              55.90760203
            ],
            [
              9.72510523,
              55.90751499
            ],
            [
              9.7252942,
              55.90782043
            ],
            [
              9.72523508,
              55.90783413
            ],
            [
              9.72528856,
              55.90791779
            ],
            [
              9.72499215,
              55.90798656
            ]
          ]
        ]
      },
      "properties": {
        "source": "parcel_boundary"
      }
    }
  ]
}
