{
  "type": "FeatureCollection",
  "features": [
    {
      "type": "Feature",
      "geometry": {
        "type": "Polygon",
        "coordinates": [
          [
            [
              10.32883982,
              55.41078681
            ],
            [
              10.32887891,
              55.41083745
            ],
            [
              10.32889702,
              55.41087627
            ],
            [
              10.32890271,
              55.41095861
            ],
            [
              10.32831623,
              55.41094834
            ],
            [
              10.32875539,
              55.41077887
            ],
            [
              10.32883982,
              55.41078681
            ]
          ]
        ]
      },
      "properties": {
        "source": "parcel_boundary"
      }
    }
  ]
}
