{
  "type": "FeatureCollection",
  "features": [
    {
      "type": "Feature",
      "geometry": {
        "type": "Polygon",
        "coordinates": [
          [
            [
              10.43006104,
              55.32806935
            ],
            [
              10.43010057,
              55.3280656
            ],
            [
              10.43013889,
              55.32805892
            ],
            [
              10.4301753,
              55.32804941
            ],
            [
              10.43046413,
              55.32841911
            ],
            [
              10.43003517,
              55.32844174
            ],
            [
              10.42997236,
              55.32808504
            ],
            [
              10.43006104,
              55.32806935
            ]
          ]
        ]
      },
      "properties": {
        "source": "parcel_boundary"
      }
    }
  ]
}
