{
  "type": "FeatureCollection",
  "features": [
    {
      "type": "Feature",
      "geometry": {
        "type": "Polygon",
        "coordinates": [
          [
            [
              10.39284522,
              55.52261978
            ],
            [
              10.39325638,
              55.52248478
            ],
            [
              10.39332492,
              55.52246228
            ],
            [
              10.39351214,
              55.52264578
            ],
            [
              10.39303242,
              55.52280328
            ],
            [
              10.39284522,
              55.52261978
            ]
          ]
        ]
      },
      "properties": {
        "source": "parcel_boundary"
      }
    }
  ]
}
