{
  "type": "FeatureCollection",
  "features": [
    {
      "type": "Feature",
      "geometry": {
        "type": "Polygon",
        "coordinates": [
          [
            [
              10.39716261,
              55.42167662
            ],
            [
              10.3968775,
              55.42145577
            ],
            [
              10.39706972,
              55.42137796
            ],
            [
              10.39736062,
              55.42161299
            ],
            [
              10.39721495,
              55.42167197
            ],
            [
              10.39720122,
              55.42166099
            ],
            [
              10.39716261,
              55.42167662
            ]
          ]
        ]
      },
      "properties": {
        "source": "parcel_boundary"
      }
    }
  ]
}
