{
  "type": "FeatureCollection",
  "features": [
    {
      "type": "Feature",
      "geometry": {
        "type": "Polygon",
        "coordinates": [
          [
            [
              9.85460771,
              55.87039133
            ],
            [
              9.85520434,
              55.87035444
            ],
            [
              9.85522829,
              55.87047836
            ],
            [
              9.85462624,
              55.87051617
            ],
            [
              9.85460771,
              55.87039133
            ]
          ]
        ]
      },
      "properties": {
        "source": "parcel_boundary"
      }
    }
  ]
}
